[
  {
    "cust_id": 13970437,
    "legal_name": "Leo Wealth Japan KK",
    "dba_name": "Leo Wealth Japan KK",
    "city": "Chiyoda-ku",
    "state": "13",
    "zip_code": 0,
    "ytd_returns": 542,
    "prv1_returns": 116,
    "growth_rate": 367.2413793103448,
    "firm_size": "501-1000"
  },
  {
    "cust_id": 14133989,
    "legal_name": "SEKIYAMA US TAX CONSULTING LLC",
    "dba_name": "American Expatriate Tax",
    "city": "Minato-ku",
    "state": "13",
    "zip_code": 0,
    "ytd_returns": 2,
    "prv1_returns": 1,
    "growth_rate": 100.0,
    "firm_size": "0-500"
  },
  {
    "cust_id": 13797557,
    "legal_name": "TETSUKO S HO CPA INC",
    "dba_name": "TSUCHIDA & ASSOCIATES",
    "city": "CHIYODA",
    "state": "13",
    "zip_code": 10200,
    "ytd_returns": 211,
    "prv1_returns": 167,
    "growth_rate": 26.34730538922156,
    "firm_size": "0-500"
  },
  {
    "cust_id": 2339911,
    "legal_name": "SEKIYAMA US TAX CONSULTING LLC",
    "dba_name": "SEKIYAMA US TAX CONSULTING LLC",
    "city": "MINATO-KU",
    "state": "13",
    "zip_code": 0,
    "ytd_returns": 98,
    "prv1_returns": 83,
    "growth_rate": 18.072289156626507,
    "firm_size": "0-500"
  },
  {
    "cust_id": 1819841,
    "legal_name": "DELOITTE TOHMATSU TAX CO",
    "dba_name": "DELOITTE TOHMATSU TAX CO",
    "city": "CHIYODA-KU",
    "state": "13",
    "zip_code": 0,
    "ytd_returns": 487,
    "prv1_returns": 456,
    "growth_rate": 6.798245614035088,
    "firm_size": "0-500"
  },
  {
    "cust_id": 14707640,
    "legal_name": "InWIT Inc",
    "dba_name": "InWIT Inc",
    "city": "Chiyoda-ku",
    "state": "13",
    "zip_code": 0,
    "ytd_returns": 0,
    "prv1_returns": 0,
    "growth_rate": 0.0,
    "firm_size": NaN
  },
  {
    "cust_id": 13970437,
    "legal_name": "Leo Wealth Japan KK",
    "dba_name": "Leo Wealth Japan KK",
    "city": "Chiyoda-ku",
    "state": "13",
    "zip_code": 0,
    "ytd_returns": 542,
    "prv1_returns": 116,
    "growth_rate": 367.2413793103448,
    "firm_size": "501-1000"
  },
  {
    "cust_id": 14133989,
    "legal_name": "SEKIYAMA US TAX CONSULTING LLC",
    "dba_name": "American Expatriate Tax",
    "city": "Minato-ku",
    "state": "13",
    "zip_code": 0,
    "ytd_returns": 2,
    "prv1_returns": 1,
    "growth_rate": 100.0,
    "firm_size": "0-500"
  },
  {
    "cust_id": 13797557,
    "legal_name": "TETSUKO S HO CPA INC",
    "dba_name": "TSUCHIDA & ASSOCIATES",
    "city": "CHIYODA",
    "state": "13",
    "zip_code": 10200,
    "ytd_returns": 211,
    "prv1_returns": 167,
    "growth_rate": 26.34730538922156,
    "firm_size": "0-500"
  },
  {
    "cust_id": 2339911,
    "legal_name": "SEKIYAMA US TAX CONSULTING LLC",
    "dba_name": "SEKIYAMA US TAX CONSULTING LLC",
    "city": "MINATO-KU",
    "state": "13",
    "zip_code": 0,
    "ytd_returns": 98,
    "prv1_returns": 83,
    "growth_rate": 18.072289156626507,
    "firm_size": "0-500"
  },
  {
    "cust_id": 1819841,
    "legal_name": "DELOITTE TOHMATSU TAX CO",
    "dba_name": "DELOITTE TOHMATSU TAX CO",
    "city": "CHIYODA-KU",
    "state": "13",
    "zip_code": 0,
    "ytd_returns": 487,
    "prv1_returns": 456,
    "growth_rate": 6.798245614035088,
    "firm_size": "0-500"
  },
  {
    "cust_id": 14707640,
    "legal_name": "InWIT Inc",
    "dba_name": "InWIT Inc",
    "city": "Chiyoda-ku",
    "state": "13",
    "zip_code": 0,
    "ytd_returns": 0,
    "prv1_returns": 0,
    "growth_rate": 0.0,
    "firm_size": NaN
  },
  {
    "cust_id": 13649739,
    "legal_name": "Walter Paul Houston Jr. CPA",
    "dba_name": "PwC Tax Japan",
    "city": "Tokyo",
    "state": "13",
    "zip_code": 0,
    "ytd_returns": 0,
    "prv1_returns": 2,
    "growth_rate": -100.0,
    "firm_size": NaN
  },
  {
    "cust_id": 14182299,
    "legal_name": "Eric T Azevedo",
    "dba_name": "Eric Azevedo  CPA",
    "city": "Setagaya-ku",
    "state": "13",
    "zip_code": 0,
    "ytd_returns": 70,
    "prv1_returns": 12,
    "growth_rate": 483.3333333333333,
    "firm_size": "0-500"
  },
  {
    "cust_id": 14032438,
    "legal_name": "Valerie Vaugouin",
    "dba_name": "Veritax Consulting",
    "city": "Aix-en-Provence",
    "state": "13",
    "zip_code": 13090,
    "ytd_returns": 70,
    "prv1_returns": 57,
    "growth_rate": 22.807017543859647,
    "firm_size": "0-500"
  },
  {
    "cust_id": 2322249,
    "legal_name": "chuck rees",
    "dba_name": "Chuck Rees",
    "city": "MINATO-KU",
    "state": "13",
    "zip_code": 0,
    "ytd_returns": 663,
    "prv1_returns": 648,
    "growth_rate": 2.314814814814815,
    "firm_size": "501-1000"
  },
  {
    "cust_id": 14675040,
    "legal_name": "Erica Hemmi",
    "dba_name": "Erica  Hemmi",
    "city": "Chiyoda-ku",
    "state": "13",
    "zip_code": 0,
    "ytd_returns": 0,
    "prv1_returns": 0,
    "growth_rate": 0.0,
    "firm_size": NaN
  },
  {
    "cust_id": 14675040,
    "legal_name": "Erica Hemmi",
    "dba_name": "Erica  Hemmi",
    "city": "Chiyoda-ku",
    "state": "13",
    "zip_code": 0,
    "ytd_returns": 0,
    "prv1_returns": 0,
    "growth_rate": 0.0,
    "firm_size": NaN
  },
  {
    "cust_id": 13649739,
    "legal_name": "Walter Paul Houston Jr. CPA",
    "dba_name": "PwC Tax Japan",
    "city": "Tokyo",
    "state": "13",
    "zip_code": 0,
    "ytd_returns": 0,
    "prv1_returns": 2,
    "growth_rate": -100.0,
    "firm_size": NaN
  },
  {
    "cust_id": 14182299,
    "legal_name": "Eric T Azevedo",
    "dba_name": "Eric Azevedo  CPA",
    "city": "Setagaya-ku",
    "state": "13",
    "zip_code": 0,
    "ytd_returns": 70,
    "prv1_returns": 12,
    "growth_rate": 483.3333333333333,
    "firm_size": "0-500"
  },
  {
    "cust_id": 14032438,
    "legal_name": "Valerie Vaugouin",
    "dba_name": "Veritax Consulting",
    "city": "Aix-en-Provence",
    "state": "13",
    "zip_code": 13090,
    "ytd_returns": 70,
    "prv1_returns": 57,
    "growth_rate": 22.807017543859647,
    "firm_size": "0-500"
  },
  {
    "cust_id": 2322249,
    "legal_name": "chuck rees",
    "dba_name": "Chuck Rees",
    "city": "MINATO-KU",
    "state": "13",
    "zip_code": 0,
    "ytd_returns": 663,
    "prv1_returns": 648,
    "growth_rate": 2.314814814814815,
    "firm_size": "501-1000"
  }
]