[
  {
    "cust_id": 2355707,
    "legal_name": "MERA DANIELS PARIS TAX ASSOCIATES",
    "dba_name": "MERA DANIELS PARIS TAX ASSOCIATES",
    "city": "PARIS",
    "state": "75",
    "zip_code": 75016,
    "ytd_returns": 512,
    "prv1_returns": 495,
    "growth_rate": 3.4343434343434343,
    "firm_size": "501-1000"
  },
  {
    "cust_id": 1868928,
    "legal_name": "Lynda A Vercruysse",
    "dba_name": "LYNDA A VERCRUYSSE",
    "city": "BOISSY SAINT LEGER",
    "state": "75",
    "zip_code": 94470,
    "ytd_returns": 192,
    "prv1_returns": 204,
    "growth_rate": -5.88235294117647,
    "firm_size": "0-500"
  },
  {
    "cust_id": 2355707,
    "legal_name": "MERA DANIELS PARIS TAX ASSOCIATES",
    "dba_name": "MERA DANIELS PARIS TAX ASSOCIATES",
    "city": "PARIS",
    "state": "75",
    "zip_code": 75016,
    "ytd_returns": 512,
    "prv1_returns": 495,
    "growth_rate": 3.4343434343434343,
    "firm_size": "501-1000"
  },
  {
    "cust_id": 2519282,
    "legal_name": "Theodore Laris",
    "dba_name": "Theodore Laris",
    "city": "PARIS",
    "state": "75",
    "zip_code": 75003,
    "ytd_returns": 121,
    "prv1_returns": 127,
    "growth_rate": -4.724409448818897,
    "firm_size": "0-500"
  },
  {
    "cust_id": 2449539,
    "legal_name": "Lee Oster",
    "dba_name": "Lee Oster",
    "city": "PARIS",
    "state": "75",
    "zip_code": 75016,
    "ytd_returns": 4,
    "prv1_returns": 9,
    "growth_rate": -55.55555555555556,
    "firm_size": "0-500"
  },
  {
    "cust_id": 2534919,
    "legal_name": "SIMONARD & SOREL AVOCATS",
    "dba_name": "SIMONARD & SOREL AVOCATS",
    "city": "PARIS",
    "state": "75",
    "zip_code": 75008,
    "ytd_returns": 97,
    "prv1_returns": 55,
    "growth_rate": 76.36363636363637,
    "firm_size": "0-500"
  },
  {
    "cust_id": 1611943,
    "legal_name": "HORTON TAX SERVICES SARL",
    "dba_name": "HORTON TAX SERVICES SARL",
    "city": "PARIS",
    "state": "75",
    "zip_code": 75016,
    "ytd_returns": 1308,
    "prv1_returns": 1186,
    "growth_rate": 10.286677908937603,
    "firm_size": "1001-5000"
  },
  {
    "cust_id": 13561141,
    "legal_name": "Smith Carmichael Associes",
    "dba_name": "Smith Carmichael Associes",
    "city": "Paris",
    "state": "75",
    "zip_code": 75006,
    "ytd_returns": 660,
    "prv1_returns": 631,
    "growth_rate": 4.595879556259905,
    "firm_size": "501-1000"
  },
  {
    "cust_id": 2101131,
    "legal_name": "GOEXPAT SARL",
    "dba_name": "GOEXPAT SARL",
    "city": "PARIS",
    "state": "75",
    "zip_code": 75008,
    "ytd_returns": 359,
    "prv1_returns": 356,
    "growth_rate": 0.8426966292134831,
    "firm_size": "0-500"
  },
  {
    "cust_id": 2323195,
    "legal_name": "SOTHEBY'S FRANCE SAS",
    "dba_name": "SOTHEBY'S FRANCE SAS",
    "city": "PARIS CEDEX",
    "state": "75",
    "zip_code": 75384,
    "ytd_returns": 0,
    "prv1_returns": 0,
    "growth_rate": 0.0,
    "firm_size": NaN
  },
  {
    "cust_id": 13596522,
    "legal_name": "Winnie P Peng",
    "dba_name": "Winnie Tam CPA",
    "city": "Paris",
    "state": "75",
    "zip_code": 75020,
    "ytd_returns": 31,
    "prv1_returns": 37,
    "growth_rate": -16.216216216216218,
    "firm_size": "0-500"
  },
  {
    "cust_id": 13546586,
    "legal_name": "Accountancy Saint-Paul",
    "dba_name": "Accountancy Saint-Paul",
    "city": "Paris",
    "state": "75",
    "zip_code": 75004,
    "ytd_returns": 25,
    "prv1_returns": 119,
    "growth_rate": -78.99159663865547,
    "firm_size": "0-500"
  },
  {
    "cust_id": 2534919,
    "legal_name": "SIMONARD & SOREL AVOCATS",
    "dba_name": "SIMONARD & SOREL AVOCATS",
    "city": "PARIS",
    "state": "75",
    "zip_code": 75008,
    "ytd_returns": 97,
    "prv1_returns": 55,
    "growth_rate": 76.36363636363637,
    "firm_size": "0-500"
  },
  {
    "cust_id": 1611943,
    "legal_name": "HORTON TAX SERVICES SARL",
    "dba_name": "HORTON TAX SERVICES SARL",
    "city": "PARIS",
    "state": "75",
    "zip_code": 75016,
    "ytd_returns": 1308,
    "prv1_returns": 1186,
    "growth_rate": 10.286677908937603,
    "firm_size": "1001-5000"
  },
  {
    "cust_id": 13561141,
    "legal_name": "Smith Carmichael Associes",
    "dba_name": "Smith Carmichael Associes",
    "city": "Paris",
    "state": "75",
    "zip_code": 75006,
    "ytd_returns": 660,
    "prv1_returns": 631,
    "growth_rate": 4.595879556259905,
    "firm_size": "501-1000"
  },
  {
    "cust_id": 2101131,
    "legal_name": "GOEXPAT SARL",
    "dba_name": "GOEXPAT SARL",
    "city": "PARIS",
    "state": "75",
    "zip_code": 75008,
    "ytd_returns": 359,
    "prv1_returns": 356,
    "growth_rate": 0.8426966292134831,
    "firm_size": "0-500"
  },
  {
    "cust_id": 2323195,
    "legal_name": "SOTHEBY'S FRANCE SAS",
    "dba_name": "SOTHEBY'S FRANCE SAS",
    "city": "PARIS CEDEX",
    "state": "75",
    "zip_code": 75384,
    "ytd_returns": 0,
    "prv1_returns": 0,
    "growth_rate": 0.0,
    "firm_size": NaN
  },
  {
    "cust_id": 13596522,
    "legal_name": "Winnie P Peng",
    "dba_name": "Winnie Tam CPA",
    "city": "Paris",
    "state": "75",
    "zip_code": 75020,
    "ytd_returns": 31,
    "prv1_returns": 37,
    "growth_rate": -16.216216216216218,
    "firm_size": "0-500"
  },
  {
    "cust_id": 13546586,
    "legal_name": "Accountancy Saint-Paul",
    "dba_name": "Accountancy Saint-Paul",
    "city": "Paris",
    "state": "75",
    "zip_code": 75004,
    "ytd_returns": 25,
    "prv1_returns": 119,
    "growth_rate": -78.99159663865547,
    "firm_size": "0-500"
  },
  {
    "cust_id": 2318625,
    "legal_name": "Margueritte S Britton",
    "dba_name": "Margueritte S Britton",
    "city": "PARIS",
    "state": "75",
    "zip_code": 75014,
    "ytd_returns": 2,
    "prv1_returns": 5,
    "growth_rate": -60.0,
    "firm_size": "0-500"
  },
  {
    "cust_id": 14184685,
    "legal_name": "Damian L Guilleminault",
    "dba_name": "Damian L Guilleminault",
    "city": "Paris",
    "state": "75",
    "zip_code": 75116,
    "ytd_returns": 22,
    "prv1_returns": 0,
    "growth_rate": 2200.0,
    "firm_size": "0-500"
  },
  {
    "cust_id": 203327,
    "legal_name": "Norman Reuter",
    "dba_name": "NORMAN REUTER",
    "city": "PARIS",
    "state": "75",
    "zip_code": 75014,
    "ytd_returns": 445,
    "prv1_returns": 452,
    "growth_rate": -1.5486725663716814,
    "firm_size": "0-500"
  },
  {
    "cust_id": 1868928,
    "legal_name": "Lynda A Vercruysse",
    "dba_name": "LYNDA A VERCRUYSSE",
    "city": "BOISSY SAINT LEGER",
    "state": "75",
    "zip_code": 94470,
    "ytd_returns": 192,
    "prv1_returns": 204,
    "growth_rate": -5.88235294117647,
    "firm_size": "0-500"
  },
  {
    "cust_id": 2519282,
    "legal_name": "Theodore Laris",
    "dba_name": "Theodore Laris",
    "city": "PARIS",
    "state": "75",
    "zip_code": 75003,
    "ytd_returns": 121,
    "prv1_returns": 127,
    "growth_rate": -4.724409448818897,
    "firm_size": "0-500"
  },
  {
    "cust_id": 2449539,
    "legal_name": "Lee Oster",
    "dba_name": "Lee Oster",
    "city": "PARIS",
    "state": "75",
    "zip_code": 75016,
    "ytd_returns": 4,
    "prv1_returns": 9,
    "growth_rate": -55.55555555555556,
    "firm_size": "0-500"
  },
  {
    "cust_id": 2318625,
    "legal_name": "Margueritte S Britton",
    "dba_name": "Margueritte S Britton",
    "city": "PARIS",
    "state": "75",
    "zip_code": 75014,
    "ytd_returns": 2,
    "prv1_returns": 5,
    "growth_rate": -60.0,
    "firm_size": "0-500"
  },
  {
    "cust_id": 203327,
    "legal_name": "Norman Reuter",
    "dba_name": "NORMAN REUTER",
    "city": "PARIS",
    "state": "75",
    "zip_code": 75014,
    "ytd_returns": 445,
    "prv1_returns": 452,
    "growth_rate": -1.5486725663716814,
    "firm_size": "0-500"
  },
  {
    "cust_id": 14184685,
    "legal_name": "Damian L Guilleminault",
    "dba_name": "Damian L Guilleminault",
    "city": "Paris",
    "state": "75",
    "zip_code": 75116,
    "ytd_returns": 22,
    "prv1_returns": 0,
    "growth_rate": 2200.0,
    "firm_size": "0-500"
  }
]