[
  {
    "cust_id": 13615322,
    "legal_name": "RSM US LLP",
    "dba_name": "RSM CANADA LLP",
    "city": "CALGARY",
    "state": "AB",
    "zip_code": 0,
    "ytd_returns": 459,
    "prv1_returns": 464,
    "growth_rate": -1.0775862068965518,
    "firm_size": "0-500"
  },
  {
    "cust_id": 2441496,
    "legal_name": "BROOKFIELD RESIDENTIAL US CORPORATION",
    "dba_name": "BROOKFIELD RESIDENTIAL US CORPORATION",
    "city": "CALGARY",
    "state": "AB",
    "zip_code": 0,
    "ytd_returns": 0,
    "prv1_returns": 12,
    "growth_rate": -100.0,
    "firm_size": NaN
  },
  {
    "cust_id": 13615322,
    "legal_name": "RSM US LLP",
    "dba_name": "RSM CANADA LLP",
    "city": "CALGARY",
    "state": "AB",
    "zip_code": 0,
    "ytd_returns": 459,
    "prv1_returns": 464,
    "growth_rate": -1.0775862068965518,
    "firm_size": "0-500"
  },
  {
    "cust_id": 2441496,
    "legal_name": "BROOKFIELD RESIDENTIAL US CORPORATION",
    "dba_name": "BROOKFIELD RESIDENTIAL US CORPORATION",
    "city": "CALGARY",
    "state": "AB",
    "zip_code": 0,
    "ytd_returns": 0,
    "prv1_returns": 12,
    "growth_rate": -100.0,
    "firm_size": NaN
  },
  {
    "cust_id": 1288502,
    "legal_name": "TRANSCANADA PIPELINE USA LTD.",
    "dba_name": "TRANSCANADA PIPELINE USA LTD.",
    "city": "Calgary",
    "state": "AB",
    "zip_code": 0,
    "ytd_returns": 34,
    "prv1_returns": 27,
    "growth_rate": 25.925925925925924,
    "firm_size": "0-500"
  },
  {
    "cust_id": 14634358,
    "legal_name": "H&R BLOCK CANADA",
    "dba_name": "1660793 Ontario Inc.",
    "city": "Calgary",
    "state": "AB",
    "zip_code": 0,
    "ytd_returns": 34,
    "prv1_returns": 0,
    "growth_rate": 3400.0,
    "firm_size": "0-500"
  },
  {
    "cust_id": 14144263,
    "legal_name": "H&R BLOCK CANADA",
    "dba_name": "1378230 Ontario Ltd.",
    "city": "Calgary",
    "state": "AB",
    "zip_code": 0,
    "ytd_returns": 16,
    "prv1_returns": 9,
    "growth_rate": 77.77777777777779,
    "firm_size": "0-500"
  },
  {
    "cust_id": 14175507,
    "legal_name": "H&R BLOCK CANADA",
    "dba_name": "HD Ventures Ltd",
    "city": "Calgary",
    "state": "AB",
    "zip_code": 0,
    "ytd_returns": 33,
    "prv1_returns": 19,
    "growth_rate": 73.68421052631578,
    "firm_size": "0-500"
  },
  {
    "cust_id": 14145436,
    "legal_name": "H&R BLOCK CANADA",
    "dba_name": "Clifford Roy",
    "city": "Calgary",
    "state": "AB",
    "zip_code": 0,
    "ytd_returns": 18,
    "prv1_returns": 12,
    "growth_rate": 50.0,
    "firm_size": "0-500"
  },
  {
    "cust_id": 14157320,
    "legal_name": "H&R BLOCK CANADA",
    "dba_name": "CER Enterprises Inc.",
    "city": "Calgary",
    "state": "AB",
    "zip_code": 0,
    "ytd_returns": 57,
    "prv1_returns": 39,
    "growth_rate": 46.15384615384615,
    "firm_size": "0-500"
  },
  {
    "cust_id": 14144250,
    "legal_name": "H&R BLOCK CANADA",
    "dba_name": "Sudano Enterprises Ltd",
    "city": "Calgary",
    "state": "AB",
    "zip_code": 0,
    "ytd_returns": 94,
    "prv1_returns": 70,
    "growth_rate": 34.285714285714285,
    "firm_size": "0-500"
  },
  {
    "cust_id": 14144266,
    "legal_name": "H&R BLOCK CANADA",
    "dba_name": "Katherine Stoner",
    "city": "Calgary",
    "state": "AB",
    "zip_code": 0,
    "ytd_returns": 334,
    "prv1_returns": 251,
    "growth_rate": 33.067729083665334,
    "firm_size": "0-500"
  },
  {
    "cust_id": 14161004,
    "legal_name": "H&R BLOCK CANADA",
    "dba_name": "H&R BLOCK CANADA",
    "city": "Calgary",
    "state": "AB",
    "zip_code": 0,
    "ytd_returns": 41,
    "prv1_returns": 34,
    "growth_rate": 20.588235294117645,
    "firm_size": "0-500"
  },
  {
    "cust_id": 14144240,
    "legal_name": "H&R BLOCK CANADA",
    "dba_name": "947535 Ontario Ltd",
    "city": "Calgary",
    "state": "AB",
    "zip_code": 0,
    "ytd_returns": 133,
    "prv1_returns": 111,
    "growth_rate": 19.81981981981982,
    "firm_size": "0-500"
  },
  {
    "cust_id": 2468169,
    "legal_name": "CAN-AM TAX AND ACCOUNTING INC.",
    "dba_name": "CAN-AM TAX AND ACCOUNTING INC.",
    "city": "EDMONTON",
    "state": "AB",
    "zip_code": 0,
    "ytd_returns": 115,
    "prv1_returns": 102,
    "growth_rate": 12.745098039215684,
    "firm_size": "0-500"
  },
  {
    "cust_id": 14143039,
    "legal_name": "Blomfield Tax  Chartered Professional Ac",
    "dba_name": "Blomfield Tax  Chartered Professional Ac",
    "city": "Calgary",
    "state": "AB",
    "zip_code": 0,
    "ytd_returns": 77,
    "prv1_returns": 70,
    "growth_rate": 10.0,
    "firm_size": "0-500"
  },
  {
    "cust_id": 14144246,
    "legal_name": "H&R BLOCK CANADA",
    "dba_name": "Sea to Sky Tax Services Inc",
    "city": "Calgary",
    "state": "AB",
    "zip_code": 0,
    "ytd_returns": 234,
    "prv1_returns": 213,
    "growth_rate": 9.859154929577464,
    "firm_size": "0-500"
  },
  {
    "cust_id": 2351460,
    "legal_name": "H&R BLOCK CANADA",
    "dba_name": "H&R BLOCK CANADA",
    "city": "CALGARY",
    "state": "AB",
    "zip_code": 0,
    "ytd_returns": 9403,
    "prv1_returns": 8576,
    "growth_rate": 9.643190298507465,
    "firm_size": "5001-10000"
  },
  {
    "cust_id": 2183528,
    "legal_name": "JOHNSTON MORRISON HUNTER & CO. PC",
    "dba_name": "JOHNSTON MORRISON HUNTER & CO. PC",
    "city": "CALGARY",
    "state": "AB",
    "zip_code": 0,
    "ytd_returns": 1415,
    "prv1_returns": 1300,
    "growth_rate": 8.846153846153847,
    "firm_size": "1001-5000"
  },
  {
    "cust_id": 737117,
    "legal_name": "KPMG LLP",
    "dba_name": "KPMG LLP",
    "city": "EDMONTON",
    "state": "AB",
    "zip_code": 0,
    "ytd_returns": 326,
    "prv1_returns": 301,
    "growth_rate": 8.305647840531561,
    "firm_size": "0-500"
  },
  {
    "cust_id": 1797006,
    "legal_name": "MNP LLP",
    "dba_name": "MNP LLP",
    "city": "Calgary",
    "state": "AB",
    "zip_code": 0,
    "ytd_returns": 10147,
    "prv1_returns": 9815,
    "growth_rate": 3.382577687213449,
    "firm_size": "10000+"
  },
  {
    "cust_id": 1266424,
    "legal_name": "ERNST & YOUNG LLP",
    "dba_name": "ERNST & YOUNG LLP",
    "city": "Calgary",
    "state": "AB",
    "zip_code": 0,
    "ytd_returns": 494,
    "prv1_returns": 478,
    "growth_rate": 3.3472803347280333,
    "firm_size": "0-500"
  },
  {
    "cust_id": 14146979,
    "legal_name": "H&R BLOCK CANADA",
    "dba_name": "7021577 Manitoba Ltd.",
    "city": "Calgary",
    "state": "AB",
    "zip_code": 0,
    "ytd_returns": 359,
    "prv1_returns": 363,
    "growth_rate": -1.1019283746556474,
    "firm_size": "0-500"
  },
  {
    "cust_id": 737116,
    "legal_name": "KPMG LLP",
    "dba_name": "KPMG LLP",
    "city": "CALGARY",
    "state": "AB",
    "zip_code": 0,
    "ytd_returns": 1373,
    "prv1_returns": 1420,
    "growth_rate": -3.309859154929577,
    "firm_size": "1001-5000"
  },
  {
    "cust_id": 14144261,
    "legal_name": "H&R BLOCK CANADA",
    "dba_name": "0901595 B.C. Ltd.",
    "city": "Calgary",
    "state": "AB",
    "zip_code": 0,
    "ytd_returns": 47,
    "prv1_returns": 50,
    "growth_rate": -6.0,
    "firm_size": "0-500"
  },
  {
    "cust_id": 720349,
    "legal_name": "PRICEWATERHOUSECOOPERS LLP",
    "dba_name": "PRICEWATERHOUSECOOPERS LLP",
    "city": "CALGARY",
    "state": "AB",
    "zip_code": 0,
    "ytd_returns": 309,
    "prv1_returns": 351,
    "growth_rate": -11.965811965811966,
    "firm_size": "0-500"
  },
  {
    "cust_id": 14146977,
    "legal_name": "H&R BLOCK CANADA",
    "dba_name": "0744056 BC Ltd.",
    "city": "Calgary",
    "state": "AB",
    "zip_code": 0,
    "ytd_returns": 65,
    "prv1_returns": 75,
    "growth_rate": -13.333333333333334,
    "firm_size": "0-500"
  },
  {
    "cust_id": 13961077,
    "legal_name": "Moodys Private Client LLP",
    "dba_name": "Moodys Private Client LLP",
    "city": "Calgary",
    "state": "AB",
    "zip_code": 0,
    "ytd_returns": 541,
    "prv1_returns": 658,
    "growth_rate": -17.78115501519757,
    "firm_size": "501-1000"
  },
  {
    "cust_id": 860376,
    "legal_name": "PRICEWATERHOUSECOOPERS LLP",
    "dba_name": "PRICEWATERHOUSECOOPERS LLP",
    "city": "EDMONTON",
    "state": "AB",
    "zip_code": 0,
    "ytd_returns": 203,
    "prv1_returns": 249,
    "growth_rate": -18.47389558232932,
    "firm_size": "0-500"
  },
  {
    "cust_id": 736037,
    "legal_name": "DELOITTE & TOUCHE LLP",
    "dba_name": "DELOITTE & TOUCHE LLP",
    "city": "CALGARY",
    "state": "AB",
    "zip_code": 0,
    "ytd_returns": 772,
    "prv1_returns": 1022,
    "growth_rate": -24.46183953033268,
    "firm_size": "501-1000"
  },
  {
    "cust_id": 13813392,
    "legal_name": "R.c. Widmer Holdings Ltd.",
    "dba_name": "R.c. Widmer Holdings Ltd.",
    "city": "Calgary",
    "state": "AB",
    "zip_code": 0,
    "ytd_returns": 27,
    "prv1_returns": 36,
    "growth_rate": -25.0,
    "firm_size": "0-500"
  },
  {
    "cust_id": 14145435,
    "legal_name": "H&R BLOCK CANADA",
    "dba_name": "Deanna Stevenot",
    "city": "Calgary",
    "state": "AB",
    "zip_code": 0,
    "ytd_returns": 62,
    "prv1_returns": 96,
    "growth_rate": -35.41666666666667,
    "firm_size": "0-500"
  },
  {
    "cust_id": 14146969,
    "legal_name": "H&R BLOCK CANADA",
    "dba_name": "1439803 Alberta Ltd.",
    "city": "Calgary",
    "state": "AB",
    "zip_code": 0,
    "ytd_returns": 7,
    "prv1_returns": 109,
    "growth_rate": -93.57798165137616,
    "firm_size": "0-500"
  },
  {
    "cust_id": 14634358,
    "legal_name": "H&R BLOCK CANADA",
    "dba_name": "1660793 Ontario Inc.",
    "city": "Calgary",
    "state": "AB",
    "zip_code": 0,
    "ytd_returns": 34,
    "prv1_returns": 0,
    "growth_rate": 3400.0,
    "firm_size": "0-500"
  },
  {
    "cust_id": 14144263,
    "legal_name": "H&R BLOCK CANADA",
    "dba_name": "1378230 Ontario Ltd.",
    "city": "Calgary",
    "state": "AB",
    "zip_code": 0,
    "ytd_returns": 16,
    "prv1_returns": 9,
    "growth_rate": 77.77777777777779,
    "firm_size": "0-500"
  },
  {
    "cust_id": 14175507,
    "legal_name": "H&R BLOCK CANADA",
    "dba_name": "HD Ventures Ltd",
    "city": "Calgary",
    "state": "AB",
    "zip_code": 0,
    "ytd_returns": 33,
    "prv1_returns": 19,
    "growth_rate": 73.68421052631578,
    "firm_size": "0-500"
  },
  {
    "cust_id": 14145436,
    "legal_name": "H&R BLOCK CANADA",
    "dba_name": "Clifford Roy",
    "city": "Calgary",
    "state": "AB",
    "zip_code": 0,
    "ytd_returns": 18,
    "prv1_returns": 12,
    "growth_rate": 50.0,
    "firm_size": "0-500"
  },
  {
    "cust_id": 14157320,
    "legal_name": "H&R BLOCK CANADA",
    "dba_name": "CER Enterprises Inc.",
    "city": "Calgary",
    "state": "AB",
    "zip_code": 0,
    "ytd_returns": 57,
    "prv1_returns": 39,
    "growth_rate": 46.15384615384615,
    "firm_size": "0-500"
  },
  {
    "cust_id": 14144250,
    "legal_name": "H&R BLOCK CANADA",
    "dba_name": "Sudano Enterprises Ltd",
    "city": "Calgary",
    "state": "AB",
    "zip_code": 0,
    "ytd_returns": 94,
    "prv1_returns": 70,
    "growth_rate": 34.285714285714285,
    "firm_size": "0-500"
  },
  {
    "cust_id": 14144266,
    "legal_name": "H&R BLOCK CANADA",
    "dba_name": "Katherine Stoner",
    "city": "Calgary",
    "state": "AB",
    "zip_code": 0,
    "ytd_returns": 334,
    "prv1_returns": 251,
    "growth_rate": 33.067729083665334,
    "firm_size": "0-500"
  },
  {
    "cust_id": 14161004,
    "legal_name": "H&R BLOCK CANADA",
    "dba_name": "H&R BLOCK CANADA",
    "city": "Calgary",
    "state": "AB",
    "zip_code": 0,
    "ytd_returns": 41,
    "prv1_returns": 34,
    "growth_rate": 20.588235294117645,
    "firm_size": "0-500"
  },
  {
    "cust_id": 14144240,
    "legal_name": "H&R BLOCK CANADA",
    "dba_name": "947535 Ontario Ltd",
    "city": "Calgary",
    "state": "AB",
    "zip_code": 0,
    "ytd_returns": 133,
    "prv1_returns": 111,
    "growth_rate": 19.81981981981982,
    "firm_size": "0-500"
  },
  {
    "cust_id": 2468169,
    "legal_name": "CAN-AM TAX AND ACCOUNTING INC.",
    "dba_name": "CAN-AM TAX AND ACCOUNTING INC.",
    "city": "EDMONTON",
    "state": "AB",
    "zip_code": 0,
    "ytd_returns": 115,
    "prv1_returns": 102,
    "growth_rate": 12.745098039215684,
    "firm_size": "0-500"
  },
  {
    "cust_id": 14143039,
    "legal_name": "Blomfield Tax  Chartered Professional Ac",
    "dba_name": "Blomfield Tax  Chartered Professional Ac",
    "city": "Calgary",
    "state": "AB",
    "zip_code": 0,
    "ytd_returns": 77,
    "prv1_returns": 70,
    "growth_rate": 10.0,
    "firm_size": "0-500"
  },
  {
    "cust_id": 14144246,
    "legal_name": "H&R BLOCK CANADA",
    "dba_name": "Sea to Sky Tax Services Inc",
    "city": "Calgary",
    "state": "AB",
    "zip_code": 0,
    "ytd_returns": 234,
    "prv1_returns": 213,
    "growth_rate": 9.859154929577464,
    "firm_size": "0-500"
  },
  {
    "cust_id": 2351460,
    "legal_name": "H&R BLOCK CANADA",
    "dba_name": "H&R BLOCK CANADA",
    "city": "CALGARY",
    "state": "AB",
    "zip_code": 0,
    "ytd_returns": 9403,
    "prv1_returns": 8576,
    "growth_rate": 9.643190298507465,
    "firm_size": "5001-10000"
  },
  {
    "cust_id": 2183528,
    "legal_name": "JOHNSTON MORRISON HUNTER & CO. PC",
    "dba_name": "JOHNSTON MORRISON HUNTER & CO. PC",
    "city": "CALGARY",
    "state": "AB",
    "zip_code": 0,
    "ytd_returns": 1415,
    "prv1_returns": 1300,
    "growth_rate": 8.846153846153847,
    "firm_size": "1001-5000"
  },
  {
    "cust_id": 737117,
    "legal_name": "KPMG LLP",
    "dba_name": "KPMG LLP",
    "city": "EDMONTON",
    "state": "AB",
    "zip_code": 0,
    "ytd_returns": 326,
    "prv1_returns": 301,
    "growth_rate": 8.305647840531561,
    "firm_size": "0-500"
  },
  {
    "cust_id": 1797006,
    "legal_name": "MNP LLP",
    "dba_name": "MNP LLP",
    "city": "Calgary",
    "state": "AB",
    "zip_code": 0,
    "ytd_returns": 10147,
    "prv1_returns": 9815,
    "growth_rate": 3.382577687213449,
    "firm_size": "10000+"
  },
  {
    "cust_id": 1266424,
    "legal_name": "ERNST & YOUNG LLP",
    "dba_name": "ERNST & YOUNG LLP",
    "city": "Calgary",
    "state": "AB",
    "zip_code": 0,
    "ytd_returns": 494,
    "prv1_returns": 478,
    "growth_rate": 3.3472803347280333,
    "firm_size": "0-500"
  },
  {
    "cust_id": 14146979,
    "legal_name": "H&R BLOCK CANADA",
    "dba_name": "7021577 Manitoba Ltd.",
    "city": "Calgary",
    "state": "AB",
    "zip_code": 0,
    "ytd_returns": 359,
    "prv1_returns": 363,
    "growth_rate": -1.1019283746556474,
    "firm_size": "0-500"
  },
  {
    "cust_id": 737116,
    "legal_name": "KPMG LLP",
    "dba_name": "KPMG LLP",
    "city": "CALGARY",
    "state": "AB",
    "zip_code": 0,
    "ytd_returns": 1373,
    "prv1_returns": 1420,
    "growth_rate": -3.309859154929577,
    "firm_size": "1001-5000"
  },
  {
    "cust_id": 14144261,
    "legal_name": "H&R BLOCK CANADA",
    "dba_name": "0901595 B.C. Ltd.",
    "city": "Calgary",
    "state": "AB",
    "zip_code": 0,
    "ytd_returns": 47,
    "prv1_returns": 50,
    "growth_rate": -6.0,
    "firm_size": "0-500"
  },
  {
    "cust_id": 720349,
    "legal_name": "PRICEWATERHOUSECOOPERS LLP",
    "dba_name": "PRICEWATERHOUSECOOPERS LLP",
    "city": "CALGARY",
    "state": "AB",
    "zip_code": 0,
    "ytd_returns": 309,
    "prv1_returns": 351,
    "growth_rate": -11.965811965811966,
    "firm_size": "0-500"
  },
  {
    "cust_id": 14146977,
    "legal_name": "H&R BLOCK CANADA",
    "dba_name": "0744056 BC Ltd.",
    "city": "Calgary",
    "state": "AB",
    "zip_code": 0,
    "ytd_returns": 65,
    "prv1_returns": 75,
    "growth_rate": -13.333333333333334,
    "firm_size": "0-500"
  },
  {
    "cust_id": 13961077,
    "legal_name": "Moodys Private Client LLP",
    "dba_name": "Moodys Private Client LLP",
    "city": "Calgary",
    "state": "AB",
    "zip_code": 0,
    "ytd_returns": 541,
    "prv1_returns": 658,
    "growth_rate": -17.78115501519757,
    "firm_size": "501-1000"
  },
  {
    "cust_id": 860376,
    "legal_name": "PRICEWATERHOUSECOOPERS LLP",
    "dba_name": "PRICEWATERHOUSECOOPERS LLP",
    "city": "EDMONTON",
    "state": "AB",
    "zip_code": 0,
    "ytd_returns": 203,
    "prv1_returns": 249,
    "growth_rate": -18.47389558232932,
    "firm_size": "0-500"
  },
  {
    "cust_id": 736037,
    "legal_name": "DELOITTE & TOUCHE LLP",
    "dba_name": "DELOITTE & TOUCHE LLP",
    "city": "CALGARY",
    "state": "AB",
    "zip_code": 0,
    "ytd_returns": 772,
    "prv1_returns": 1022,
    "growth_rate": -24.46183953033268,
    "firm_size": "501-1000"
  },
  {
    "cust_id": 13813392,
    "legal_name": "R.c. Widmer Holdings Ltd.",
    "dba_name": "R.c. Widmer Holdings Ltd.",
    "city": "Calgary",
    "state": "AB",
    "zip_code": 0,
    "ytd_returns": 27,
    "prv1_returns": 36,
    "growth_rate": -25.0,
    "firm_size": "0-500"
  },
  {
    "cust_id": 14145435,
    "legal_name": "H&R BLOCK CANADA",
    "dba_name": "Deanna Stevenot",
    "city": "Calgary",
    "state": "AB",
    "zip_code": 0,
    "ytd_returns": 62,
    "prv1_returns": 96,
    "growth_rate": -35.41666666666667,
    "firm_size": "0-500"
  },
  {
    "cust_id": 14146969,
    "legal_name": "H&R BLOCK CANADA",
    "dba_name": "1439803 Alberta Ltd.",
    "city": "Calgary",
    "state": "AB",
    "zip_code": 0,
    "ytd_returns": 7,
    "prv1_returns": 109,
    "growth_rate": -93.57798165137616,
    "firm_size": "0-500"
  },
  {
    "cust_id": 2407141,
    "legal_name": "LeGrande Bevans",
    "dba_name": "Bridge LLP",
    "city": "LETHBRIDGE",
    "state": "AB",
    "zip_code": 0,
    "ytd_returns": 263,
    "prv1_returns": 246,
    "growth_rate": 6.910569105691057,
    "firm_size": "0-500"
  },
  {
    "cust_id": 14071415,
    "legal_name": "Jordan C Mendez",
    "dba_name": "Jordan C Mendez",
    "city": "Edmonton",
    "state": "AB",
    "zip_code": 0,
    "ytd_returns": 0,
    "prv1_returns": 0,
    "growth_rate": 0.0,
    "firm_size": NaN
  },
  {
    "cust_id": 1808025,
    "legal_name": "TRANSCANADA ENERGY USA  INC.",
    "dba_name": "TRANSCANADA ENERGY USA  INC.",
    "city": "CALGARY",
    "state": "AB",
    "zip_code": 0,
    "ytd_returns": 4,
    "prv1_returns": 7,
    "growth_rate": -42.85714285714285,
    "firm_size": "0-500"
  },
  {
    "cust_id": 14258681,
    "legal_name": "Israel D Wasserman",
    "dba_name": "JDP Wasserman",
    "city": "Wetaskiwin",
    "state": "AB",
    "zip_code": 0,
    "ytd_returns": 22,
    "prv1_returns": 0,
    "growth_rate": 2200.0,
    "firm_size": "0-500"
  },
  {
    "cust_id": 2078128,
    "legal_name": "Shannon R Toone",
    "dba_name": "Price & Comin LLP",
    "city": "CARDSTON",
    "state": "AB",
    "zip_code": 0,
    "ytd_returns": 1226,
    "prv1_returns": 1045,
    "growth_rate": 17.320574162679424,
    "firm_size": "1001-5000"
  },
  {
    "cust_id": 2475040,
    "legal_name": "Loretta Cantafio",
    "dba_name": "Lori Cantafio  CPA  CA  Professional Cor",
    "city": "CALGARY",
    "state": "AB",
    "zip_code": 0,
    "ytd_returns": 31,
    "prv1_returns": 33,
    "growth_rate": -6.0606060606060606,
    "firm_size": "0-500"
  },
  {
    "cust_id": 13897822,
    "legal_name": "Peter J Blomfield",
    "dba_name": "Blomfield Tax",
    "city": "Calgary",
    "state": "AB",
    "zip_code": 0,
    "ytd_returns": 0,
    "prv1_returns": 0,
    "growth_rate": 0.0,
    "firm_size": NaN
  },
  {
    "cust_id": 1807302,
    "legal_name": "HUSKY MARKETING AND SUPPLY COMPANY",
    "dba_name": "HUSKY MARKETING AND SUPPLY COMPANY",
    "city": "CALGARY",
    "state": "AB",
    "zip_code": 0,
    "ytd_returns": 1,
    "prv1_returns": 1,
    "growth_rate": 0.0,
    "firm_size": "0-500"
  },
  {
    "cust_id": 2475040,
    "legal_name": "Loretta Cantafio",
    "dba_name": "Lori Cantafio  CPA  CA  Professional Cor",
    "city": "CALGARY",
    "state": "AB",
    "zip_code": 0,
    "ytd_returns": 31,
    "prv1_returns": 33,
    "growth_rate": -6.0606060606060606,
    "firm_size": "0-500"
  },
  {
    "cust_id": 13897822,
    "legal_name": "Peter J Blomfield",
    "dba_name": "Blomfield Tax",
    "city": "Calgary",
    "state": "AB",
    "zip_code": 0,
    "ytd_returns": 0,
    "prv1_returns": 0,
    "growth_rate": 0.0,
    "firm_size": NaN
  },
  {
    "cust_id": 1807302,
    "legal_name": "HUSKY MARKETING AND SUPPLY COMPANY",
    "dba_name": "HUSKY MARKETING AND SUPPLY COMPANY",
    "city": "CALGARY",
    "state": "AB",
    "zip_code": 0,
    "ytd_returns": 1,
    "prv1_returns": 1,
    "growth_rate": 0.0,
    "firm_size": "0-500"
  },
  {
    "cust_id": 1288502,
    "legal_name": "TRANSCANADA PIPELINE USA LTD.",
    "dba_name": "TRANSCANADA PIPELINE USA LTD.",
    "city": "Calgary",
    "state": "AB",
    "zip_code": 0,
    "ytd_returns": 34,
    "prv1_returns": 27,
    "growth_rate": 25.925925925925924,
    "firm_size": "0-500"
  },
  {
    "cust_id": 2407141,
    "legal_name": "LeGrande Bevans",
    "dba_name": "Bridge LLP",
    "city": "LETHBRIDGE",
    "state": "AB",
    "zip_code": 0,
    "ytd_returns": 263,
    "prv1_returns": 246,
    "growth_rate": 6.910569105691057,
    "firm_size": "0-500"
  },
  {
    "cust_id": 2078128,
    "legal_name": "Shannon R Toone",
    "dba_name": "Price & Comin LLP",
    "city": "CARDSTON",
    "state": "AB",
    "zip_code": 0,
    "ytd_returns": 1226,
    "prv1_returns": 1045,
    "growth_rate": 17.320574162679424,
    "firm_size": "1001-5000"
  },
  {
    "cust_id": 14071415,
    "legal_name": "Jordan C Mendez",
    "dba_name": "Jordan C Mendez",
    "city": "Edmonton",
    "state": "AB",
    "zip_code": 0,
    "ytd_returns": 0,
    "prv1_returns": 0,
    "growth_rate": 0.0,
    "firm_size": NaN
  },
  {
    "cust_id": 1808025,
    "legal_name": "TRANSCANADA ENERGY USA  INC.",
    "dba_name": "TRANSCANADA ENERGY USA  INC.",
    "city": "CALGARY",
    "state": "AB",
    "zip_code": 0,
    "ytd_returns": 4,
    "prv1_returns": 7,
    "growth_rate": -42.85714285714285,
    "firm_size": "0-500"
  },
  {
    "cust_id": 14258681,
    "legal_name": "Israel D Wasserman",
    "dba_name": "JDP Wasserman",
    "city": "Wetaskiwin",
    "state": "AB",
    "zip_code": 0,
    "ytd_returns": 22,
    "prv1_returns": 0,
    "growth_rate": 2200.0,
    "firm_size": "0-500"
  }
]