[
  {
    "cust_id": 14365462,
    "legal_name": "Calista Z Corwyn",
    "dba_name": "Calista Z Corwyn",
    "city": "DPO",
    "state": "AE",
    "zip_code": 9213,
    "ytd_returns": 10,
    "prv1_returns": 0,
    "growth_rate": 1000.0,
    "firm_size": "0-500"
  },
  {
    "cust_id": 2293409,
    "legal_name": "MCKINLEY C VENTRESS",
    "dba_name": "TAX PREPARER",
    "city": "APO",
    "state": "AE",
    "zip_code": 9337,
    "ytd_returns": 1757,
    "prv1_returns": 1442,
    "growth_rate": 21.84466019417476,
    "firm_size": "1001-5000"
  },
  {
    "cust_id": 2282798,
    "legal_name": "KURT J BARKEI",
    "dba_name": "Kurt Tax",
    "city": "APO",
    "state": "AE",
    "zip_code": 9112,
    "ytd_returns": 16,
    "prv1_returns": 17,
    "growth_rate": -5.88235294117647,
    "firm_size": "0-500"
  },
  {
    "cust_id": 1791073,
    "legal_name": "Jason M Zuboy",
    "dba_name": "Jason M. Zuboy",
    "city": "APO",
    "state": "AE",
    "zip_code": 9012,
    "ytd_returns": 21,
    "prv1_returns": 97,
    "growth_rate": -78.35051546391753,
    "firm_size": "0-500"
  },
  {
    "cust_id": 14365462,
    "legal_name": "Calista Z Corwyn",
    "dba_name": "Calista Z Corwyn",
    "city": "DPO",
    "state": "AE",
    "zip_code": 9213,
    "ytd_returns": 10,
    "prv1_returns": 0,
    "growth_rate": 1000.0,
    "firm_size": "0-500"
  },
  {
    "cust_id": 2293409,
    "legal_name": "MCKINLEY C VENTRESS",
    "dba_name": "TAX PREPARER",
    "city": "APO",
    "state": "AE",
    "zip_code": 9337,
    "ytd_returns": 1757,
    "prv1_returns": 1442,
    "growth_rate": 21.84466019417476,
    "firm_size": "1001-5000"
  },
  {
    "cust_id": 2282798,
    "legal_name": "KURT J BARKEI",
    "dba_name": "Kurt Tax",
    "city": "APO",
    "state": "AE",
    "zip_code": 9112,
    "ytd_returns": 16,
    "prv1_returns": 17,
    "growth_rate": -5.88235294117647,
    "firm_size": "0-500"
  },
  {
    "cust_id": 13849645,
    "legal_name": "Ameica L Mueller",
    "dba_name": "Top Gun Tax Solutions (Freelancer)",
    "city": "APO",
    "state": "AE",
    "zip_code": 9034,
    "ytd_returns": 548,
    "prv1_returns": 561,
    "growth_rate": -2.3172905525846703,
    "firm_size": "501-1000"
  },
  {
    "cust_id": 13828840,
    "legal_name": "JAMES M HAYNES JR",
    "dba_name": "VAUNT COURIER",
    "city": "APO",
    "state": "AE",
    "zip_code": 9096,
    "ytd_returns": 296,
    "prv1_returns": 236,
    "growth_rate": 25.42372881355932,
    "firm_size": "0-500"
  },
  {
    "cust_id": 14696565,
    "legal_name": "Luminous Light Solutions",
    "dba_name": "Luminous Light Solutions",
    "city": "APO",
    "state": "AE",
    "zip_code": 9017,
    "ytd_returns": 0,
    "prv1_returns": 0,
    "growth_rate": 0.0,
    "firm_size": NaN
  },
  {
    "cust_id": 13828840,
    "legal_name": "JAMES M HAYNES JR",
    "dba_name": "VAUNT COURIER",
    "city": "APO",
    "state": "AE",
    "zip_code": 9096,
    "ytd_returns": 296,
    "prv1_returns": 236,
    "growth_rate": 25.42372881355932,
    "firm_size": "0-500"
  },
  {
    "cust_id": 14696565,
    "legal_name": "Luminous Light Solutions",
    "dba_name": "Luminous Light Solutions",
    "city": "APO",
    "state": "AE",
    "zip_code": 9017,
    "ytd_returns": 0,
    "prv1_returns": 0,
    "growth_rate": 0.0,
    "firm_size": NaN
  },
  {
    "cust_id": 2533275,
    "legal_name": "MICHAEL TURNER",
    "dba_name": "RAGGAR Financial Services",
    "city": "APO",
    "state": "AE",
    "zip_code": 9123,
    "ytd_returns": 226,
    "prv1_returns": 172,
    "growth_rate": 31.3953488372093,
    "firm_size": "0-500"
  },
  {
    "cust_id": 112794,
    "legal_name": "TRACY J VOIGHT-ATHEARN",
    "dba_name": "TRACY J VOIGHT-ATHEARN CPA",
    "city": "DPO",
    "state": "AE",
    "zip_code": 9842,
    "ytd_returns": 214,
    "prv1_returns": 200,
    "growth_rate": 7.000000000000001,
    "firm_size": "0-500"
  },
  {
    "cust_id": 1955893,
    "legal_name": "MELODY SCHROEDER  CPA",
    "dba_name": "MELODY SCHROEDER  CPA",
    "city": "APO",
    "state": "AE",
    "zip_code": 9049,
    "ytd_returns": 3,
    "prv1_returns": 3,
    "growth_rate": 0.0,
    "firm_size": "0-500"
  },
  {
    "cust_id": 1999152,
    "legal_name": "Nicholas R Hartney",
    "dba_name": "Nicholas R Hartney",
    "city": "APO",
    "state": "AE",
    "zip_code": 9096,
    "ytd_returns": 149,
    "prv1_returns": 124,
    "growth_rate": 20.161290322580644,
    "firm_size": "0-500"
  },
  {
    "cust_id": 13567404,
    "legal_name": "Kathleen T Bailey",
    "dba_name": "Kathleen T Bailey",
    "city": "APO",
    "state": "AE",
    "zip_code": 9751,
    "ytd_returns": 6,
    "prv1_returns": 6,
    "growth_rate": 0.0,
    "firm_size": "0-500"
  },
  {
    "cust_id": 13688473,
    "legal_name": "Cole and Company",
    "dba_name": "Cole and Company",
    "city": "APO",
    "state": "AE",
    "zip_code": 9464,
    "ytd_returns": 15,
    "prv1_returns": 6,
    "growth_rate": 150.0,
    "firm_size": "0-500"
  },
  {
    "cust_id": 1791073,
    "legal_name": "Jason M Zuboy",
    "dba_name": "Jason M. Zuboy",
    "city": "APO",
    "state": "AE",
    "zip_code": 9012,
    "ytd_returns": 21,
    "prv1_returns": 97,
    "growth_rate": -78.35051546391753,
    "firm_size": "0-500"
  },
  {
    "cust_id": 13688473,
    "legal_name": "Cole and Company",
    "dba_name": "Cole and Company",
    "city": "APO",
    "state": "AE",
    "zip_code": 9464,
    "ytd_returns": 15,
    "prv1_returns": 6,
    "growth_rate": 150.0,
    "firm_size": "0-500"
  },
  {
    "cust_id": 13849645,
    "legal_name": "Ameica L Mueller",
    "dba_name": "Top Gun Tax Solutions (Freelancer)",
    "city": "APO",
    "state": "AE",
    "zip_code": 9034,
    "ytd_returns": 548,
    "prv1_returns": 561,
    "growth_rate": -2.3172905525846703,
    "firm_size": "501-1000"
  },
  {
    "cust_id": 2533275,
    "legal_name": "MICHAEL TURNER",
    "dba_name": "RAGGAR Financial Services",
    "city": "APO",
    "state": "AE",
    "zip_code": 9123,
    "ytd_returns": 226,
    "prv1_returns": 172,
    "growth_rate": 31.3953488372093,
    "firm_size": "0-500"
  },
  {
    "cust_id": 1999152,
    "legal_name": "Nicholas R Hartney",
    "dba_name": "Nicholas R Hartney",
    "city": "APO",
    "state": "AE",
    "zip_code": 9096,
    "ytd_returns": 149,
    "prv1_returns": 124,
    "growth_rate": 20.161290322580644,
    "firm_size": "0-500"
  },
  {
    "cust_id": 112794,
    "legal_name": "TRACY J VOIGHT-ATHEARN",
    "dba_name": "TRACY J VOIGHT-ATHEARN CPA",
    "city": "DPO",
    "state": "AE",
    "zip_code": 9842,
    "ytd_returns": 214,
    "prv1_returns": 200,
    "growth_rate": 7.000000000000001,
    "firm_size": "0-500"
  },
  {
    "cust_id": 1955893,
    "legal_name": "MELODY SCHROEDER  CPA",
    "dba_name": "MELODY SCHROEDER  CPA",
    "city": "APO",
    "state": "AE",
    "zip_code": 9049,
    "ytd_returns": 3,
    "prv1_returns": 3,
    "growth_rate": 0.0,
    "firm_size": "0-500"
  },
  {
    "cust_id": 13567404,
    "legal_name": "Kathleen T Bailey",
    "dba_name": "Kathleen T Bailey",
    "city": "APO",
    "state": "AE",
    "zip_code": 9751,
    "ytd_returns": 6,
    "prv1_returns": 6,
    "growth_rate": 0.0,
    "firm_size": "0-500"
  }
]