[
  {
    "cust_id": 14218902,
    "legal_name": "Minyeong Barta",
    "dba_name": "Minyeong Barta",
    "city": "APO",
    "state": "AP",
    "zip_code": 96251,
    "ytd_returns": 0,
    "prv1_returns": 0,
    "growth_rate": 0.0,
    "firm_size": NaN
  },
  {
    "cust_id": 14348784,
    "legal_name": "Stephanie N Dashiell",
    "dba_name": "Stephanie N. Dashiell",
    "city": "APO",
    "state": "AP",
    "zip_code": 96367,
    "ytd_returns": 12,
    "prv1_returns": 0,
    "growth_rate": 1200.0,
    "firm_size": "0-500"
  },
  {
    "cust_id": 1293904,
    "legal_name": "SHAMESE ANDERSON",
    "dba_name": "Exact Tax Consulting",
    "city": "FPO",
    "state": "AP",
    "zip_code": 96379,
    "ytd_returns": 239,
    "prv1_returns": 214,
    "growth_rate": 11.682242990654206,
    "firm_size": "0-500"
  },
  {
    "cust_id": 14218902,
    "legal_name": "Minyeong Barta",
    "dba_name": "Minyeong Barta",
    "city": "APO",
    "state": "AP",
    "zip_code": 96251,
    "ytd_returns": 0,
    "prv1_returns": 0,
    "growth_rate": 0.0,
    "firm_size": NaN
  },
  {
    "cust_id": 14348784,
    "legal_name": "Stephanie N Dashiell",
    "dba_name": "Stephanie N. Dashiell",
    "city": "APO",
    "state": "AP",
    "zip_code": 96367,
    "ytd_returns": 12,
    "prv1_returns": 0,
    "growth_rate": 1200.0,
    "firm_size": "0-500"
  },
  {
    "cust_id": 2020652,
    "legal_name": "PATRICK A CROWE",
    "dba_name": "BY THE NUMBERS",
    "city": "APO",
    "state": "AP",
    "zip_code": 96266,
    "ytd_returns": 73,
    "prv1_returns": 75,
    "growth_rate": -2.666666666666667,
    "firm_size": "0-500"
  },
  {
    "cust_id": 2416311,
    "legal_name": "CRISTINA ORREGO DE FRANCO",
    "dba_name": "Global Sur Financial",
    "city": "APO",
    "state": "AP",
    "zip_code": 96367,
    "ytd_returns": 15,
    "prv1_returns": 12,
    "growth_rate": 25.0,
    "firm_size": "0-500"
  },
  {
    "cust_id": 14714884,
    "legal_name": "CuRe Accounting LLC",
    "dba_name": "CuRe Accounting LLC",
    "city": "APO",
    "state": "AP",
    "zip_code": 96367,
    "ytd_returns": 3,
    "prv1_returns": 0,
    "growth_rate": 300.0,
    "firm_size": "0-500"
  },
  {
    "cust_id": 13869354,
    "legal_name": "Philip T King",
    "dba_name": "Philip T King",
    "city": "FPO",
    "state": "AP",
    "zip_code": 96362,
    "ytd_returns": 46,
    "prv1_returns": 28,
    "growth_rate": 64.28571428571429,
    "firm_size": "0-500"
  },
  {
    "cust_id": 14714884,
    "legal_name": "CuRe Accounting LLC",
    "dba_name": "CuRe Accounting LLC",
    "city": "APO",
    "state": "AP",
    "zip_code": 96367,
    "ytd_returns": 3,
    "prv1_returns": 0,
    "growth_rate": 300.0,
    "firm_size": "0-500"
  },
  {
    "cust_id": 13869354,
    "legal_name": "Philip T King",
    "dba_name": "Philip T King",
    "city": "FPO",
    "state": "AP",
    "zip_code": 96362,
    "ytd_returns": 46,
    "prv1_returns": 28,
    "growth_rate": 64.28571428571429,
    "firm_size": "0-500"
  },
  {
    "cust_id": 632466,
    "legal_name": "Dan E Gordon",
    "dba_name": "ICHIBAN INTERNATIONAL (dba)US-TAXMAN",
    "city": "APO",
    "state": "AP",
    "zip_code": 96546,
    "ytd_returns": 74,
    "prv1_returns": 150,
    "growth_rate": -50.66666666666667,
    "firm_size": "0-500"
  },
  {
    "cust_id": 1742420,
    "legal_name": "Jacquelyn L Miner",
    "dba_name": "Jacquelyn L Miner  CPA",
    "city": "APO",
    "state": "AP",
    "zip_code": 96338,
    "ytd_returns": 0,
    "prv1_returns": 1,
    "growth_rate": -100.0,
    "firm_size": NaN
  },
  {
    "cust_id": 13566526,
    "legal_name": "LLG ACCOUNTING & TAX SERVICES",
    "dba_name": "LLG ACCOUNTING & TAX SERVICES",
    "city": "APO",
    "state": "AP",
    "zip_code": 96367,
    "ytd_returns": 0,
    "prv1_returns": 80,
    "growth_rate": -100.0,
    "firm_size": NaN
  },
  {
    "cust_id": 1293904,
    "legal_name": "SHAMESE ANDERSON",
    "dba_name": "Exact Tax Consulting",
    "city": "FPO",
    "state": "AP",
    "zip_code": 96379,
    "ytd_returns": 239,
    "prv1_returns": 214,
    "growth_rate": 11.682242990654206,
    "firm_size": "0-500"
  },
  {
    "cust_id": 13566526,
    "legal_name": "LLG ACCOUNTING & TAX SERVICES",
    "dba_name": "LLG ACCOUNTING & TAX SERVICES",
    "city": "APO",
    "state": "AP",
    "zip_code": 96367,
    "ytd_returns": 0,
    "prv1_returns": 80,
    "growth_rate": -100.0,
    "firm_size": NaN
  },
  {
    "cust_id": 2020652,
    "legal_name": "PATRICK A CROWE",
    "dba_name": "BY THE NUMBERS",
    "city": "APO",
    "state": "AP",
    "zip_code": 96266,
    "ytd_returns": 73,
    "prv1_returns": 75,
    "growth_rate": -2.666666666666667,
    "firm_size": "0-500"
  },
  {
    "cust_id": 2416311,
    "legal_name": "CRISTINA ORREGO DE FRANCO",
    "dba_name": "Global Sur Financial",
    "city": "APO",
    "state": "AP",
    "zip_code": 96367,
    "ytd_returns": 15,
    "prv1_returns": 12,
    "growth_rate": 25.0,
    "firm_size": "0-500"
  },
  {
    "cust_id": 632466,
    "legal_name": "Dan E Gordon",
    "dba_name": "ICHIBAN INTERNATIONAL (dba)US-TAXMAN",
    "city": "APO",
    "state": "AP",
    "zip_code": 96546,
    "ytd_returns": 74,
    "prv1_returns": 150,
    "growth_rate": -50.66666666666667,
    "firm_size": "0-500"
  },
  {
    "cust_id": 1742420,
    "legal_name": "Jacquelyn L Miner",
    "dba_name": "Jacquelyn L Miner  CPA",
    "city": "APO",
    "state": "AP",
    "zip_code": 96338,
    "ytd_returns": 0,
    "prv1_returns": 1,
    "growth_rate": -100.0,
    "firm_size": NaN
  }
]