[
  {
    "cust_id": 2523568,
    "legal_name": "Shen Chun Chang",
    "dba_name": "Shen Chun Chang CPA",
    "city": "delta",
    "state": "BC",
    "zip_code": 0,
    "ytd_returns": 1,
    "prv1_returns": 0,
    "growth_rate": 100.0,
    "firm_size": "0-500"
  },
  {
    "cust_id": 2263312,
    "legal_name": "FIRSTSERVICE RE HOLDINGS (USA) INC",
    "dba_name": "FIRSTSERVICE RE HOLDINGS (USA) INC",
    "city": "VANCOUVER",
    "state": "BC",
    "zip_code": 0,
    "ytd_returns": 17,
    "prv1_returns": 17,
    "growth_rate": 0.0,
    "firm_size": "0-500"
  },
  {
    "cust_id": 2140703,
    "legal_name": "SARA R STAYTE",
    "dba_name": "Sara Stayte CPA",
    "city": "Ladysmith",
    "state": "BC",
    "zip_code": 0,
    "ytd_returns": 13,
    "prv1_returns": 6,
    "growth_rate": 116.66666666666669,
    "firm_size": "0-500"
  },
  {
    "cust_id": 14598650,
    "legal_name": "Palvie Kirpal",
    "dba_name": "Palvie Kirpal",
    "city": "Burnaby",
    "state": "BC",
    "zip_code": 0,
    "ytd_returns": 0,
    "prv1_returns": 0,
    "growth_rate": 0.0,
    "firm_size": NaN
  },
  {
    "cust_id": 14692156,
    "legal_name": "Catherine M Healey",
    "dba_name": "Catherine Healey",
    "city": "Vancouver BC",
    "state": "BC",
    "zip_code": 0,
    "ytd_returns": 0,
    "prv1_returns": 0,
    "growth_rate": 0.0,
    "firm_size": NaN
  },
  {
    "cust_id": 2398083,
    "legal_name": "Whitey Mitchell",
    "dba_name": "Whitey Mitchell",
    "city": "VICTORIA",
    "state": "BC",
    "zip_code": 0,
    "ytd_returns": 3,
    "prv1_returns": 6,
    "growth_rate": -50.0,
    "firm_size": "0-500"
  },
  {
    "cust_id": 2394755,
    "legal_name": "Orion Carrier",
    "dba_name": "US Tax Victoria",
    "city": "VICTORIA",
    "state": "BC",
    "zip_code": 0,
    "ytd_returns": 77,
    "prv1_returns": 73,
    "growth_rate": 5.47945205479452,
    "firm_size": "0-500"
  },
  {
    "cust_id": 13582989,
    "legal_name": "CCH INC.",
    "dba_name": "CHIMEROU ACCOUNTING",
    "city": "MISSION",
    "state": "BC",
    "zip_code": 0,
    "ytd_returns": 4,
    "prv1_returns": 2,
    "growth_rate": 100.0,
    "firm_size": "0-500"
  },
  {
    "cust_id": 2523568,
    "legal_name": "Shen Chun Chang",
    "dba_name": "Shen Chun Chang CPA",
    "city": "delta",
    "state": "BC",
    "zip_code": 0,
    "ytd_returns": 1,
    "prv1_returns": 0,
    "growth_rate": 100.0,
    "firm_size": "0-500"
  },
  {
    "cust_id": 2263312,
    "legal_name": "FIRSTSERVICE RE HOLDINGS (USA) INC",
    "dba_name": "FIRSTSERVICE RE HOLDINGS (USA) INC",
    "city": "VANCOUVER",
    "state": "BC",
    "zip_code": 0,
    "ytd_returns": 17,
    "prv1_returns": 17,
    "growth_rate": 0.0,
    "firm_size": "0-500"
  },
  {
    "cust_id": 2140703,
    "legal_name": "SARA R STAYTE",
    "dba_name": "Sara Stayte CPA",
    "city": "Ladysmith",
    "state": "BC",
    "zip_code": 0,
    "ytd_returns": 13,
    "prv1_returns": 6,
    "growth_rate": 116.66666666666669,
    "firm_size": "0-500"
  },
  {
    "cust_id": 2452610,
    "legal_name": "Donovan P Scott",
    "dba_name": "Donovan Scott  CPA",
    "city": "PARKSVILLE",
    "state": "BC",
    "zip_code": 0,
    "ytd_returns": 319,
    "prv1_returns": 288,
    "growth_rate": 10.76388888888889,
    "firm_size": "0-500"
  },
  {
    "cust_id": 13672619,
    "legal_name": "MaShCube Advisors USA Professional Assoc",
    "dba_name": "MaShCube Advisors USA Professional Assoc",
    "city": "Surrey",
    "state": "BC",
    "zip_code": 0,
    "ytd_returns": 710,
    "prv1_returns": 265,
    "growth_rate": 167.9245283018868,
    "firm_size": "501-1000"
  },
  {
    "cust_id": 1164487,
    "legal_name": "KANAWAY SEAFOODS INC.",
    "dba_name": "KANAWAY SEAFOODS INC.",
    "city": "VANCOUVER",
    "state": "BC",
    "zip_code": 0,
    "ytd_returns": 132,
    "prv1_returns": 104,
    "growth_rate": 26.923076923076923,
    "firm_size": "0-500"
  },
  {
    "cust_id": 14648805,
    "legal_name": "Resources 2 Solutions Inc",
    "dba_name": "Resources 2 Solutions Inc",
    "city": "Delta",
    "state": "BC",
    "zip_code": 0,
    "ytd_returns": 28,
    "prv1_returns": 0,
    "growth_rate": 2800.0,
    "firm_size": "0-500"
  },
  {
    "cust_id": 14146970,
    "legal_name": "H&R BLOCK CANADA",
    "dba_name": "Seney Holdings Ltd.",
    "city": "Victoria",
    "state": "BC",
    "zip_code": 0,
    "ytd_returns": 140,
    "prv1_returns": 48,
    "growth_rate": 191.66666666666669,
    "firm_size": "0-500"
  },
  {
    "cust_id": 13672619,
    "legal_name": "MaShCube Advisors USA Professional Assoc",
    "dba_name": "MaShCube Advisors USA Professional Assoc",
    "city": "Surrey",
    "state": "BC",
    "zip_code": 0,
    "ytd_returns": 710,
    "prv1_returns": 265,
    "growth_rate": 167.9245283018868,
    "firm_size": "501-1000"
  },
  {
    "cust_id": 2323118,
    "legal_name": "CLARE MOXLEY",
    "dba_name": "Kimberley Tax Service",
    "city": "KIMBERLEY",
    "state": "BC",
    "zip_code": 0,
    "ytd_returns": 135,
    "prv1_returns": 114,
    "growth_rate": 18.421052631578945,
    "firm_size": "0-500"
  },
  {
    "cust_id": 1266390,
    "legal_name": "ERNST & YOUNG LLP",
    "dba_name": "ERNST & YOUNG LLP",
    "city": "Vancouver",
    "state": "BC",
    "zip_code": 0,
    "ytd_returns": 680,
    "prv1_returns": 606,
    "growth_rate": 12.211221122112212,
    "firm_size": "501-1000"
  },
  {
    "cust_id": 2328107,
    "legal_name": "SHAUN RAYMOND U.S. TAX SERVICES INC.",
    "dba_name": "SHAUN RAYMOND U.S. TAX SERVICES INC.",
    "city": "VANCOUVER",
    "state": "BC",
    "zip_code": 0,
    "ytd_returns": 1424,
    "prv1_returns": 1282,
    "growth_rate": 11.076443057722308,
    "firm_size": "1001-5000"
  },
  {
    "cust_id": 2394435,
    "legal_name": "PETER M SCHIFFER USTP  LTD",
    "dba_name": "PETER M SCHIFFER USTP  LTD",
    "city": "PORT MOODY",
    "state": "BC",
    "zip_code": 0,
    "ytd_returns": 739,
    "prv1_returns": 679,
    "growth_rate": 8.836524300441827,
    "firm_size": "501-1000"
  },
  {
    "cust_id": 2419443,
    "legal_name": "TaxHub Advisory Inc",
    "dba_name": "TaxHub Advisory Inc",
    "city": "VANCOUVER",
    "state": "BC",
    "zip_code": 0,
    "ytd_returns": 236,
    "prv1_returns": 220,
    "growth_rate": 7.272727272727272,
    "firm_size": "0-500"
  },
  {
    "cust_id": 14148737,
    "legal_name": "Evolve Accounting Group LLP",
    "dba_name": "Goldsmith Kwok Accounting Group LLP",
    "city": "Vancouver",
    "state": "BC",
    "zip_code": 0,
    "ytd_returns": 348,
    "prv1_returns": 337,
    "growth_rate": 3.2640949554896146,
    "firm_size": "0-500"
  },
  {
    "cust_id": 737115,
    "legal_name": "KPMG LLP",
    "dba_name": "KPMG LLP",
    "city": "ABBOTSFORD",
    "state": "BC",
    "zip_code": 0,
    "ytd_returns": 0,
    "prv1_returns": 0,
    "growth_rate": 0.0,
    "firm_size": NaN
  },
  {
    "cust_id": 737478,
    "legal_name": "KPMG LLP",
    "dba_name": "KPMG LLP",
    "city": "VANCOUVER",
    "state": "BC",
    "zip_code": 0,
    "ytd_returns": 3765,
    "prv1_returns": 3935,
    "growth_rate": -4.320203303684879,
    "firm_size": "1001-5000"
  },
  {
    "cust_id": 2220186,
    "legal_name": "ISAKOV CHARTERED ACCOUNTANT INC.",
    "dba_name": "ISAKOV CHARTERED ACCOUNTANT INC.",
    "city": "SURREY",
    "state": "BC",
    "zip_code": 0,
    "ytd_returns": 1643,
    "prv1_returns": 1802,
    "growth_rate": -8.823529411764707,
    "firm_size": "1001-5000"
  },
  {
    "cust_id": 856009,
    "legal_name": "PRICEWATERHOUSECOOPERS LLP",
    "dba_name": "PRICEWATERHOUSECOOPERS LLP",
    "city": "VANCOUVER",
    "state": "BC",
    "zip_code": 0,
    "ytd_returns": 660,
    "prv1_returns": 758,
    "growth_rate": -12.928759894459102,
    "firm_size": "501-1000"
  },
  {
    "cust_id": 736040,
    "legal_name": "DELOITTE & TOUCHE LLP",
    "dba_name": "DELOITTE & TOUCHE LLP",
    "city": "VANCOUVER",
    "state": "BC",
    "zip_code": 0,
    "ytd_returns": 461,
    "prv1_returns": 532,
    "growth_rate": -13.345864661654137,
    "firm_size": "0-500"
  },
  {
    "cust_id": 1606691,
    "legal_name": "GRANT THORNTON LLP",
    "dba_name": "GRANT THORNTON LLP",
    "city": "VANCOUVER",
    "state": "BC",
    "zip_code": 0,
    "ytd_returns": 421,
    "prv1_returns": 1006,
    "growth_rate": -58.15109343936382,
    "firm_size": "0-500"
  },
  {
    "cust_id": 2120930,
    "legal_name": "GRANT THORNTON LLP",
    "dba_name": "GRANT THORNTON LLP",
    "city": "KELOWNA",
    "state": "BC",
    "zip_code": 0,
    "ytd_returns": 6,
    "prv1_returns": 206,
    "growth_rate": -97.0873786407767,
    "firm_size": "0-500"
  },
  {
    "cust_id": 1164487,
    "legal_name": "KANAWAY SEAFOODS INC.",
    "dba_name": "KANAWAY SEAFOODS INC.",
    "city": "VANCOUVER",
    "state": "BC",
    "zip_code": 0,
    "ytd_returns": 132,
    "prv1_returns": 104,
    "growth_rate": 26.923076923076923,
    "firm_size": "0-500"
  },
  {
    "cust_id": 14648805,
    "legal_name": "Resources 2 Solutions Inc",
    "dba_name": "Resources 2 Solutions Inc",
    "city": "Delta",
    "state": "BC",
    "zip_code": 0,
    "ytd_returns": 28,
    "prv1_returns": 0,
    "growth_rate": 2800.0,
    "firm_size": "0-500"
  },
  {
    "cust_id": 14146970,
    "legal_name": "H&R BLOCK CANADA",
    "dba_name": "Seney Holdings Ltd.",
    "city": "Victoria",
    "state": "BC",
    "zip_code": 0,
    "ytd_returns": 140,
    "prv1_returns": 48,
    "growth_rate": 191.66666666666669,
    "firm_size": "0-500"
  },
  {
    "cust_id": 2323118,
    "legal_name": "CLARE MOXLEY",
    "dba_name": "Kimberley Tax Service",
    "city": "KIMBERLEY",
    "state": "BC",
    "zip_code": 0,
    "ytd_returns": 135,
    "prv1_returns": 114,
    "growth_rate": 18.421052631578945,
    "firm_size": "0-500"
  },
  {
    "cust_id": 1266390,
    "legal_name": "ERNST & YOUNG LLP",
    "dba_name": "ERNST & YOUNG LLP",
    "city": "Vancouver",
    "state": "BC",
    "zip_code": 0,
    "ytd_returns": 680,
    "prv1_returns": 606,
    "growth_rate": 12.211221122112212,
    "firm_size": "501-1000"
  },
  {
    "cust_id": 2328107,
    "legal_name": "SHAUN RAYMOND U.S. TAX SERVICES INC.",
    "dba_name": "SHAUN RAYMOND U.S. TAX SERVICES INC.",
    "city": "VANCOUVER",
    "state": "BC",
    "zip_code": 0,
    "ytd_returns": 1424,
    "prv1_returns": 1282,
    "growth_rate": 11.076443057722308,
    "firm_size": "1001-5000"
  },
  {
    "cust_id": 2394435,
    "legal_name": "PETER M SCHIFFER USTP  LTD",
    "dba_name": "PETER M SCHIFFER USTP  LTD",
    "city": "PORT MOODY",
    "state": "BC",
    "zip_code": 0,
    "ytd_returns": 739,
    "prv1_returns": 679,
    "growth_rate": 8.836524300441827,
    "firm_size": "501-1000"
  },
  {
    "cust_id": 2419443,
    "legal_name": "TaxHub Advisory Inc",
    "dba_name": "TaxHub Advisory Inc",
    "city": "VANCOUVER",
    "state": "BC",
    "zip_code": 0,
    "ytd_returns": 236,
    "prv1_returns": 220,
    "growth_rate": 7.272727272727272,
    "firm_size": "0-500"
  },
  {
    "cust_id": 14148737,
    "legal_name": "Evolve Accounting Group LLP",
    "dba_name": "Goldsmith Kwok Accounting Group LLP",
    "city": "Vancouver",
    "state": "BC",
    "zip_code": 0,
    "ytd_returns": 348,
    "prv1_returns": 337,
    "growth_rate": 3.2640949554896146,
    "firm_size": "0-500"
  },
  {
    "cust_id": 737115,
    "legal_name": "KPMG LLP",
    "dba_name": "KPMG LLP",
    "city": "ABBOTSFORD",
    "state": "BC",
    "zip_code": 0,
    "ytd_returns": 0,
    "prv1_returns": 0,
    "growth_rate": 0.0,
    "firm_size": NaN
  },
  {
    "cust_id": 737478,
    "legal_name": "KPMG LLP",
    "dba_name": "KPMG LLP",
    "city": "VANCOUVER",
    "state": "BC",
    "zip_code": 0,
    "ytd_returns": 3765,
    "prv1_returns": 3935,
    "growth_rate": -4.320203303684879,
    "firm_size": "1001-5000"
  },
  {
    "cust_id": 2220186,
    "legal_name": "ISAKOV CHARTERED ACCOUNTANT INC.",
    "dba_name": "ISAKOV CHARTERED ACCOUNTANT INC.",
    "city": "SURREY",
    "state": "BC",
    "zip_code": 0,
    "ytd_returns": 1643,
    "prv1_returns": 1802,
    "growth_rate": -8.823529411764707,
    "firm_size": "1001-5000"
  },
  {
    "cust_id": 856009,
    "legal_name": "PRICEWATERHOUSECOOPERS LLP",
    "dba_name": "PRICEWATERHOUSECOOPERS LLP",
    "city": "VANCOUVER",
    "state": "BC",
    "zip_code": 0,
    "ytd_returns": 660,
    "prv1_returns": 758,
    "growth_rate": -12.928759894459102,
    "firm_size": "501-1000"
  },
  {
    "cust_id": 736040,
    "legal_name": "DELOITTE & TOUCHE LLP",
    "dba_name": "DELOITTE & TOUCHE LLP",
    "city": "VANCOUVER",
    "state": "BC",
    "zip_code": 0,
    "ytd_returns": 461,
    "prv1_returns": 532,
    "growth_rate": -13.345864661654137,
    "firm_size": "0-500"
  },
  {
    "cust_id": 1606691,
    "legal_name": "GRANT THORNTON LLP",
    "dba_name": "GRANT THORNTON LLP",
    "city": "VANCOUVER",
    "state": "BC",
    "zip_code": 0,
    "ytd_returns": 421,
    "prv1_returns": 1006,
    "growth_rate": -58.15109343936382,
    "firm_size": "0-500"
  },
  {
    "cust_id": 2120930,
    "legal_name": "GRANT THORNTON LLP",
    "dba_name": "GRANT THORNTON LLP",
    "city": "KELOWNA",
    "state": "BC",
    "zip_code": 0,
    "ytd_returns": 6,
    "prv1_returns": 206,
    "growth_rate": -97.0873786407767,
    "firm_size": "0-500"
  },
  {
    "cust_id": 14488185,
    "legal_name": "Andrew H Min",
    "dba_name": "Andrew H Min",
    "city": "Vancouver",
    "state": "BC",
    "zip_code": 0,
    "ytd_returns": 0,
    "prv1_returns": 0,
    "growth_rate": 0.0,
    "firm_size": NaN
  },
  {
    "cust_id": 2287469,
    "legal_name": "Stacie K Louttit",
    "dba_name": "Stacie Louttit  CPA  MBA  CFP",
    "city": "VICTORIA",
    "state": "BC",
    "zip_code": 0,
    "ytd_returns": 6,
    "prv1_returns": 5,
    "growth_rate": 20.0,
    "firm_size": "0-500"
  },
  {
    "cust_id": 1153493,
    "legal_name": "PATTISON SIGN GROUP INC.",
    "dba_name": "Pattison Sign Group Inc.",
    "city": "Vancouver",
    "state": "BC",
    "zip_code": 0,
    "ytd_returns": 2,
    "prv1_returns": 2,
    "growth_rate": 0.0,
    "firm_size": "0-500"
  },
  {
    "cust_id": 2502092,
    "legal_name": "Randy G Lutic-Hotta",
    "dba_name": "Clearly Accounting",
    "city": "VANCOUVER",
    "state": "BC",
    "zip_code": 0,
    "ytd_returns": 9,
    "prv1_returns": 3,
    "growth_rate": 200.0,
    "firm_size": "0-500"
  },
  {
    "cust_id": 1164505,
    "legal_name": "GREAT PACIFIC ENTERPRISES (NEW YORK) INC",
    "dba_name": "GREAT PACIFIC ENTERPRISES (NEW YORK) INC",
    "city": "VANCOUVER",
    "state": "BC",
    "zip_code": 0,
    "ytd_returns": 23,
    "prv1_returns": 22,
    "growth_rate": 4.545454545454546,
    "firm_size": "0-500"
  },
  {
    "cust_id": 2082785,
    "legal_name": "Chui-Mei Clarke",
    "dba_name": "C. Maggie Clarke",
    "city": "North Vancouver",
    "state": "BC",
    "zip_code": 0,
    "ytd_returns": 2,
    "prv1_returns": 1,
    "growth_rate": 100.0,
    "firm_size": "0-500"
  },
  {
    "cust_id": 13858285,
    "legal_name": "Kristin Lecuyer",
    "dba_name": "Liberty Tax Services",
    "city": "Campbell River",
    "state": "BC",
    "zip_code": 0,
    "ytd_returns": 387,
    "prv1_returns": 478,
    "growth_rate": -19.03765690376569,
    "firm_size": "0-500"
  },
  {
    "cust_id": 82355,
    "legal_name": "Vitaly Fendel",
    "dba_name": "PILGRIM EXECUTIVE SERVICES",
    "city": "WONOWON",
    "state": "BC",
    "zip_code": 0,
    "ytd_returns": 13,
    "prv1_returns": 18,
    "growth_rate": -27.77777777777778,
    "firm_size": "0-500"
  },
  {
    "cust_id": 13666063,
    "legal_name": "Erin R Hyde",
    "dba_name": "Erin Renee Hyde  CPA",
    "city": "Richmond",
    "state": "BC",
    "zip_code": 0,
    "ytd_returns": 6,
    "prv1_returns": 12,
    "growth_rate": -50.0,
    "firm_size": "0-500"
  },
  {
    "cust_id": 13908875,
    "legal_name": "Push Technologies Corporation",
    "dba_name": "Push Technologies Corporation",
    "city": "Vancouver",
    "state": "BC",
    "zip_code": 0,
    "ytd_returns": 901,
    "prv1_returns": 286,
    "growth_rate": 215.03496503496504,
    "firm_size": "501-1000"
  },
  {
    "cust_id": 14692156,
    "legal_name": "Catherine M Healey",
    "dba_name": "Catherine Healey",
    "city": "Vancouver BC",
    "state": "BC",
    "zip_code": 0,
    "ytd_returns": 0,
    "prv1_returns": 0,
    "growth_rate": 0.0,
    "firm_size": NaN
  },
  {
    "cust_id": 14598650,
    "legal_name": "Palvie Kirpal",
    "dba_name": "Palvie Kirpal",
    "city": "Burnaby",
    "state": "BC",
    "zip_code": 0,
    "ytd_returns": 0,
    "prv1_returns": 0,
    "growth_rate": 0.0,
    "firm_size": NaN
  },
  {
    "cust_id": 2398083,
    "legal_name": "Whitey Mitchell",
    "dba_name": "Whitey Mitchell",
    "city": "VICTORIA",
    "state": "BC",
    "zip_code": 0,
    "ytd_returns": 3,
    "prv1_returns": 6,
    "growth_rate": -50.0,
    "firm_size": "0-500"
  },
  {
    "cust_id": 2394755,
    "legal_name": "Orion Carrier",
    "dba_name": "US Tax Victoria",
    "city": "VICTORIA",
    "state": "BC",
    "zip_code": 0,
    "ytd_returns": 77,
    "prv1_returns": 73,
    "growth_rate": 5.47945205479452,
    "firm_size": "0-500"
  },
  {
    "cust_id": 13582989,
    "legal_name": "CCH INC.",
    "dba_name": "CHIMEROU ACCOUNTING",
    "city": "MISSION",
    "state": "BC",
    "zip_code": 0,
    "ytd_returns": 4,
    "prv1_returns": 2,
    "growth_rate": 100.0,
    "firm_size": "0-500"
  },
  {
    "cust_id": 13666063,
    "legal_name": "Erin R Hyde",
    "dba_name": "Erin Renee Hyde  CPA",
    "city": "Richmond",
    "state": "BC",
    "zip_code": 0,
    "ytd_returns": 6,
    "prv1_returns": 12,
    "growth_rate": -50.0,
    "firm_size": "0-500"
  },
  {
    "cust_id": 13908875,
    "legal_name": "Push Technologies Corporation",
    "dba_name": "Push Technologies Corporation",
    "city": "Vancouver",
    "state": "BC",
    "zip_code": 0,
    "ytd_returns": 901,
    "prv1_returns": 286,
    "growth_rate": 215.03496503496504,
    "firm_size": "501-1000"
  },
  {
    "cust_id": 2452610,
    "legal_name": "Donovan P Scott",
    "dba_name": "Donovan Scott  CPA",
    "city": "PARKSVILLE",
    "state": "BC",
    "zip_code": 0,
    "ytd_returns": 319,
    "prv1_returns": 288,
    "growth_rate": 10.76388888888889,
    "firm_size": "0-500"
  },
  {
    "cust_id": 14488185,
    "legal_name": "Andrew H Min",
    "dba_name": "Andrew H Min",
    "city": "Vancouver",
    "state": "BC",
    "zip_code": 0,
    "ytd_returns": 0,
    "prv1_returns": 0,
    "growth_rate": 0.0,
    "firm_size": NaN
  },
  {
    "cust_id": 2287469,
    "legal_name": "Stacie K Louttit",
    "dba_name": "Stacie Louttit  CPA  MBA  CFP",
    "city": "VICTORIA",
    "state": "BC",
    "zip_code": 0,
    "ytd_returns": 6,
    "prv1_returns": 5,
    "growth_rate": 20.0,
    "firm_size": "0-500"
  },
  {
    "cust_id": 1164505,
    "legal_name": "GREAT PACIFIC ENTERPRISES (NEW YORK) INC",
    "dba_name": "GREAT PACIFIC ENTERPRISES (NEW YORK) INC",
    "city": "VANCOUVER",
    "state": "BC",
    "zip_code": 0,
    "ytd_returns": 23,
    "prv1_returns": 22,
    "growth_rate": 4.545454545454546,
    "firm_size": "0-500"
  },
  {
    "cust_id": 1153493,
    "legal_name": "PATTISON SIGN GROUP INC.",
    "dba_name": "Pattison Sign Group Inc.",
    "city": "Vancouver",
    "state": "BC",
    "zip_code": 0,
    "ytd_returns": 2,
    "prv1_returns": 2,
    "growth_rate": 0.0,
    "firm_size": "0-500"
  },
  {
    "cust_id": 2502092,
    "legal_name": "Randy G Lutic-Hotta",
    "dba_name": "Clearly Accounting",
    "city": "VANCOUVER",
    "state": "BC",
    "zip_code": 0,
    "ytd_returns": 9,
    "prv1_returns": 3,
    "growth_rate": 200.0,
    "firm_size": "0-500"
  },
  {
    "cust_id": 13858285,
    "legal_name": "Kristin Lecuyer",
    "dba_name": "Liberty Tax Services",
    "city": "Campbell River",
    "state": "BC",
    "zip_code": 0,
    "ytd_returns": 387,
    "prv1_returns": 478,
    "growth_rate": -19.03765690376569,
    "firm_size": "0-500"
  },
  {
    "cust_id": 2082785,
    "legal_name": "Chui-Mei Clarke",
    "dba_name": "C. Maggie Clarke",
    "city": "North Vancouver",
    "state": "BC",
    "zip_code": 0,
    "ytd_returns": 2,
    "prv1_returns": 1,
    "growth_rate": 100.0,
    "firm_size": "0-500"
  },
  {
    "cust_id": 82355,
    "legal_name": "Vitaly Fendel",
    "dba_name": "PILGRIM EXECUTIVE SERVICES",
    "city": "WONOWON",
    "state": "BC",
    "zip_code": 0,
    "ytd_returns": 13,
    "prv1_returns": 18,
    "growth_rate": -27.77777777777778,
    "firm_size": "0-500"
  }
]