[
  {
    "cust_id": 1987459,
    "legal_name": "Stephen J Staresinic",
    "dba_name": "Stephen J. Staresinic",
    "city": "STUTTGART",
    "state": "BW",
    "zip_code": 70190,
    "ytd_returns": 319,
    "prv1_returns": 318,
    "growth_rate": 0.3144654088050315,
    "firm_size": "0-500"
  },
  {
    "cust_id": 2286557,
    "legal_name": "Julie K Marks",
    "dba_name": "Julie Marks Tax Prep",
    "city": "Stuttgart",
    "state": "BW",
    "zip_code": 70599,
    "ytd_returns": 37,
    "prv1_returns": 39,
    "growth_rate": -5.128205128205128,
    "firm_size": "0-500"
  },
  {
    "cust_id": 13876130,
    "legal_name": "David A Stafford",
    "dba_name": "American Tax and Accounting Services",
    "city": "Frickenhausen",
    "state": "BW",
    "zip_code": 72636,
    "ytd_returns": 295,
    "prv1_returns": 161,
    "growth_rate": 83.22981366459628,
    "firm_size": "0-500"
  },
  {
    "cust_id": 14639738,
    "legal_name": "EY Tax GmbH StBG",
    "dba_name": "EY Tax GmbH StBG",
    "city": "Stuttgart",
    "state": "BW",
    "zip_code": 70629,
    "ytd_returns": 109,
    "prv1_returns": 0,
    "growth_rate": 10900.0,
    "firm_size": "0-500"
  },
  {
    "cust_id": 1473487,
    "legal_name": "EARL F. CLEMONS JR.",
    "dba_name": "H&R BLOCK",
    "city": "HASSELROTH",
    "state": "BW",
    "zip_code": 63594,
    "ytd_returns": 1660,
    "prv1_returns": 1669,
    "growth_rate": -0.5392450569203115,
    "firm_size": "1001-5000"
  },
  {
    "cust_id": 14639738,
    "legal_name": "EY Tax GmbH StBG",
    "dba_name": "EY Tax GmbH StBG",
    "city": "Stuttgart",
    "state": "BW",
    "zip_code": 70629,
    "ytd_returns": 109,
    "prv1_returns": 0,
    "growth_rate": 10900.0,
    "firm_size": "0-500"
  },
  {
    "cust_id": 1473487,
    "legal_name": "EARL F. CLEMONS JR.",
    "dba_name": "H&R BLOCK",
    "city": "HASSELROTH",
    "state": "BW",
    "zip_code": 63594,
    "ytd_returns": 1660,
    "prv1_returns": 1669,
    "growth_rate": -0.5392450569203115,
    "firm_size": "1001-5000"
  },
  {
    "cust_id": 13980587,
    "legal_name": "Laurel D Rieping",
    "dba_name": "Yankee Do Your Taxes",
    "city": "Waiblingen",
    "state": "BW",
    "zip_code": 71332,
    "ytd_returns": 71,
    "prv1_returns": 49,
    "growth_rate": 44.89795918367347,
    "firm_size": "0-500"
  },
  {
    "cust_id": 13959547,
    "legal_name": "Melissa Groves",
    "dba_name": "ACCUTAX CONSULTING",
    "city": "Mannheim",
    "state": "BW",
    "zip_code": 68305,
    "ytd_returns": 49,
    "prv1_returns": 42,
    "growth_rate": 16.666666666666664,
    "firm_size": "0-500"
  },
  {
    "cust_id": 1987459,
    "legal_name": "Stephen J Staresinic",
    "dba_name": "Stephen J. Staresinic",
    "city": "STUTTGART",
    "state": "BW",
    "zip_code": 70190,
    "ytd_returns": 319,
    "prv1_returns": 318,
    "growth_rate": 0.3144654088050315,
    "firm_size": "0-500"
  },
  {
    "cust_id": 2286557,
    "legal_name": "Julie K Marks",
    "dba_name": "Julie Marks Tax Prep",
    "city": "Stuttgart",
    "state": "BW",
    "zip_code": 70599,
    "ytd_returns": 37,
    "prv1_returns": 39,
    "growth_rate": -5.128205128205128,
    "firm_size": "0-500"
  },
  {
    "cust_id": 13959547,
    "legal_name": "Melissa Groves",
    "dba_name": "ACCUTAX CONSULTING",
    "city": "Mannheim",
    "state": "BW",
    "zip_code": 68305,
    "ytd_returns": 49,
    "prv1_returns": 42,
    "growth_rate": 16.666666666666664,
    "firm_size": "0-500"
  },
  {
    "cust_id": 13876130,
    "legal_name": "David A Stafford",
    "dba_name": "American Tax and Accounting Services",
    "city": "Frickenhausen",
    "state": "BW",
    "zip_code": 72636,
    "ytd_returns": 295,
    "prv1_returns": 161,
    "growth_rate": 83.22981366459628,
    "firm_size": "0-500"
  },
  {
    "cust_id": 13980587,
    "legal_name": "Laurel D Rieping",
    "dba_name": "Yankee Do Your Taxes",
    "city": "Waiblingen",
    "state": "BW",
    "zip_code": 71332,
    "ytd_returns": 71,
    "prv1_returns": 49,
    "growth_rate": 44.89795918367347,
    "firm_size": "0-500"
  }
]