[
  {
    "cust_id": 1695669,
    "legal_name": "JULIO M ORELLANO",
    "dba_name": "HR BLOCK FRANCHISE GRAF PX",
    "city": "VILSECK",
    "state": "BY",
    "zip_code": 92249,
    "ytd_returns": 2407,
    "prv1_returns": 2566,
    "growth_rate": -6.196414653156665,
    "firm_size": "1001-5000"
  },
  {
    "cust_id": 1312068,
    "legal_name": "JULIO M ORELLANO",
    "dba_name": "H&R BLOCK FRANCHISE VILSECK",
    "city": "VILSECK",
    "state": "BY",
    "zip_code": 92249,
    "ytd_returns": 969,
    "prv1_returns": 1048,
    "growth_rate": -7.538167938931298,
    "firm_size": "501-1000"
  },
  {
    "cust_id": 13930618,
    "legal_name": "Alvin J Wright",
    "dba_name": "Alvin J Wright",
    "city": "Rothenfels",
    "state": "BY",
    "zip_code": 97851,
    "ytd_returns": 0,
    "prv1_returns": 0,
    "growth_rate": 0.0,
    "firm_size": NaN
  },
  {
    "cust_id": 627071,
    "legal_name": "CHARLES HILLS",
    "dba_name": "CHARLES G HILLS",
    "city": "GERMANY",
    "state": "BY",
    "zip_code": 97270,
    "ytd_returns": 77,
    "prv1_returns": 118,
    "growth_rate": -34.74576271186441,
    "firm_size": "0-500"
  },
  {
    "cust_id": 13990686,
    "legal_name": "UMIJA CVIKO",
    "dba_name": "UMIJA CVIKO",
    "city": "OBERREICHENBACH",
    "state": "BY",
    "zip_code": 91522,
    "ytd_returns": 188,
    "prv1_returns": 0,
    "growth_rate": 18800.0,
    "firm_size": "0-500"
  },
  {
    "cust_id": 14119365,
    "legal_name": "KPMG AG",
    "dba_name": "KPMG AG",
    "city": "Munich",
    "state": "BY",
    "zip_code": 81671,
    "ytd_returns": 207,
    "prv1_returns": 160,
    "growth_rate": 29.375,
    "firm_size": "0-500"
  },
  {
    "cust_id": 14732733,
    "legal_name": "Jahleel Marshall",
    "dba_name": "Jahleel Marshall",
    "city": "Erlangen",
    "state": "BY",
    "zip_code": 91056,
    "ytd_returns": 0,
    "prv1_returns": 0,
    "growth_rate": 0.0,
    "firm_size": NaN
  },
  {
    "cust_id": 1259879,
    "legal_name": "MICHAEL DENNEY",
    "dba_name": "MICHAEL DENNEY",
    "city": "NEUBURG",
    "state": "BY",
    "zip_code": 0,
    "ytd_returns": 93,
    "prv1_returns": 116,
    "growth_rate": -19.82758620689655,
    "firm_size": "0-500"
  },
  {
    "cust_id": 13990686,
    "legal_name": "UMIJA CVIKO",
    "dba_name": "UMIJA CVIKO",
    "city": "OBERREICHENBACH",
    "state": "BY",
    "zip_code": 91522,
    "ytd_returns": 188,
    "prv1_returns": 0,
    "growth_rate": 18800.0,
    "firm_size": "0-500"
  },
  {
    "cust_id": 14119365,
    "legal_name": "KPMG AG",
    "dba_name": "KPMG AG",
    "city": "Munich",
    "state": "BY",
    "zip_code": 81671,
    "ytd_returns": 207,
    "prv1_returns": 160,
    "growth_rate": 29.375,
    "firm_size": "0-500"
  },
  {
    "cust_id": 14732733,
    "legal_name": "Jahleel Marshall",
    "dba_name": "Jahleel Marshall",
    "city": "Erlangen",
    "state": "BY",
    "zip_code": 91056,
    "ytd_returns": 0,
    "prv1_returns": 0,
    "growth_rate": 0.0,
    "firm_size": NaN
  },
  {
    "cust_id": 1259879,
    "legal_name": "MICHAEL DENNEY",
    "dba_name": "MICHAEL DENNEY",
    "city": "NEUBURG",
    "state": "BY",
    "zip_code": 0,
    "ytd_returns": 93,
    "prv1_returns": 116,
    "growth_rate": -19.82758620689655,
    "firm_size": "0-500"
  },
  {
    "cust_id": 13776233,
    "legal_name": "Valerie Vaugouin",
    "dba_name": "Veritax Consulting",
    "city": "Garmisch-Partenkirchen",
    "state": "BY",
    "zip_code": 82467,
    "ytd_returns": 3,
    "prv1_returns": 10,
    "growth_rate": -70.0,
    "firm_size": "0-500"
  },
  {
    "cust_id": 13877388,
    "legal_name": "Birgit Hayhurst",
    "dba_name": "Hayhurst Law and Tax",
    "city": "Grafenwoehr",
    "state": "BY",
    "zip_code": 92655,
    "ytd_returns": 216,
    "prv1_returns": 133,
    "growth_rate": 62.40601503759399,
    "firm_size": "0-500"
  },
  {
    "cust_id": 1695669,
    "legal_name": "JULIO M ORELLANO",
    "dba_name": "HR BLOCK FRANCHISE GRAF PX",
    "city": "VILSECK",
    "state": "BY",
    "zip_code": 92249,
    "ytd_returns": 2407,
    "prv1_returns": 2566,
    "growth_rate": -6.196414653156665,
    "firm_size": "1001-5000"
  },
  {
    "cust_id": 1312068,
    "legal_name": "JULIO M ORELLANO",
    "dba_name": "H&R BLOCK FRANCHISE VILSECK",
    "city": "VILSECK",
    "state": "BY",
    "zip_code": 92249,
    "ytd_returns": 969,
    "prv1_returns": 1048,
    "growth_rate": -7.538167938931298,
    "firm_size": "501-1000"
  },
  {
    "cust_id": 13930618,
    "legal_name": "Alvin J Wright",
    "dba_name": "Alvin J Wright",
    "city": "Rothenfels",
    "state": "BY",
    "zip_code": 97851,
    "ytd_returns": 0,
    "prv1_returns": 0,
    "growth_rate": 0.0,
    "firm_size": NaN
  },
  {
    "cust_id": 13877388,
    "legal_name": "Birgit Hayhurst",
    "dba_name": "Hayhurst Law and Tax",
    "city": "Grafenwoehr",
    "state": "BY",
    "zip_code": 92655,
    "ytd_returns": 216,
    "prv1_returns": 133,
    "growth_rate": 62.40601503759399,
    "firm_size": "0-500"
  },
  {
    "cust_id": 627071,
    "legal_name": "CHARLES HILLS",
    "dba_name": "CHARLES G HILLS",
    "city": "GERMANY",
    "state": "BY",
    "zip_code": 97270,
    "ytd_returns": 77,
    "prv1_returns": 118,
    "growth_rate": -34.74576271186441,
    "firm_size": "0-500"
  },
  {
    "cust_id": 13776233,
    "legal_name": "Valerie Vaugouin",
    "dba_name": "Veritax Consulting",
    "city": "Garmisch-Partenkirchen",
    "state": "BY",
    "zip_code": 82467,
    "ytd_returns": 3,
    "prv1_returns": 10,
    "growth_rate": -70.0,
    "firm_size": "0-500"
  }
]