[
  {
    "cust_id": 1530212,
    "legal_name": "Pamela S Ballentine",
    "dba_name": "American Tax Abroad",
    "city": "NYON",
    "state": "GE",
    "zip_code": 1260,
    "ytd_returns": 80,
    "prv1_returns": 101,
    "growth_rate": -20.792079207920796,
    "firm_size": "0-500"
  },
  {
    "cust_id": 13757151,
    "legal_name": "Melissa K Hearn",
    "dba_name": "HEARN & HEARN SA",
    "city": "Geneva",
    "state": "GE",
    "zip_code": 1201,
    "ytd_returns": 528,
    "prv1_returns": 509,
    "growth_rate": 3.732809430255403,
    "firm_size": "501-1000"
  },
  {
    "cust_id": 2062076,
    "legal_name": "US TAX & FINANCIAL SERVICES SARL",
    "dba_name": "US TAX & FINANCIAL SERVICES SARL",
    "city": "GENEVA",
    "state": "GE",
    "zip_code": 1207,
    "ytd_returns": 76,
    "prv1_returns": 35,
    "growth_rate": 117.14285714285715,
    "firm_size": "0-500"
  },
  {
    "cust_id": 1265474,
    "legal_name": "DELOITTE SA",
    "dba_name": "DELOITTE SA",
    "city": "GENEVA",
    "state": "GE",
    "zip_code": 1202,
    "ytd_returns": 521,
    "prv1_returns": 506,
    "growth_rate": 2.9644268774703555,
    "firm_size": "501-1000"
  },
  {
    "cust_id": 2447760,
    "legal_name": "JING PELLET",
    "dba_name": "Amtax Global",
    "city": "CORSIER",
    "state": "GE",
    "zip_code": 1246,
    "ytd_returns": 7,
    "prv1_returns": 14,
    "growth_rate": -50.0,
    "firm_size": "0-500"
  },
  {
    "cust_id": 2062076,
    "legal_name": "US TAX & FINANCIAL SERVICES SARL",
    "dba_name": "US TAX & FINANCIAL SERVICES SARL",
    "city": "GENEVA",
    "state": "GE",
    "zip_code": 1207,
    "ytd_returns": 76,
    "prv1_returns": 35,
    "growth_rate": 117.14285714285715,
    "firm_size": "0-500"
  },
  {
    "cust_id": 1265474,
    "legal_name": "DELOITTE SA",
    "dba_name": "DELOITTE SA",
    "city": "GENEVA",
    "state": "GE",
    "zip_code": 1202,
    "ytd_returns": 521,
    "prv1_returns": 506,
    "growth_rate": 2.9644268774703555,
    "firm_size": "501-1000"
  },
  {
    "cust_id": 2447760,
    "legal_name": "JING PELLET",
    "dba_name": "Amtax Global",
    "city": "CORSIER",
    "state": "GE",
    "zip_code": 1246,
    "ytd_returns": 7,
    "prv1_returns": 14,
    "growth_rate": -50.0,
    "firm_size": "0-500"
  },
  {
    "cust_id": 14656573,
    "legal_name": "Greta M Bertolini",
    "dba_name": "Greta M Bertolini",
    "city": "Genova",
    "state": "GE",
    "zip_code": 16167,
    "ytd_returns": 97,
    "prv1_returns": 0,
    "growth_rate": 9700.0,
    "firm_size": "0-500"
  },
  {
    "cust_id": 1530212,
    "legal_name": "Pamela S Ballentine",
    "dba_name": "American Tax Abroad",
    "city": "NYON",
    "state": "GE",
    "zip_code": 1260,
    "ytd_returns": 80,
    "prv1_returns": 101,
    "growth_rate": -20.792079207920796,
    "firm_size": "0-500"
  },
  {
    "cust_id": 13757151,
    "legal_name": "Melissa K Hearn",
    "dba_name": "HEARN & HEARN SA",
    "city": "Geneva",
    "state": "GE",
    "zip_code": 1201,
    "ytd_returns": 528,
    "prv1_returns": 509,
    "growth_rate": 3.732809430255403,
    "firm_size": "501-1000"
  },
  {
    "cust_id": 14656573,
    "legal_name": "Greta M Bertolini",
    "dba_name": "Greta M Bertolini",
    "city": "Genova",
    "state": "GE",
    "zip_code": 16167,
    "ytd_returns": 97,
    "prv1_returns": 0,
    "growth_rate": 9700.0,
    "firm_size": "0-500"
  }
]