[
  {
    "cust_id": 14776459,
    "legal_name": "Brad F Westerfield",
    "dba_name": "Brad F Westerfield",
    "city": "London",
    "state": "GT",
    "zip_code": 0,
    "ytd_returns": 0,
    "prv1_returns": 0,
    "growth_rate": 0.0,
    "firm_size": NaN
  },
  {
    "cust_id": 14671319,
    "legal_name": "Daniel Jaffe",
    "dba_name": "Jaffe Newco Ltd",
    "city": "London",
    "state": "GT",
    "zip_code": 0,
    "ytd_returns": 497,
    "prv1_returns": 0,
    "growth_rate": 49700.0,
    "firm_size": "0-500"
  },
  {
    "cust_id": 14776459,
    "legal_name": "Brad F Westerfield",
    "dba_name": "Brad F Westerfield",
    "city": "London",
    "state": "GT",
    "zip_code": 0,
    "ytd_returns": 0,
    "prv1_returns": 0,
    "growth_rate": 0.0,
    "firm_size": NaN
  },
  {
    "cust_id": 14143164,
    "legal_name": "David Treitel",
    "dba_name": "American Tax Returns Ltd",
    "city": "London",
    "state": "GT",
    "zip_code": 0,
    "ytd_returns": 23,
    "prv1_returns": 1,
    "growth_rate": 2200.0,
    "firm_size": "0-500"
  },
  {
    "cust_id": 13676632,
    "legal_name": "ANDERSEN TAX LLC",
    "dba_name": "ANDERSEN TAX LLC",
    "city": "London",
    "state": "GT",
    "zip_code": 0,
    "ytd_returns": 199,
    "prv1_returns": 86,
    "growth_rate": 131.3953488372093,
    "firm_size": "0-500"
  },
  {
    "cust_id": 14004354,
    "legal_name": "Richard A Puig",
    "dba_name": "Guago Limited",
    "city": "London",
    "state": "GT",
    "zip_code": 0,
    "ytd_returns": 13,
    "prv1_returns": 8,
    "growth_rate": 62.5,
    "firm_size": "0-500"
  },
  {
    "cust_id": 14717852,
    "legal_name": "Christine M O'Brien",
    "dba_name": "Christine M O'Brien",
    "city": "London",
    "state": "GT",
    "zip_code": 0,
    "ytd_returns": 0,
    "prv1_returns": 0,
    "growth_rate": 0.0,
    "firm_size": NaN
  },
  {
    "cust_id": 14033395,
    "legal_name": "M. Hoyt  CPA LTD",
    "dba_name": "M. Hoyt  CPA LTD",
    "city": "London",
    "state": "GT",
    "zip_code": 0,
    "ytd_returns": 7,
    "prv1_returns": 12,
    "growth_rate": -41.66666666666667,
    "firm_size": "0-500"
  },
  {
    "cust_id": 14204290,
    "legal_name": "Xerxes Associates LLP",
    "dba_name": "Xerxes Associates LLP",
    "city": "London",
    "state": "GT",
    "zip_code": 0,
    "ytd_returns": 501,
    "prv1_returns": 0,
    "growth_rate": 50100.0,
    "firm_size": "501-1000"
  },
  {
    "cust_id": 14667419,
    "legal_name": "WSATax Limited",
    "dba_name": "WSATax Limited",
    "city": "London",
    "state": "GT",
    "zip_code": 0,
    "ytd_returns": 201,
    "prv1_returns": 0,
    "growth_rate": 20100.0,
    "firm_size": "0-500"
  },
  {
    "cust_id": 2290884,
    "legal_name": "ORIANA MORRISON",
    "dba_name": "ORIANA MORRISON",
    "city": "London",
    "state": "GT",
    "zip_code": 0,
    "ytd_returns": 378,
    "prv1_returns": 132,
    "growth_rate": 186.36363636363637,
    "firm_size": "0-500"
  },
  {
    "cust_id": 14138584,
    "legal_name": "Smith and Williamson LLP",
    "dba_name": "Smith and Williamson LLP",
    "city": "London",
    "state": "GT",
    "zip_code": 0,
    "ytd_returns": 306,
    "prv1_returns": 181,
    "growth_rate": 69.06077348066299,
    "firm_size": "0-500"
  },
  {
    "cust_id": 13634195,
    "legal_name": "Radius Bristol Limited",
    "dba_name": "Vistra IE Bristol Limited",
    "city": "London",
    "state": "GT",
    "zip_code": 0,
    "ytd_returns": 5,
    "prv1_returns": 3,
    "growth_rate": 66.66666666666666,
    "firm_size": "0-500"
  },
  {
    "cust_id": 732098,
    "legal_name": "PRICE WATERHOUSE COOPERS LLP",
    "dba_name": "PRICE WATERHOUSE COOPERS LLP",
    "city": "LONDON",
    "state": "GT",
    "zip_code": 0,
    "ytd_returns": 1921,
    "prv1_returns": 1359,
    "growth_rate": 41.35393671817513,
    "firm_size": "1001-5000"
  },
  {
    "cust_id": 13853545,
    "legal_name": "American Tax Consulting UK Limited",
    "dba_name": "American Tax Consulting UK Limited",
    "city": "London",
    "state": "GT",
    "zip_code": 0,
    "ytd_returns": 355,
    "prv1_returns": 269,
    "growth_rate": 31.970260223048324,
    "firm_size": "0-500"
  },
  {
    "cust_id": 2405498,
    "legal_name": "US & UK EAGLE TAXATION LTD.",
    "dba_name": "US & UK EAGLE TAXATION LTD.",
    "city": "LONDON",
    "state": "GT",
    "zip_code": 0,
    "ytd_returns": 201,
    "prv1_returns": 165,
    "growth_rate": 21.818181818181817,
    "firm_size": "0-500"
  },
  {
    "cust_id": 13676417,
    "legal_name": "Vault Group LLP",
    "dba_name": "Vault Group LLP",
    "city": "London",
    "state": "GT",
    "zip_code": 0,
    "ytd_returns": 143,
    "prv1_returns": 118,
    "growth_rate": 21.1864406779661,
    "firm_size": "0-500"
  },
  {
    "cust_id": 1266545,
    "legal_name": "UK AMERICAN TAX LTD",
    "dba_name": "BRITISH AMERICAN TAX",
    "city": "LONDON",
    "state": "GT",
    "zip_code": 0,
    "ytd_returns": 498,
    "prv1_returns": 434,
    "growth_rate": 14.746543778801843,
    "firm_size": "0-500"
  },
  {
    "cust_id": 13811773,
    "legal_name": "US Tax Advisory Partnership LLP",
    "dba_name": "US Tax Advisory Partnership LLP",
    "city": "London",
    "state": "GT",
    "zip_code": 0,
    "ytd_returns": 998,
    "prv1_returns": 873,
    "growth_rate": 14.3184421534937,
    "firm_size": "501-1000"
  },
  {
    "cust_id": 1996214,
    "legal_name": "UNITED STATES TAX SERVICE LIMITED",
    "dba_name": "TIEKEY ACCOUNTS",
    "city": "SALFORD",
    "state": "GT",
    "zip_code": 0,
    "ytd_returns": 114,
    "prv1_returns": 100,
    "growth_rate": 14.000000000000002,
    "firm_size": "0-500"
  },
  {
    "cust_id": 13740280,
    "legal_name": "Blick Rothenberg Limited",
    "dba_name": "Blick Rothenberg Limited",
    "city": "London",
    "state": "GT",
    "zip_code": 0,
    "ytd_returns": 2088,
    "prv1_returns": 1898,
    "growth_rate": 10.01053740779768,
    "firm_size": "1001-5000"
  },
  {
    "cust_id": 1275485,
    "legal_name": "DELOITTE & TOUCHE LLP",
    "dba_name": "DELOITTE & TOUCHE LLP",
    "city": "LONDON",
    "state": "GT",
    "zip_code": 0,
    "ytd_returns": 2607,
    "prv1_returns": 2415,
    "growth_rate": 7.950310559006211,
    "firm_size": "1001-5000"
  },
  {
    "cust_id": 2428998,
    "legal_name": "SOPHER INTERNATIONAL TAXATION LIMITED",
    "dba_name": "SOPHER INTERNATIONAL TAXATION LIMITED",
    "city": "LONDON",
    "state": "GT",
    "zip_code": 0,
    "ytd_returns": 355,
    "prv1_returns": 330,
    "growth_rate": 7.575757575757576,
    "firm_size": "0-500"
  },
  {
    "cust_id": 2016139,
    "legal_name": "ERNST AND YOUNG LLP",
    "dba_name": "ERNST AND YOUNG LLP",
    "city": "LONDON",
    "state": "GT",
    "zip_code": 0,
    "ytd_returns": 4347,
    "prv1_returns": 4093,
    "growth_rate": 6.205717077937943,
    "firm_size": "1001-5000"
  },
  {
    "cust_id": 13739277,
    "legal_name": "BUZZACOTT LIVINGSTONE LIMITED",
    "dba_name": "Buzzacott Expatriate Tax Services",
    "city": "London",
    "state": "GT",
    "zip_code": 0,
    "ytd_returns": 2754,
    "prv1_returns": 2639,
    "growth_rate": 4.357711254262978,
    "firm_size": "1001-5000"
  },
  {
    "cust_id": 208141,
    "legal_name": "US TAX & FINANCIAL SERVICES LTD",
    "dba_name": "US TAX & FINANCIAL SERVICES LTD",
    "city": "LONDON",
    "state": "GT",
    "zip_code": 0,
    "ytd_returns": 1041,
    "prv1_returns": 1040,
    "growth_rate": 0.0961538461538461,
    "firm_size": "1001-5000"
  },
  {
    "cust_id": 2315627,
    "legal_name": "SOTHEBY'S",
    "dba_name": "SOTHEBY'S",
    "city": "LONDON",
    "state": "GT",
    "zip_code": 0,
    "ytd_returns": 0,
    "prv1_returns": 0,
    "growth_rate": 0.0,
    "firm_size": NaN
  },
  {
    "cust_id": 13769166,
    "legal_name": "GLOBAL TAX CONNECTIONS LTD",
    "dba_name": "GLOBAL TAX CONNECTIONS LTD",
    "city": "LONDON",
    "state": "GT",
    "zip_code": 0,
    "ytd_returns": 5,
    "prv1_returns": 5,
    "growth_rate": 0.0,
    "firm_size": "0-500"
  },
  {
    "cust_id": 14708980,
    "legal_name": "Harrison Swift",
    "dba_name": "Harrison Swift",
    "city": "London",
    "state": "GT",
    "zip_code": 0,
    "ytd_returns": 0,
    "prv1_returns": 0,
    "growth_rate": 0.0,
    "firm_size": NaN
  },
  {
    "cust_id": 2402768,
    "legal_name": "UBERLUXE LTD",
    "dba_name": "American UK Tax Solutions",
    "city": "LONDON",
    "state": "GT",
    "zip_code": 0,
    "ytd_returns": 105,
    "prv1_returns": 113,
    "growth_rate": -7.079646017699115,
    "firm_size": "0-500"
  },
  {
    "cust_id": 13733492,
    "legal_name": "Warrener Stewart Limited",
    "dba_name": "Warrener Stewart Limited",
    "city": "London",
    "state": "GT",
    "zip_code": 0,
    "ytd_returns": 1126,
    "prv1_returns": 1220,
    "growth_rate": -7.704918032786885,
    "firm_size": "1001-5000"
  },
  {
    "cust_id": 2304117,
    "legal_name": "US TAX SOLUTIONS LLP",
    "dba_name": "US TAX SOLUTIONS LLP",
    "city": "LONDON",
    "state": "GT",
    "zip_code": 0,
    "ytd_returns": 234,
    "prv1_returns": 263,
    "growth_rate": -11.02661596958175,
    "firm_size": "0-500"
  },
  {
    "cust_id": 2389946,
    "legal_name": "GROW GREAT BRITAIN GLOBAL LTD",
    "dba_name": "GROW GREAT BRITAIN",
    "city": "LONDON",
    "state": "GT",
    "zip_code": 0,
    "ytd_returns": 2,
    "prv1_returns": 3,
    "growth_rate": -33.33333333333333,
    "firm_size": "0-500"
  },
  {
    "cust_id": 14033395,
    "legal_name": "M. Hoyt  CPA LTD",
    "dba_name": "M. Hoyt  CPA LTD",
    "city": "London",
    "state": "GT",
    "zip_code": 0,
    "ytd_returns": 7,
    "prv1_returns": 12,
    "growth_rate": -41.66666666666667,
    "firm_size": "0-500"
  },
  {
    "cust_id": 14204290,
    "legal_name": "Xerxes Associates LLP",
    "dba_name": "Xerxes Associates LLP",
    "city": "London",
    "state": "GT",
    "zip_code": 0,
    "ytd_returns": 501,
    "prv1_returns": 0,
    "growth_rate": 50100.0,
    "firm_size": "501-1000"
  },
  {
    "cust_id": 14667419,
    "legal_name": "WSATax Limited",
    "dba_name": "WSATax Limited",
    "city": "London",
    "state": "GT",
    "zip_code": 0,
    "ytd_returns": 201,
    "prv1_returns": 0,
    "growth_rate": 20100.0,
    "firm_size": "0-500"
  },
  {
    "cust_id": 2290884,
    "legal_name": "ORIANA MORRISON",
    "dba_name": "ORIANA MORRISON",
    "city": "London",
    "state": "GT",
    "zip_code": 0,
    "ytd_returns": 378,
    "prv1_returns": 132,
    "growth_rate": 186.36363636363637,
    "firm_size": "0-500"
  },
  {
    "cust_id": 14138584,
    "legal_name": "Smith and Williamson LLP",
    "dba_name": "Smith and Williamson LLP",
    "city": "London",
    "state": "GT",
    "zip_code": 0,
    "ytd_returns": 306,
    "prv1_returns": 181,
    "growth_rate": 69.06077348066299,
    "firm_size": "0-500"
  },
  {
    "cust_id": 13634195,
    "legal_name": "Radius Bristol Limited",
    "dba_name": "Vistra IE Bristol Limited",
    "city": "London",
    "state": "GT",
    "zip_code": 0,
    "ytd_returns": 5,
    "prv1_returns": 3,
    "growth_rate": 66.66666666666666,
    "firm_size": "0-500"
  },
  {
    "cust_id": 732098,
    "legal_name": "PRICE WATERHOUSE COOPERS LLP",
    "dba_name": "PRICE WATERHOUSE COOPERS LLP",
    "city": "LONDON",
    "state": "GT",
    "zip_code": 0,
    "ytd_returns": 1921,
    "prv1_returns": 1359,
    "growth_rate": 41.35393671817513,
    "firm_size": "1001-5000"
  },
  {
    "cust_id": 13853545,
    "legal_name": "American Tax Consulting UK Limited",
    "dba_name": "American Tax Consulting UK Limited",
    "city": "London",
    "state": "GT",
    "zip_code": 0,
    "ytd_returns": 355,
    "prv1_returns": 269,
    "growth_rate": 31.970260223048324,
    "firm_size": "0-500"
  },
  {
    "cust_id": 2405498,
    "legal_name": "US & UK EAGLE TAXATION LTD.",
    "dba_name": "US & UK EAGLE TAXATION LTD.",
    "city": "LONDON",
    "state": "GT",
    "zip_code": 0,
    "ytd_returns": 201,
    "prv1_returns": 165,
    "growth_rate": 21.818181818181817,
    "firm_size": "0-500"
  },
  {
    "cust_id": 13676417,
    "legal_name": "Vault Group LLP",
    "dba_name": "Vault Group LLP",
    "city": "London",
    "state": "GT",
    "zip_code": 0,
    "ytd_returns": 143,
    "prv1_returns": 118,
    "growth_rate": 21.1864406779661,
    "firm_size": "0-500"
  },
  {
    "cust_id": 1266545,
    "legal_name": "UK AMERICAN TAX LTD",
    "dba_name": "BRITISH AMERICAN TAX",
    "city": "LONDON",
    "state": "GT",
    "zip_code": 0,
    "ytd_returns": 498,
    "prv1_returns": 434,
    "growth_rate": 14.746543778801843,
    "firm_size": "0-500"
  },
  {
    "cust_id": 13811773,
    "legal_name": "US Tax Advisory Partnership LLP",
    "dba_name": "US Tax Advisory Partnership LLP",
    "city": "London",
    "state": "GT",
    "zip_code": 0,
    "ytd_returns": 998,
    "prv1_returns": 873,
    "growth_rate": 14.3184421534937,
    "firm_size": "501-1000"
  },
  {
    "cust_id": 1996214,
    "legal_name": "UNITED STATES TAX SERVICE LIMITED",
    "dba_name": "TIEKEY ACCOUNTS",
    "city": "SALFORD",
    "state": "GT",
    "zip_code": 0,
    "ytd_returns": 114,
    "prv1_returns": 100,
    "growth_rate": 14.000000000000002,
    "firm_size": "0-500"
  },
  {
    "cust_id": 13740280,
    "legal_name": "Blick Rothenberg Limited",
    "dba_name": "Blick Rothenberg Limited",
    "city": "London",
    "state": "GT",
    "zip_code": 0,
    "ytd_returns": 2088,
    "prv1_returns": 1898,
    "growth_rate": 10.01053740779768,
    "firm_size": "1001-5000"
  },
  {
    "cust_id": 1275485,
    "legal_name": "DELOITTE & TOUCHE LLP",
    "dba_name": "DELOITTE & TOUCHE LLP",
    "city": "LONDON",
    "state": "GT",
    "zip_code": 0,
    "ytd_returns": 2607,
    "prv1_returns": 2415,
    "growth_rate": 7.950310559006211,
    "firm_size": "1001-5000"
  },
  {
    "cust_id": 2428998,
    "legal_name": "SOPHER INTERNATIONAL TAXATION LIMITED",
    "dba_name": "SOPHER INTERNATIONAL TAXATION LIMITED",
    "city": "LONDON",
    "state": "GT",
    "zip_code": 0,
    "ytd_returns": 355,
    "prv1_returns": 330,
    "growth_rate": 7.575757575757576,
    "firm_size": "0-500"
  },
  {
    "cust_id": 2016139,
    "legal_name": "ERNST AND YOUNG LLP",
    "dba_name": "ERNST AND YOUNG LLP",
    "city": "LONDON",
    "state": "GT",
    "zip_code": 0,
    "ytd_returns": 4347,
    "prv1_returns": 4093,
    "growth_rate": 6.205717077937943,
    "firm_size": "1001-5000"
  },
  {
    "cust_id": 13739277,
    "legal_name": "BUZZACOTT LIVINGSTONE LIMITED",
    "dba_name": "Buzzacott Expatriate Tax Services",
    "city": "London",
    "state": "GT",
    "zip_code": 0,
    "ytd_returns": 2754,
    "prv1_returns": 2639,
    "growth_rate": 4.357711254262978,
    "firm_size": "1001-5000"
  },
  {
    "cust_id": 208141,
    "legal_name": "US TAX & FINANCIAL SERVICES LTD",
    "dba_name": "US TAX & FINANCIAL SERVICES LTD",
    "city": "LONDON",
    "state": "GT",
    "zip_code": 0,
    "ytd_returns": 1041,
    "prv1_returns": 1040,
    "growth_rate": 0.0961538461538461,
    "firm_size": "1001-5000"
  },
  {
    "cust_id": 13769166,
    "legal_name": "GLOBAL TAX CONNECTIONS LTD",
    "dba_name": "GLOBAL TAX CONNECTIONS LTD",
    "city": "LONDON",
    "state": "GT",
    "zip_code": 0,
    "ytd_returns": 5,
    "prv1_returns": 5,
    "growth_rate": 0.0,
    "firm_size": "0-500"
  },
  {
    "cust_id": 14708980,
    "legal_name": "Harrison Swift",
    "dba_name": "Harrison Swift",
    "city": "London",
    "state": "GT",
    "zip_code": 0,
    "ytd_returns": 0,
    "prv1_returns": 0,
    "growth_rate": 0.0,
    "firm_size": NaN
  },
  {
    "cust_id": 2315627,
    "legal_name": "SOTHEBY'S",
    "dba_name": "SOTHEBY'S",
    "city": "LONDON",
    "state": "GT",
    "zip_code": 0,
    "ytd_returns": 0,
    "prv1_returns": 0,
    "growth_rate": 0.0,
    "firm_size": NaN
  },
  {
    "cust_id": 2402768,
    "legal_name": "UBERLUXE LTD",
    "dba_name": "American UK Tax Solutions",
    "city": "LONDON",
    "state": "GT",
    "zip_code": 0,
    "ytd_returns": 105,
    "prv1_returns": 113,
    "growth_rate": -7.079646017699115,
    "firm_size": "0-500"
  },
  {
    "cust_id": 13733492,
    "legal_name": "Warrener Stewart Limited",
    "dba_name": "Warrener Stewart Limited",
    "city": "London",
    "state": "GT",
    "zip_code": 0,
    "ytd_returns": 1126,
    "prv1_returns": 1220,
    "growth_rate": -7.704918032786885,
    "firm_size": "1001-5000"
  },
  {
    "cust_id": 2304117,
    "legal_name": "US TAX SOLUTIONS LLP",
    "dba_name": "US TAX SOLUTIONS LLP",
    "city": "LONDON",
    "state": "GT",
    "zip_code": 0,
    "ytd_returns": 234,
    "prv1_returns": 263,
    "growth_rate": -11.02661596958175,
    "firm_size": "0-500"
  },
  {
    "cust_id": 2389946,
    "legal_name": "GROW GREAT BRITAIN GLOBAL LTD",
    "dba_name": "GROW GREAT BRITAIN",
    "city": "LONDON",
    "state": "GT",
    "zip_code": 0,
    "ytd_returns": 2,
    "prv1_returns": 3,
    "growth_rate": -33.33333333333333,
    "firm_size": "0-500"
  },
  {
    "cust_id": 2168728,
    "legal_name": "Susan M Shriver",
    "dba_name": "Tax Consultant/return preparer",
    "city": "LONDON",
    "state": "GT",
    "zip_code": 0,
    "ytd_returns": 38,
    "prv1_returns": 32,
    "growth_rate": 18.75,
    "firm_size": "0-500"
  },
  {
    "cust_id": 14671319,
    "legal_name": "Daniel Jaffe",
    "dba_name": "Jaffe Newco Ltd",
    "city": "London",
    "state": "GT",
    "zip_code": 0,
    "ytd_returns": 497,
    "prv1_returns": 0,
    "growth_rate": 49700.0,
    "firm_size": "0-500"
  },
  {
    "cust_id": 14143164,
    "legal_name": "David Treitel",
    "dba_name": "American Tax Returns Ltd",
    "city": "London",
    "state": "GT",
    "zip_code": 0,
    "ytd_returns": 23,
    "prv1_returns": 1,
    "growth_rate": 2200.0,
    "firm_size": "0-500"
  },
  {
    "cust_id": 13676632,
    "legal_name": "ANDERSEN TAX LLC",
    "dba_name": "ANDERSEN TAX LLC",
    "city": "London",
    "state": "GT",
    "zip_code": 0,
    "ytd_returns": 199,
    "prv1_returns": 86,
    "growth_rate": 131.3953488372093,
    "firm_size": "0-500"
  },
  {
    "cust_id": 14004354,
    "legal_name": "Richard A Puig",
    "dba_name": "Guago Limited",
    "city": "London",
    "state": "GT",
    "zip_code": 0,
    "ytd_returns": 13,
    "prv1_returns": 8,
    "growth_rate": 62.5,
    "firm_size": "0-500"
  },
  {
    "cust_id": 14717852,
    "legal_name": "Christine M O'Brien",
    "dba_name": "Christine M O'Brien",
    "city": "London",
    "state": "GT",
    "zip_code": 0,
    "ytd_returns": 0,
    "prv1_returns": 0,
    "growth_rate": 0.0,
    "firm_size": NaN
  },
  {
    "cust_id": 2168728,
    "legal_name": "Susan M Shriver",
    "dba_name": "Tax Consultant/return preparer",
    "city": "LONDON",
    "state": "GT",
    "zip_code": 0,
    "ytd_returns": 38,
    "prv1_returns": 32,
    "growth_rate": 18.75,
    "firm_size": "0-500"
  }
]