[
  {
    "cust_id": 667227,
    "legal_name": "Mark H Zinser",
    "dba_name": "BD's Bookkeeping & Tax Service",
    "city": "HAGATNA",
    "state": "GU",
    "zip_code": 96932,
    "ytd_returns": 20,
    "prv1_returns": 23,
    "growth_rate": -13.043478260869565,
    "firm_size": "0-500"
  },
  {
    "cust_id": 13696288,
    "legal_name": "Crescel Czarina N Singayao",
    "dba_name": "Beyond Tax Solutions",
    "city": "YIGO",
    "state": "GU",
    "zip_code": 96929,
    "ytd_returns": 86,
    "prv1_returns": 116,
    "growth_rate": -25.86206896551724,
    "firm_size": "0-500"
  },
  {
    "cust_id": 14683285,
    "legal_name": "Taxpro and Notary Services LLC",
    "dba_name": "Taxpro and Notary Services LLC",
    "city": "TAMUNING",
    "state": "GU",
    "zip_code": 96931,
    "ytd_returns": 0,
    "prv1_returns": 0,
    "growth_rate": 0.0,
    "firm_size": NaN
  },
  {
    "cust_id": 14189672,
    "legal_name": "Walkerway Tax services LLC",
    "dba_name": "Walkerway Tax services LLC",
    "city": "Thomaston",
    "state": "GU",
    "zip_code": 30286,
    "ytd_returns": 84,
    "prv1_returns": 0,
    "growth_rate": 8400.0,
    "firm_size": "0-500"
  },
  {
    "cust_id": 2163667,
    "legal_name": "ERNST & YOUNG (CNMI) INC",
    "dba_name": "ERNST & YOUNG (CNMI) INC",
    "city": "SAIPAN  MP",
    "state": "GU",
    "zip_code": 96950,
    "ytd_returns": 0,
    "prv1_returns": 0,
    "growth_rate": 0.0,
    "firm_size": NaN
  },
  {
    "cust_id": 13802172,
    "legal_name": "DELOITTE & TOUCHE LLP",
    "dba_name": "DELOITTE & TOUCHE LLP",
    "city": "Tamuning",
    "state": "GU",
    "zip_code": 96913,
    "ytd_returns": 0,
    "prv1_returns": 2,
    "growth_rate": -100.0,
    "firm_size": NaN
  },
  {
    "cust_id": 13696288,
    "legal_name": "Crescel Czarina N Singayao",
    "dba_name": "Beyond Tax Solutions",
    "city": "YIGO",
    "state": "GU",
    "zip_code": 96929,
    "ytd_returns": 86,
    "prv1_returns": 116,
    "growth_rate": -25.86206896551724,
    "firm_size": "0-500"
  },
  {
    "cust_id": 14683285,
    "legal_name": "Taxpro and Notary Services LLC",
    "dba_name": "Taxpro and Notary Services LLC",
    "city": "TAMUNING",
    "state": "GU",
    "zip_code": 96931,
    "ytd_returns": 0,
    "prv1_returns": 0,
    "growth_rate": 0.0,
    "firm_size": NaN
  },
  {
    "cust_id": 14189672,
    "legal_name": "Walkerway Tax services LLC",
    "dba_name": "Walkerway Tax services LLC",
    "city": "Thomaston",
    "state": "GU",
    "zip_code": 30286,
    "ytd_returns": 84,
    "prv1_returns": 0,
    "growth_rate": 8400.0,
    "firm_size": "0-500"
  },
  {
    "cust_id": 2163667,
    "legal_name": "ERNST & YOUNG (CNMI) INC",
    "dba_name": "ERNST & YOUNG (CNMI) INC",
    "city": "SAIPAN  MP",
    "state": "GU",
    "zip_code": 96950,
    "ytd_returns": 0,
    "prv1_returns": 0,
    "growth_rate": 0.0,
    "firm_size": NaN
  },
  {
    "cust_id": 13802172,
    "legal_name": "DELOITTE & TOUCHE LLP",
    "dba_name": "DELOITTE & TOUCHE LLP",
    "city": "Tamuning",
    "state": "GU",
    "zip_code": 96913,
    "ytd_returns": 0,
    "prv1_returns": 2,
    "growth_rate": -100.0,
    "firm_size": NaN
  },
  {
    "cust_id": 13902063,
    "legal_name": "KERRY CUTTING",
    "dba_name": "Kerry J. Cutting  CPA",
    "city": "Hagatna",
    "state": "GU",
    "zip_code": 96910,
    "ytd_returns": 11,
    "prv1_returns": 4,
    "growth_rate": 175.0,
    "firm_size": "0-500"
  },
  {
    "cust_id": 1687757,
    "legal_name": "Arthur D Murphy",
    "dba_name": "H&R BLOCK",
    "city": "DEDEDO",
    "state": "GU",
    "zip_code": 96929,
    "ytd_returns": 129,
    "prv1_returns": 86,
    "growth_rate": 50.0,
    "firm_size": "0-500"
  },
  {
    "cust_id": 1683608,
    "legal_name": "Arthur D Murphy",
    "dba_name": "H&R BLOCK",
    "city": "DEDEDO",
    "state": "GU",
    "zip_code": 96929,
    "ytd_returns": 290,
    "prv1_returns": 286,
    "growth_rate": 1.3986013986013983,
    "firm_size": "0-500"
  },
  {
    "cust_id": 14680413,
    "legal_name": "Jerricho C Garcia",
    "dba_name": "Jerricho C Garcia  CPA",
    "city": "Dededo",
    "state": "GU",
    "zip_code": 96929,
    "ytd_returns": 0,
    "prv1_returns": 0,
    "growth_rate": 0.0,
    "firm_size": NaN
  },
  {
    "cust_id": 14476601,
    "legal_name": "Steven G Lebo",
    "dba_name": "Lebo Accounting",
    "city": "Daytona Beach",
    "state": "GU",
    "zip_code": 32118,
    "ytd_returns": 0,
    "prv1_returns": 0,
    "growth_rate": 0.0,
    "firm_size": NaN
  },
  {
    "cust_id": 13824034,
    "legal_name": "TAX PROS ENTERPRISES  INC.",
    "dba_name": "TAX PROS",
    "city": "TAMUNING",
    "state": "GU",
    "zip_code": 96913,
    "ytd_returns": 119,
    "prv1_returns": 69,
    "growth_rate": 72.46376811594203,
    "firm_size": "0-500"
  },
  {
    "cust_id": 14127516,
    "legal_name": "Tax Angel Guam LLC",
    "dba_name": "Tax Angel Guam LLC",
    "city": "Dededo",
    "state": "GU",
    "zip_code": 96929,
    "ytd_returns": 12,
    "prv1_returns": 10,
    "growth_rate": 20.0,
    "firm_size": "0-500"
  },
  {
    "cust_id": 2151962,
    "legal_name": "ERNST & YOUNG LLP",
    "dba_name": "ERNST & YOUNG LLP",
    "city": "TAMUNING",
    "state": "GU",
    "zip_code": 96913,
    "ytd_returns": 241,
    "prv1_returns": 218,
    "growth_rate": 10.550458715596331,
    "firm_size": "0-500"
  },
  {
    "cust_id": 14213028,
    "legal_name": "Manglona CPA PC",
    "dba_name": "Manglona CPA PC",
    "city": "Hagatna",
    "state": "GU",
    "zip_code": 96910,
    "ytd_returns": 0,
    "prv1_returns": 0,
    "growth_rate": 0.0,
    "firm_size": NaN
  },
  {
    "cust_id": 13930984,
    "legal_name": "James C Kwak CPA",
    "dba_name": "James C Kwak CPA",
    "city": "Dededo",
    "state": "GU",
    "zip_code": 96929,
    "ytd_returns": 0,
    "prv1_returns": 0,
    "growth_rate": 0.0,
    "firm_size": NaN
  },
  {
    "cust_id": 14707651,
    "legal_name": "PETER C YU",
    "dba_name": "Peters Office",
    "city": "HAGATNA",
    "state": "GU",
    "zip_code": 96932,
    "ytd_returns": 0,
    "prv1_returns": 0,
    "growth_rate": 0.0,
    "firm_size": NaN
  },
  {
    "cust_id": 14643517,
    "legal_name": "DO HWAN KIM",
    "dba_name": "Clover Accounting  CPA",
    "city": "Tamuning",
    "state": "GU",
    "zip_code": 96913,
    "ytd_returns": 0,
    "prv1_returns": 0,
    "growth_rate": 0.0,
    "firm_size": NaN
  },
  {
    "cust_id": 1259344,
    "legal_name": "SANFORD TECHNOLOGY GROUP LLC",
    "dba_name": "SANFORD TECHNOLOGY GROUP LLC",
    "city": "Tamuning",
    "state": "GU",
    "zip_code": 96913,
    "ytd_returns": 1243,
    "prv1_returns": 1247,
    "growth_rate": -0.3207698476343223,
    "firm_size": "1001-5000"
  },
  {
    "cust_id": 13772992,
    "legal_name": "Marcia E. Briones  CPA",
    "dba_name": "Marcia E. Briones  CPA",
    "city": "Tamuning",
    "state": "GU",
    "zip_code": 96931,
    "ytd_returns": 11,
    "prv1_returns": 26,
    "growth_rate": -57.692307692307686,
    "firm_size": "0-500"
  },
  {
    "cust_id": 14095887,
    "legal_name": "Christina Kim",
    "dba_name": "CK Tax & Accounting Services",
    "city": "Tamuning",
    "state": "GU",
    "zip_code": 96931,
    "ytd_returns": 0,
    "prv1_returns": 3,
    "growth_rate": -100.0,
    "firm_size": NaN
  },
  {
    "cust_id": 13824034,
    "legal_name": "TAX PROS ENTERPRISES  INC.",
    "dba_name": "TAX PROS",
    "city": "TAMUNING",
    "state": "GU",
    "zip_code": 96913,
    "ytd_returns": 119,
    "prv1_returns": 69,
    "growth_rate": 72.46376811594203,
    "firm_size": "0-500"
  },
  {
    "cust_id": 14127516,
    "legal_name": "Tax Angel Guam LLC",
    "dba_name": "Tax Angel Guam LLC",
    "city": "Dededo",
    "state": "GU",
    "zip_code": 96929,
    "ytd_returns": 12,
    "prv1_returns": 10,
    "growth_rate": 20.0,
    "firm_size": "0-500"
  },
  {
    "cust_id": 2151962,
    "legal_name": "ERNST & YOUNG LLP",
    "dba_name": "ERNST & YOUNG LLP",
    "city": "TAMUNING",
    "state": "GU",
    "zip_code": 96913,
    "ytd_returns": 241,
    "prv1_returns": 218,
    "growth_rate": 10.550458715596331,
    "firm_size": "0-500"
  },
  {
    "cust_id": 14213028,
    "legal_name": "Manglona CPA PC",
    "dba_name": "Manglona CPA PC",
    "city": "Hagatna",
    "state": "GU",
    "zip_code": 96910,
    "ytd_returns": 0,
    "prv1_returns": 0,
    "growth_rate": 0.0,
    "firm_size": NaN
  },
  {
    "cust_id": 13930984,
    "legal_name": "James C Kwak CPA",
    "dba_name": "James C Kwak CPA",
    "city": "Dededo",
    "state": "GU",
    "zip_code": 96929,
    "ytd_returns": 0,
    "prv1_returns": 0,
    "growth_rate": 0.0,
    "firm_size": NaN
  },
  {
    "cust_id": 14643517,
    "legal_name": "DO HWAN KIM",
    "dba_name": "Clover Accounting  CPA",
    "city": "Tamuning",
    "state": "GU",
    "zip_code": 96913,
    "ytd_returns": 0,
    "prv1_returns": 0,
    "growth_rate": 0.0,
    "firm_size": NaN
  },
  {
    "cust_id": 14707651,
    "legal_name": "PETER C YU",
    "dba_name": "Peters Office",
    "city": "HAGATNA",
    "state": "GU",
    "zip_code": 96932,
    "ytd_returns": 0,
    "prv1_returns": 0,
    "growth_rate": 0.0,
    "firm_size": NaN
  },
  {
    "cust_id": 1259344,
    "legal_name": "SANFORD TECHNOLOGY GROUP LLC",
    "dba_name": "SANFORD TECHNOLOGY GROUP LLC",
    "city": "Tamuning",
    "state": "GU",
    "zip_code": 96913,
    "ytd_returns": 1243,
    "prv1_returns": 1247,
    "growth_rate": -0.3207698476343223,
    "firm_size": "1001-5000"
  },
  {
    "cust_id": 13772992,
    "legal_name": "Marcia E. Briones  CPA",
    "dba_name": "Marcia E. Briones  CPA",
    "city": "Tamuning",
    "state": "GU",
    "zip_code": 96931,
    "ytd_returns": 11,
    "prv1_returns": 26,
    "growth_rate": -57.692307692307686,
    "firm_size": "0-500"
  },
  {
    "cust_id": 14095887,
    "legal_name": "Christina Kim",
    "dba_name": "CK Tax & Accounting Services",
    "city": "Tamuning",
    "state": "GU",
    "zip_code": 96931,
    "ytd_returns": 0,
    "prv1_returns": 3,
    "growth_rate": -100.0,
    "firm_size": NaN
  },
  {
    "cust_id": 667227,
    "legal_name": "Mark H Zinser",
    "dba_name": "BD's Bookkeeping & Tax Service",
    "city": "HAGATNA",
    "state": "GU",
    "zip_code": 96932,
    "ytd_returns": 20,
    "prv1_returns": 23,
    "growth_rate": -13.043478260869565,
    "firm_size": "0-500"
  },
  {
    "cust_id": 13902063,
    "legal_name": "KERRY CUTTING",
    "dba_name": "Kerry J. Cutting  CPA",
    "city": "Hagatna",
    "state": "GU",
    "zip_code": 96910,
    "ytd_returns": 11,
    "prv1_returns": 4,
    "growth_rate": 175.0,
    "firm_size": "0-500"
  },
  {
    "cust_id": 1687757,
    "legal_name": "Arthur D Murphy",
    "dba_name": "H&R BLOCK",
    "city": "DEDEDO",
    "state": "GU",
    "zip_code": 96929,
    "ytd_returns": 129,
    "prv1_returns": 86,
    "growth_rate": 50.0,
    "firm_size": "0-500"
  },
  {
    "cust_id": 1683608,
    "legal_name": "Arthur D Murphy",
    "dba_name": "H&R BLOCK",
    "city": "DEDEDO",
    "state": "GU",
    "zip_code": 96929,
    "ytd_returns": 290,
    "prv1_returns": 286,
    "growth_rate": 1.3986013986013983,
    "firm_size": "0-500"
  },
  {
    "cust_id": 14680413,
    "legal_name": "Jerricho C Garcia",
    "dba_name": "Jerricho C Garcia  CPA",
    "city": "Dededo",
    "state": "GU",
    "zip_code": 96929,
    "ytd_returns": 0,
    "prv1_returns": 0,
    "growth_rate": 0.0,
    "firm_size": NaN
  },
  {
    "cust_id": 14476601,
    "legal_name": "Steven G Lebo",
    "dba_name": "Lebo Accounting",
    "city": "Daytona Beach",
    "state": "GU",
    "zip_code": 32118,
    "ytd_returns": 0,
    "prv1_returns": 0,
    "growth_rate": 0.0,
    "firm_size": NaN
  }
]