[
  {
    "cust_id": 1346279,
    "legal_name": "Edward Senesac",
    "dba_name": "ExpatTax LLC.",
    "city": "WIESBADEN",
    "state": "HE",
    "zip_code": 65191,
    "ytd_returns": 268,
    "prv1_returns": 311,
    "growth_rate": -13.826366559485532,
    "firm_size": "0-500"
  },
  {
    "cust_id": 13953491,
    "legal_name": "Paula Weinacht",
    "dba_name": "Paula Weinacht",
    "city": "Oberursel",
    "state": "HE",
    "zip_code": 61440,
    "ytd_returns": 0,
    "prv1_returns": 0,
    "growth_rate": 0.0,
    "firm_size": NaN
  },
  {
    "cust_id": 820847,
    "legal_name": "Gregory Schmidt",
    "dba_name": "Gregory Schmidt",
    "city": "FRANKFURT",
    "state": "HE",
    "zip_code": 0,
    "ytd_returns": 311,
    "prv1_returns": 296,
    "growth_rate": 5.067567567567568,
    "firm_size": "0-500"
  },
  {
    "cust_id": 14118721,
    "legal_name": "Irina Holzwarth",
    "dba_name": "Irina Holzwarth",
    "city": "Frankfurt am Main",
    "state": "HE",
    "zip_code": 60487,
    "ytd_returns": 26,
    "prv1_returns": 6,
    "growth_rate": 333.33333333333337,
    "firm_size": "0-500"
  },
  {
    "cust_id": 2037875,
    "legal_name": "EARL F. CLEMONS JR.",
    "dba_name": "H&R Block",
    "city": "FLOERSHEIM",
    "state": "HE",
    "zip_code": 65439,
    "ytd_returns": 3406,
    "prv1_returns": 3177,
    "growth_rate": 7.208057916273214,
    "firm_size": "1001-5000"
  },
  {
    "cust_id": 2081972,
    "legal_name": "ERNST & YOUNG GMBH",
    "dba_name": "ERNST & YOUNG GMBH",
    "city": "ESCHBORN",
    "state": "HE",
    "zip_code": 65760,
    "ytd_returns": 428,
    "prv1_returns": 483,
    "growth_rate": -11.387163561076605,
    "firm_size": "0-500"
  },
  {
    "cust_id": 14118721,
    "legal_name": "Irina Holzwarth",
    "dba_name": "Irina Holzwarth",
    "city": "Frankfurt am Main",
    "state": "HE",
    "zip_code": 60487,
    "ytd_returns": 26,
    "prv1_returns": 6,
    "growth_rate": 333.33333333333337,
    "firm_size": "0-500"
  },
  {
    "cust_id": 2037875,
    "legal_name": "EARL F. CLEMONS JR.",
    "dba_name": "H&R Block",
    "city": "FLOERSHEIM",
    "state": "HE",
    "zip_code": 65439,
    "ytd_returns": 3406,
    "prv1_returns": 3177,
    "growth_rate": 7.208057916273214,
    "firm_size": "1001-5000"
  },
  {
    "cust_id": 2081972,
    "legal_name": "ERNST & YOUNG GMBH",
    "dba_name": "ERNST & YOUNG GMBH",
    "city": "ESCHBORN",
    "state": "HE",
    "zip_code": 65760,
    "ytd_returns": 428,
    "prv1_returns": 483,
    "growth_rate": -11.387163561076605,
    "firm_size": "0-500"
  },
  {
    "cust_id": 13830302,
    "legal_name": "Carol D Hipwell",
    "dba_name": "Carol D Hipwell",
    "city": "Hatfield",
    "state": "HE",
    "zip_code": 0,
    "ytd_returns": 6,
    "prv1_returns": 9,
    "growth_rate": -33.33333333333333,
    "firm_size": "0-500"
  },
  {
    "cust_id": 13964838,
    "legal_name": "Gerald W Springer",
    "dba_name": "Jerry Springer  CPA",
    "city": "Bruchkoebel",
    "state": "HE",
    "zip_code": 63486,
    "ytd_returns": 135,
    "prv1_returns": 68,
    "growth_rate": 98.52941176470588,
    "firm_size": "0-500"
  },
  {
    "cust_id": 13632234,
    "legal_name": "Matthew R Coleman",
    "dba_name": "Matthew Coleman  CPA",
    "city": "Frankfurt am Main",
    "state": "HE",
    "zip_code": 60389,
    "ytd_returns": 2750,
    "prv1_returns": 2396,
    "growth_rate": 14.774624373956591,
    "firm_size": "1001-5000"
  },
  {
    "cust_id": 14005949,
    "legal_name": "Christian Bernd",
    "dba_name": "U.S. Tax & Legal",
    "city": "Frankfurt",
    "state": "HE",
    "zip_code": 65929,
    "ytd_returns": 162,
    "prv1_returns": 0,
    "growth_rate": 16200.0,
    "firm_size": "0-500"
  },
  {
    "cust_id": 211144,
    "legal_name": "CHARLES S AUSTIN",
    "dba_name": "CHARLES S AUSTIN CPA",
    "city": "60322 FRANKFURT AM MAIN",
    "state": "HE",
    "zip_code": 0,
    "ytd_returns": 0,
    "prv1_returns": 5,
    "growth_rate": -100.0,
    "firm_size": NaN
  },
  {
    "cust_id": 13691784,
    "legal_name": "Scott A Barber",
    "dba_name": "Scott A Barber",
    "city": "Harpenden",
    "state": "HE",
    "zip_code": 0,
    "ytd_returns": 183,
    "prv1_returns": 163,
    "growth_rate": 12.269938650306749,
    "firm_size": "0-500"
  },
  {
    "cust_id": 1346279,
    "legal_name": "Edward Senesac",
    "dba_name": "ExpatTax LLC.",
    "city": "WIESBADEN",
    "state": "HE",
    "zip_code": 65191,
    "ytd_returns": 268,
    "prv1_returns": 311,
    "growth_rate": -13.826366559485532,
    "firm_size": "0-500"
  },
  {
    "cust_id": 13953491,
    "legal_name": "Paula Weinacht",
    "dba_name": "Paula Weinacht",
    "city": "Oberursel",
    "state": "HE",
    "zip_code": 61440,
    "ytd_returns": 0,
    "prv1_returns": 0,
    "growth_rate": 0.0,
    "firm_size": NaN
  },
  {
    "cust_id": 820847,
    "legal_name": "Gregory Schmidt",
    "dba_name": "Gregory Schmidt",
    "city": "FRANKFURT",
    "state": "HE",
    "zip_code": 0,
    "ytd_returns": 311,
    "prv1_returns": 296,
    "growth_rate": 5.067567567567568,
    "firm_size": "0-500"
  },
  {
    "cust_id": 13830302,
    "legal_name": "Carol D Hipwell",
    "dba_name": "Carol D Hipwell",
    "city": "Hatfield",
    "state": "HE",
    "zip_code": 0,
    "ytd_returns": 6,
    "prv1_returns": 9,
    "growth_rate": -33.33333333333333,
    "firm_size": "0-500"
  },
  {
    "cust_id": 13632234,
    "legal_name": "Matthew R Coleman",
    "dba_name": "Matthew Coleman  CPA",
    "city": "Frankfurt am Main",
    "state": "HE",
    "zip_code": 60389,
    "ytd_returns": 2750,
    "prv1_returns": 2396,
    "growth_rate": 14.774624373956591,
    "firm_size": "1001-5000"
  },
  {
    "cust_id": 14005949,
    "legal_name": "Christian Bernd",
    "dba_name": "U.S. Tax & Legal",
    "city": "Frankfurt",
    "state": "HE",
    "zip_code": 65929,
    "ytd_returns": 162,
    "prv1_returns": 0,
    "growth_rate": 16200.0,
    "firm_size": "0-500"
  },
  {
    "cust_id": 13964838,
    "legal_name": "Gerald W Springer",
    "dba_name": "Jerry Springer  CPA",
    "city": "Bruchkoebel",
    "state": "HE",
    "zip_code": 63486,
    "ytd_returns": 135,
    "prv1_returns": 68,
    "growth_rate": 98.52941176470588,
    "firm_size": "0-500"
  },
  {
    "cust_id": 211144,
    "legal_name": "CHARLES S AUSTIN",
    "dba_name": "CHARLES S AUSTIN CPA",
    "city": "60322 FRANKFURT AM MAIN",
    "state": "HE",
    "zip_code": 0,
    "ytd_returns": 0,
    "prv1_returns": 5,
    "growth_rate": -100.0,
    "firm_size": NaN
  },
  {
    "cust_id": 13691784,
    "legal_name": "Scott A Barber",
    "dba_name": "Scott A Barber",
    "city": "Harpenden",
    "state": "HE",
    "zip_code": 0,
    "ytd_returns": 183,
    "prv1_returns": 163,
    "growth_rate": 12.269938650306749,
    "firm_size": "0-500"
  }
]