[
  {
    "cust_id": 2052109,
    "legal_name": "GLADYS I ROJAS",
    "dba_name": "GR TaxPro & Multiservices",
    "city": "Colmenar Viejo",
    "state": "M",
    "zip_code": 28770,
    "ytd_returns": 148,
    "prv1_returns": 149,
    "growth_rate": -0.6711409395973155,
    "firm_size": "0-500"
  },
  {
    "cust_id": 14695136,
    "legal_name": "Keith A Elliott",
    "dba_name": "Elliott Asesores SL",
    "city": "Madrid",
    "state": "M",
    "zip_code": 28055,
    "ytd_returns": 2,
    "prv1_returns": 0,
    "growth_rate": 200.0,
    "firm_size": "0-500"
  },
  {
    "cust_id": 14130485,
    "legal_name": "James P Iglesias",
    "dba_name": "US Tax Consultants",
    "city": "Madrid",
    "state": "M",
    "zip_code": 28043,
    "ytd_returns": 0,
    "prv1_returns": 0,
    "growth_rate": 0.0,
    "firm_size": NaN
  },
  {
    "cust_id": 14002472,
    "legal_name": "Andrea J Brady",
    "dba_name": "Andrea J Brady",
    "city": "Madrid",
    "state": "M",
    "zip_code": 28003,
    "ytd_returns": 0,
    "prv1_returns": 0,
    "growth_rate": 0.0,
    "firm_size": NaN
  },
  {
    "cust_id": 2052109,
    "legal_name": "GLADYS I ROJAS",
    "dba_name": "GR TaxPro & Multiservices",
    "city": "Colmenar Viejo",
    "state": "M",
    "zip_code": 28770,
    "ytd_returns": 148,
    "prv1_returns": 149,
    "growth_rate": -0.6711409395973155,
    "firm_size": "0-500"
  },
  {
    "cust_id": 14675598,
    "legal_name": "KEMA Inc",
    "dba_name": "KEMA Inc",
    "city": "Madrid",
    "state": "M",
    "zip_code": 28055,
    "ytd_returns": 0,
    "prv1_returns": 0,
    "growth_rate": 0.0,
    "firm_size": NaN
  },
  {
    "cust_id": 1628265,
    "legal_name": "MELANIE A SAMPLE",
    "dba_name": "MELANIE A SAMPLE",
    "city": "SS REYES MADRID 28708",
    "state": "M",
    "zip_code": 28708,
    "ytd_returns": 92,
    "prv1_returns": 235,
    "growth_rate": -60.85106382978724,
    "firm_size": "0-500"
  },
  {
    "cust_id": 14695136,
    "legal_name": "Keith A Elliott",
    "dba_name": "Elliott Asesores SL",
    "city": "Madrid",
    "state": "M",
    "zip_code": 28055,
    "ytd_returns": 2,
    "prv1_returns": 0,
    "growth_rate": 200.0,
    "firm_size": "0-500"
  },
  {
    "cust_id": 14130485,
    "legal_name": "James P Iglesias",
    "dba_name": "US Tax Consultants",
    "city": "Madrid",
    "state": "M",
    "zip_code": 28043,
    "ytd_returns": 0,
    "prv1_returns": 0,
    "growth_rate": 0.0,
    "firm_size": NaN
  },
  {
    "cust_id": 14002472,
    "legal_name": "Andrea J Brady",
    "dba_name": "Andrea J Brady",
    "city": "Madrid",
    "state": "M",
    "zip_code": 28003,
    "ytd_returns": 0,
    "prv1_returns": 0,
    "growth_rate": 0.0,
    "firm_size": NaN
  },
  {
    "cust_id": 14675598,
    "legal_name": "KEMA Inc",
    "dba_name": "KEMA Inc",
    "city": "Madrid",
    "state": "M",
    "zip_code": 28055,
    "ytd_returns": 0,
    "prv1_returns": 0,
    "growth_rate": 0.0,
    "firm_size": NaN
  },
  {
    "cust_id": 1628265,
    "legal_name": "MELANIE A SAMPLE",
    "dba_name": "MELANIE A SAMPLE",
    "city": "SS REYES MADRID 28708",
    "state": "M",
    "zip_code": 28708,
    "ytd_returns": 92,
    "prv1_returns": 235,
    "growth_rate": -60.85106382978724,
    "firm_size": "0-500"
  }
]