[
  {
    "cust_id": 14034439,
    "legal_name": "Solomon McMurray",
    "dba_name": "McMurray Enterprises",
    "city": "Arborg",
    "state": "MB",
    "zip_code": 0,
    "ytd_returns": 8,
    "prv1_returns": 5,
    "growth_rate": 60.0,
    "firm_size": "0-500"
  },
  {
    "cust_id": 14034439,
    "legal_name": "Solomon McMurray",
    "dba_name": "McMurray Enterprises",
    "city": "Arborg",
    "state": "MB",
    "zip_code": 0,
    "ytd_returns": 8,
    "prv1_returns": 5,
    "growth_rate": 60.0,
    "firm_size": "0-500"
  },
  {
    "cust_id": 1266391,
    "legal_name": "ERNST & YOUNG LLP",
    "dba_name": "ERNST & YOUNG LLP",
    "city": "Winnipeg",
    "state": "MB",
    "zip_code": 0,
    "ytd_returns": 1088,
    "prv1_returns": 1083,
    "growth_rate": 0.4616805170821791,
    "firm_size": "1001-5000"
  },
  {
    "cust_id": 1259883,
    "legal_name": "DELOITTE & TOUCHE LLP",
    "dba_name": "DELOITTE & TOUCHE LLP",
    "city": "WINNIPEG",
    "state": "MB",
    "zip_code": 0,
    "ytd_returns": 175,
    "prv1_returns": 195,
    "growth_rate": -10.256410256410255,
    "firm_size": "0-500"
  },
  {
    "cust_id": 737109,
    "legal_name": "KPMG LLP",
    "dba_name": "KPMG LLP",
    "city": "WINNIPEG",
    "state": "MB",
    "zip_code": 0,
    "ytd_returns": 62,
    "prv1_returns": 73,
    "growth_rate": -15.068493150684931,
    "firm_size": "0-500"
  },
  {
    "cust_id": 1266391,
    "legal_name": "ERNST & YOUNG LLP",
    "dba_name": "ERNST & YOUNG LLP",
    "city": "Winnipeg",
    "state": "MB",
    "zip_code": 0,
    "ytd_returns": 1088,
    "prv1_returns": 1083,
    "growth_rate": 0.4616805170821791,
    "firm_size": "1001-5000"
  },
  {
    "cust_id": 1259883,
    "legal_name": "DELOITTE & TOUCHE LLP",
    "dba_name": "DELOITTE & TOUCHE LLP",
    "city": "WINNIPEG",
    "state": "MB",
    "zip_code": 0,
    "ytd_returns": 175,
    "prv1_returns": 195,
    "growth_rate": -10.256410256410255,
    "firm_size": "0-500"
  },
  {
    "cust_id": 737109,
    "legal_name": "KPMG LLP",
    "dba_name": "KPMG LLP",
    "city": "WINNIPEG",
    "state": "MB",
    "zip_code": 0,
    "ytd_returns": 62,
    "prv1_returns": 73,
    "growth_rate": -15.068493150684931,
    "firm_size": "0-500"
  },
  {
    "cust_id": 13973854,
    "legal_name": "Marcia Gordon",
    "dba_name": "Marcia Gordon",
    "city": "Winnipeg",
    "state": "MB",
    "zip_code": 0,
    "ytd_returns": 84,
    "prv1_returns": 72,
    "growth_rate": 16.666666666666664,
    "firm_size": "0-500"
  },
  {
    "cust_id": 2178056,
    "legal_name": "Kent J Haugen",
    "dba_name": "Kent J Haugen CPA",
    "city": "WINNIPEG",
    "state": "MB",
    "zip_code": 0,
    "ytd_returns": 20,
    "prv1_returns": 18,
    "growth_rate": 11.11111111111111,
    "firm_size": "0-500"
  },
  {
    "cust_id": 13973854,
    "legal_name": "Marcia Gordon",
    "dba_name": "Marcia Gordon",
    "city": "Winnipeg",
    "state": "MB",
    "zip_code": 0,
    "ytd_returns": 84,
    "prv1_returns": 72,
    "growth_rate": 16.666666666666664,
    "firm_size": "0-500"
  },
  {
    "cust_id": 2178056,
    "legal_name": "Kent J Haugen",
    "dba_name": "Kent J Haugen CPA",
    "city": "WINNIPEG",
    "state": "MB",
    "zip_code": 0,
    "ytd_returns": 20,
    "prv1_returns": 18,
    "growth_rate": 11.11111111111111,
    "firm_size": "0-500"
  }
]