[
  {
    "cust_id": 2325099,
    "legal_name": "Catherine Smith",
    "dba_name": "A Cloud Thing",
    "city": "COPACABANA",
    "state": "NS",
    "zip_code": 2251,
    "ytd_returns": 246,
    "prv1_returns": 264,
    "growth_rate": -6.8181818181818175,
    "firm_size": "0-500"
  },
  {
    "cust_id": 13923323,
    "legal_name": "Abigail W Tibbetts",
    "dba_name": "Abigail W Woodworth",
    "city": "Halifax",
    "state": "NS",
    "zip_code": 0,
    "ytd_returns": 0,
    "prv1_returns": 0,
    "growth_rate": 0.0,
    "firm_size": NaN
  },
  {
    "cust_id": 2325099,
    "legal_name": "Catherine Smith",
    "dba_name": "A Cloud Thing",
    "city": "COPACABANA",
    "state": "NS",
    "zip_code": 2251,
    "ytd_returns": 246,
    "prv1_returns": 264,
    "growth_rate": -6.8181818181818175,
    "firm_size": "0-500"
  },
  {
    "cust_id": 14346371,
    "legal_name": "Pricewaterhousecoopers",
    "dba_name": "PricewaterhouseCoopers",
    "city": "Sydney",
    "state": "NS",
    "zip_code": 2001,
    "ytd_returns": 49,
    "prv1_returns": 0,
    "growth_rate": 4900.0,
    "firm_size": "0-500"
  },
  {
    "cust_id": 14353526,
    "legal_name": "H&R BLOCK CANADA",
    "dba_name": "G.W. Warren Inc",
    "city": "Amherst",
    "state": "NS",
    "zip_code": 0,
    "ytd_returns": 39,
    "prv1_returns": 0,
    "growth_rate": 3900.0,
    "firm_size": "0-500"
  },
  {
    "cust_id": 2121041,
    "legal_name": "GRANT THORNTON LLP",
    "dba_name": "GRANT THORNTON LLP",
    "city": "HALIFAX",
    "state": "NS",
    "zip_code": 0,
    "ytd_returns": 3347,
    "prv1_returns": 3019,
    "growth_rate": 10.86452467704538,
    "firm_size": "1001-5000"
  },
  {
    "cust_id": 2349220,
    "legal_name": "H&R BLOCK LIMITED",
    "dba_name": "H&R BLOCK LIMITED",
    "city": "SYDNEY",
    "state": "NS",
    "zip_code": 2000,
    "ytd_returns": 2233,
    "prv1_returns": 2477,
    "growth_rate": -9.85062575696407,
    "firm_size": "1001-5000"
  },
  {
    "cust_id": 859958,
    "legal_name": "KPMG LLP",
    "dba_name": "KPMG LLP",
    "city": "HALIFAX",
    "state": "NS",
    "zip_code": 0,
    "ytd_returns": 222,
    "prv1_returns": 272,
    "growth_rate": -18.38235294117647,
    "firm_size": "0-500"
  },
  {
    "cust_id": 14346371,
    "legal_name": "Pricewaterhousecoopers",
    "dba_name": "PricewaterhouseCoopers",
    "city": "Sydney",
    "state": "NS",
    "zip_code": 2001,
    "ytd_returns": 49,
    "prv1_returns": 0,
    "growth_rate": 4900.0,
    "firm_size": "0-500"
  },
  {
    "cust_id": 14353526,
    "legal_name": "H&R BLOCK CANADA",
    "dba_name": "G.W. Warren Inc",
    "city": "Amherst",
    "state": "NS",
    "zip_code": 0,
    "ytd_returns": 39,
    "prv1_returns": 0,
    "growth_rate": 3900.0,
    "firm_size": "0-500"
  },
  {
    "cust_id": 2121041,
    "legal_name": "GRANT THORNTON LLP",
    "dba_name": "GRANT THORNTON LLP",
    "city": "HALIFAX",
    "state": "NS",
    "zip_code": 0,
    "ytd_returns": 3347,
    "prv1_returns": 3019,
    "growth_rate": 10.86452467704538,
    "firm_size": "1001-5000"
  },
  {
    "cust_id": 2349220,
    "legal_name": "H&R BLOCK LIMITED",
    "dba_name": "H&R BLOCK LIMITED",
    "city": "SYDNEY",
    "state": "NS",
    "zip_code": 2000,
    "ytd_returns": 2233,
    "prv1_returns": 2477,
    "growth_rate": -9.85062575696407,
    "firm_size": "1001-5000"
  },
  {
    "cust_id": 859958,
    "legal_name": "KPMG LLP",
    "dba_name": "KPMG LLP",
    "city": "HALIFAX",
    "state": "NS",
    "zip_code": 0,
    "ytd_returns": 222,
    "prv1_returns": 272,
    "growth_rate": -18.38235294117647,
    "firm_size": "0-500"
  },
  {
    "cust_id": 835290,
    "legal_name": "Christopher E Ahrens",
    "dba_name": "Christopher E Ahrens",
    "city": "ARTARMON",
    "state": "NS",
    "zip_code": 2064,
    "ytd_returns": 217,
    "prv1_returns": 195,
    "growth_rate": 11.282051282051285,
    "firm_size": "0-500"
  },
  {
    "cust_id": 14062054,
    "legal_name": "Ryan T Gunn",
    "dba_name": "Ryan T Gunn",
    "city": "WATERLOO",
    "state": "NS",
    "zip_code": 2017,
    "ytd_returns": 0,
    "prv1_returns": 13,
    "growth_rate": -100.0,
    "firm_size": NaN
  },
  {
    "cust_id": 13923323,
    "legal_name": "Abigail W Tibbetts",
    "dba_name": "Abigail W Woodworth",
    "city": "Halifax",
    "state": "NS",
    "zip_code": 0,
    "ytd_returns": 0,
    "prv1_returns": 0,
    "growth_rate": 0.0,
    "firm_size": NaN
  },
  {
    "cust_id": 835290,
    "legal_name": "Christopher E Ahrens",
    "dba_name": "Christopher E Ahrens",
    "city": "ARTARMON",
    "state": "NS",
    "zip_code": 2064,
    "ytd_returns": 217,
    "prv1_returns": 195,
    "growth_rate": 11.282051282051285,
    "firm_size": "0-500"
  },
  {
    "cust_id": 14062054,
    "legal_name": "Ryan T Gunn",
    "dba_name": "Ryan T Gunn",
    "city": "WATERLOO",
    "state": "NS",
    "zip_code": 2017,
    "ytd_returns": 0,
    "prv1_returns": 13,
    "growth_rate": -100.0,
    "firm_size": NaN
  }
]