[
  {
    "cust_id": 14321089,
    "legal_name": "Versa LLC",
    "dba_name": "Versa",
    "city": "Mississauga",
    "state": "ON",
    "zip_code": 0,
    "ytd_returns": 22,
    "prv1_returns": 0,
    "growth_rate": 2200.0,
    "firm_size": "0-500"
  },
  {
    "cust_id": 14082595,
    "legal_name": "LINDA S WOODEN",
    "dba_name": "ADVANTAGE ACCOUNTING",
    "city": "WINDSOR",
    "state": "ON",
    "zip_code": 0,
    "ytd_returns": 629,
    "prv1_returns": 415,
    "growth_rate": 51.566265060240966,
    "firm_size": "501-1000"
  },
  {
    "cust_id": 2325909,
    "legal_name": "Gordon O Stockman",
    "dba_name": "Sharp Accounting Services Inc.",
    "city": "MISSISSAUGA",
    "state": "ON",
    "zip_code": 0,
    "ytd_returns": 87,
    "prv1_returns": 72,
    "growth_rate": 20.833333333333336,
    "firm_size": "0-500"
  },
  {
    "cust_id": 1966445,
    "legal_name": "Rob Lauzon",
    "dba_name": "Beyond Accounting",
    "city": "LASALLE",
    "state": "ON",
    "zip_code": 0,
    "ytd_returns": 84,
    "prv1_returns": 87,
    "growth_rate": -3.4482758620689653,
    "firm_size": "0-500"
  },
  {
    "cust_id": 2250222,
    "legal_name": "DENISE K LUBINSKY",
    "dba_name": "DENISE K LUBINSKY  CPA  CA",
    "city": "OAKVILLE",
    "state": "ON",
    "zip_code": 0,
    "ytd_returns": 5,
    "prv1_returns": 6,
    "growth_rate": -16.666666666666664,
    "firm_size": "0-500"
  },
  {
    "cust_id": 14019874,
    "legal_name": "Stuart R Perkins",
    "dba_name": "Stuart R Perkins",
    "city": "Windsor",
    "state": "ON",
    "zip_code": 0,
    "ytd_returns": 40,
    "prv1_returns": 66,
    "growth_rate": -39.39393939393939,
    "firm_size": "0-500"
  },
  {
    "cust_id": 2203302,
    "legal_name": "PETER R FARAH",
    "dba_name": "PETER R FARAH",
    "city": "TECUMSEH",
    "state": "ON",
    "zip_code": 0,
    "ytd_returns": 74,
    "prv1_returns": 200,
    "growth_rate": -63.0,
    "firm_size": "0-500"
  },
  {
    "cust_id": 13811782,
    "legal_name": "Joseph Kasle",
    "dba_name": "Joseph Kasle",
    "city": "Markham",
    "state": "ON",
    "zip_code": 0,
    "ytd_returns": 0,
    "prv1_returns": 58,
    "growth_rate": -100.0,
    "firm_size": NaN
  },
  {
    "cust_id": 13658540,
    "legal_name": "RSM US LLP",
    "dba_name": "RSM CANADA LLP",
    "city": "Toronto",
    "state": "ON",
    "zip_code": 0,
    "ytd_returns": 513,
    "prv1_returns": 468,
    "growth_rate": 9.615384615384617,
    "firm_size": "501-1000"
  },
  {
    "cust_id": 2317134,
    "legal_name": "PW TAX",
    "dba_name": "PW TAX",
    "city": "CONCORD",
    "state": "ON",
    "zip_code": 0,
    "ytd_returns": 5009,
    "prv1_returns": 4801,
    "growth_rate": 4.332430743595085,
    "firm_size": "5001-10000"
  },
  {
    "cust_id": 14642043,
    "legal_name": "Jaclyn  Sabatino",
    "dba_name": "Jaclyn  Sabatino",
    "city": "Woodbridge",
    "state": "ON",
    "zip_code": 0,
    "ytd_returns": 2,
    "prv1_returns": 0,
    "growth_rate": 200.0,
    "firm_size": "0-500"
  },
  {
    "cust_id": 1320458,
    "legal_name": "THE FRANCHISE COMPANY (US)  INC.",
    "dba_name": "THE FRANCHISE COMPANY (US)  INC.",
    "city": "Toronto",
    "state": "ON",
    "zip_code": 0,
    "ytd_returns": 2,
    "prv1_returns": 2,
    "growth_rate": 0.0,
    "firm_size": "0-500"
  },
  {
    "cust_id": 14228764,
    "legal_name": "DANIEL A NADEAU",
    "dba_name": "DANIEL A NADEAU",
    "city": "Windsor",
    "state": "ON",
    "zip_code": 0,
    "ytd_returns": 569,
    "prv1_returns": 0,
    "growth_rate": 56900.0,
    "firm_size": "501-1000"
  },
  {
    "cust_id": 2045224,
    "legal_name": "Moshe Zelig Avner Polatsek",
    "dba_name": "Moshe Zelig Avner Polatsek",
    "city": "TORONTO",
    "state": "ON",
    "zip_code": 0,
    "ytd_returns": 1538,
    "prv1_returns": 1312,
    "growth_rate": 17.22560975609756,
    "firm_size": "1001-5000"
  },
  {
    "cust_id": 2323451,
    "legal_name": "Aristaea Clarkson",
    "dba_name": "GAClarkson",
    "city": "Mississauga",
    "state": "ON",
    "zip_code": 0,
    "ytd_returns": 360,
    "prv1_returns": 310,
    "growth_rate": 16.129032258064516,
    "firm_size": "0-500"
  },
  {
    "cust_id": 2128504,
    "legal_name": "John R Mott",
    "dba_name": "John R Mott",
    "city": "TORONTO",
    "state": "ON",
    "zip_code": 0,
    "ytd_returns": 675,
    "prv1_returns": 684,
    "growth_rate": -1.3157894736842104,
    "firm_size": "501-1000"
  },
  {
    "cust_id": 2213132,
    "legal_name": "HOLLY HABER",
    "dba_name": "HOLLY B HABER",
    "city": "TORONTO",
    "state": "ON",
    "zip_code": 0,
    "ytd_returns": 673,
    "prv1_returns": 738,
    "growth_rate": -8.807588075880759,
    "firm_size": "501-1000"
  },
  {
    "cust_id": 2297230,
    "legal_name": "Lascelles Whilby",
    "dba_name": "Charmaine Lawrence Professional Corp",
    "city": "TORONTO",
    "state": "ON",
    "zip_code": 0,
    "ytd_returns": 85,
    "prv1_returns": 107,
    "growth_rate": -20.5607476635514,
    "firm_size": "0-500"
  },
  {
    "cust_id": 14616233,
    "legal_name": "Andrew M Willis",
    "dba_name": "Andrew M Willis",
    "city": "London",
    "state": "ON",
    "zip_code": 0,
    "ytd_returns": 5,
    "prv1_returns": 0,
    "growth_rate": 500.0,
    "firm_size": "0-500"
  },
  {
    "cust_id": 2465006,
    "legal_name": "David Z Handelsman",
    "dba_name": "David Z Handelsman",
    "city": "TORONTO",
    "state": "ON",
    "zip_code": 0,
    "ytd_returns": 125,
    "prv1_returns": 80,
    "growth_rate": 56.25,
    "firm_size": "0-500"
  },
  {
    "cust_id": 14735406,
    "legal_name": "Yakov M Rosen",
    "dba_name": "Yakov M Rosen",
    "city": "toronto",
    "state": "ON",
    "zip_code": 0,
    "ytd_returns": 0,
    "prv1_returns": 0,
    "growth_rate": 0.0,
    "firm_size": NaN
  },
  {
    "cust_id": 2200701,
    "legal_name": "BENJAMIN GROSS",
    "dba_name": "BENJAMIN GROSS",
    "city": "TORONTO",
    "state": "ON",
    "zip_code": 0,
    "ytd_returns": 59,
    "prv1_returns": 61,
    "growth_rate": -3.278688524590164,
    "firm_size": "0-500"
  },
  {
    "cust_id": 13751669,
    "legal_name": "Ariel Figdor",
    "dba_name": "Ariel Figdor",
    "city": "CONCORD",
    "state": "ON",
    "zip_code": 0,
    "ytd_returns": 3,
    "prv1_returns": 4,
    "growth_rate": -25.0,
    "firm_size": "0-500"
  },
  {
    "cust_id": 1735511,
    "legal_name": "judah basser",
    "dba_name": "judah basser",
    "city": "TORONTO",
    "state": "ON",
    "zip_code": 0,
    "ytd_returns": 114,
    "prv1_returns": 154,
    "growth_rate": -25.97402597402597,
    "firm_size": "0-500"
  },
  {
    "cust_id": 2514242,
    "legal_name": "Allan Waldron",
    "dba_name": "Allan R Waldron",
    "city": "Lakefield",
    "state": "ON",
    "zip_code": 0,
    "ytd_returns": 21,
    "prv1_returns": 37,
    "growth_rate": -43.24324324324324,
    "firm_size": "0-500"
  },
  {
    "cust_id": 13580656,
    "legal_name": "CCH INC.",
    "dba_name": "Linamar Corporation",
    "city": "GUELPH",
    "state": "ON",
    "zip_code": 0,
    "ytd_returns": 34,
    "prv1_returns": 22,
    "growth_rate": 54.54545454545454,
    "firm_size": "0-500"
  },
  {
    "cust_id": 2319256,
    "legal_name": "Tia Guinness",
    "dba_name": "Tia M Guiness",
    "city": "TORONTO",
    "state": "ON",
    "zip_code": 0,
    "ytd_returns": 118,
    "prv1_returns": 96,
    "growth_rate": 22.916666666666664,
    "firm_size": "0-500"
  },
  {
    "cust_id": 13957474,
    "legal_name": "Brian J Fruchter",
    "dba_name": "Brian  J Fruchter",
    "city": "Toronto",
    "state": "ON",
    "zip_code": 0,
    "ytd_returns": 0,
    "prv1_returns": 0,
    "growth_rate": 0.0,
    "firm_size": NaN
  },
  {
    "cust_id": 2386803,
    "legal_name": "Miriam Hauptman",
    "dba_name": "MIRIAM HAUPTMAN",
    "city": "TORONTO",
    "state": "ON",
    "zip_code": 0,
    "ytd_returns": 219,
    "prv1_returns": 254,
    "growth_rate": -13.77952755905512,
    "firm_size": "0-500"
  },
  {
    "cust_id": 2378436,
    "legal_name": "Lorynne Schreiber",
    "dba_name": "Lorynne Schreiber",
    "city": "TORONTO",
    "state": "ON",
    "zip_code": 0,
    "ytd_returns": 20,
    "prv1_returns": 5,
    "growth_rate": 300.0,
    "firm_size": "0-500"
  },
  {
    "cust_id": 13806024,
    "legal_name": "Mujtaba H Syed",
    "dba_name": "ZMB Tax Consultants Inc",
    "city": "Bradford",
    "state": "ON",
    "zip_code": 0,
    "ytd_returns": 88,
    "prv1_returns": 62,
    "growth_rate": 41.935483870967744,
    "firm_size": "0-500"
  },
  {
    "cust_id": 2190839,
    "legal_name": "FRANCES L WALLACE",
    "dba_name": "FRANCES L WALLACE",
    "city": "Kitchener",
    "state": "ON",
    "zip_code": 0,
    "ytd_returns": 14,
    "prv1_returns": 16,
    "growth_rate": -12.5,
    "firm_size": "0-500"
  },
  {
    "cust_id": 14321089,
    "legal_name": "Versa LLC",
    "dba_name": "Versa",
    "city": "Mississauga",
    "state": "ON",
    "zip_code": 0,
    "ytd_returns": 22,
    "prv1_returns": 0,
    "growth_rate": 2200.0,
    "firm_size": "0-500"
  },
  {
    "cust_id": 1826136,
    "legal_name": "Charles Vert",
    "dba_name": "Charles Vert",
    "city": "TORONTO",
    "state": "ON",
    "zip_code": 0,
    "ytd_returns": 9,
    "prv1_returns": 0,
    "growth_rate": 900.0,
    "firm_size": "0-500"
  },
  {
    "cust_id": 14082595,
    "legal_name": "LINDA S WOODEN",
    "dba_name": "ADVANTAGE ACCOUNTING",
    "city": "WINDSOR",
    "state": "ON",
    "zip_code": 0,
    "ytd_returns": 629,
    "prv1_returns": 415,
    "growth_rate": 51.566265060240966,
    "firm_size": "501-1000"
  },
  {
    "cust_id": 1966445,
    "legal_name": "Rob Lauzon",
    "dba_name": "Beyond Accounting",
    "city": "LASALLE",
    "state": "ON",
    "zip_code": 0,
    "ytd_returns": 84,
    "prv1_returns": 87,
    "growth_rate": -3.4482758620689653,
    "firm_size": "0-500"
  },
  {
    "cust_id": 2250222,
    "legal_name": "DENISE K LUBINSKY",
    "dba_name": "DENISE K LUBINSKY  CPA  CA",
    "city": "OAKVILLE",
    "state": "ON",
    "zip_code": 0,
    "ytd_returns": 5,
    "prv1_returns": 6,
    "growth_rate": -16.666666666666664,
    "firm_size": "0-500"
  },
  {
    "cust_id": 14019874,
    "legal_name": "Stuart R Perkins",
    "dba_name": "Stuart R Perkins",
    "city": "Windsor",
    "state": "ON",
    "zip_code": 0,
    "ytd_returns": 40,
    "prv1_returns": 66,
    "growth_rate": -39.39393939393939,
    "firm_size": "0-500"
  },
  {
    "cust_id": 13811782,
    "legal_name": "Joseph Kasle",
    "dba_name": "Joseph Kasle",
    "city": "Markham",
    "state": "ON",
    "zip_code": 0,
    "ytd_returns": 0,
    "prv1_returns": 58,
    "growth_rate": -100.0,
    "firm_size": NaN
  },
  {
    "cust_id": 2325909,
    "legal_name": "Gordon O Stockman",
    "dba_name": "Sharp Accounting Services Inc.",
    "city": "MISSISSAUGA",
    "state": "ON",
    "zip_code": 0,
    "ytd_returns": 87,
    "prv1_returns": 72,
    "growth_rate": 20.833333333333336,
    "firm_size": "0-500"
  },
  {
    "cust_id": 2203302,
    "legal_name": "PETER R FARAH",
    "dba_name": "PETER R FARAH",
    "city": "TECUMSEH",
    "state": "ON",
    "zip_code": 0,
    "ytd_returns": 74,
    "prv1_returns": 200,
    "growth_rate": -63.0,
    "firm_size": "0-500"
  },
  {
    "cust_id": 13658540,
    "legal_name": "RSM US LLP",
    "dba_name": "RSM CANADA LLP",
    "city": "Toronto",
    "state": "ON",
    "zip_code": 0,
    "ytd_returns": 513,
    "prv1_returns": 468,
    "growth_rate": 9.615384615384617,
    "firm_size": "501-1000"
  },
  {
    "cust_id": 14148566,
    "legal_name": "MANGO & HUBER  LLC  CPAS",
    "dba_name": "BAZAR MCBEAN LLP",
    "city": "Oakville",
    "state": "ON",
    "zip_code": 0,
    "ytd_returns": 133,
    "prv1_returns": 110,
    "growth_rate": 20.909090909090907,
    "firm_size": "0-500"
  },
  {
    "cust_id": 2317134,
    "legal_name": "PW TAX",
    "dba_name": "PW TAX",
    "city": "CONCORD",
    "state": "ON",
    "zip_code": 0,
    "ytd_returns": 5009,
    "prv1_returns": 4801,
    "growth_rate": 4.332430743595085,
    "firm_size": "5001-10000"
  },
  {
    "cust_id": 2302622,
    "legal_name": "Shawn Stickler",
    "dba_name": "Stateside Tax Solutions",
    "city": "BELLEVILLE",
    "state": "ON",
    "zip_code": 0,
    "ytd_returns": 383,
    "prv1_returns": 379,
    "growth_rate": 1.0554089709762533,
    "firm_size": "0-500"
  },
  {
    "cust_id": 2186564,
    "legal_name": "CHRISTOPHER E MEWHORT",
    "dba_name": "CHRISTOPHER E MEWHORT",
    "city": "GODERICH",
    "state": "ON",
    "zip_code": 0,
    "ytd_returns": 33,
    "prv1_returns": 51,
    "growth_rate": -35.294117647058826,
    "firm_size": "0-500"
  },
  {
    "cust_id": 1437491,
    "legal_name": "SAR HOLDINGS INC.",
    "dba_name": "SAR HOLDINGS INC.",
    "city": "MARKHAM",
    "state": "ON",
    "zip_code": 0,
    "ytd_returns": 0,
    "prv1_returns": 0,
    "growth_rate": 0.0,
    "firm_size": NaN
  },
  {
    "cust_id": 14218834,
    "legal_name": "RE TAX & ACCOUNTING GROUP LLC",
    "dba_name": "RE TAX & ACCOUNTING GROUP LLC",
    "city": "OAKVILLE",
    "state": "ON",
    "zip_code": 0,
    "ytd_returns": 0,
    "prv1_returns": 0,
    "growth_rate": 0.0,
    "firm_size": NaN
  },
  {
    "cust_id": 2193204,
    "legal_name": "WAVE ACCOUNTING INC",
    "dba_name": "WAVE ACCOUNTING INC",
    "city": "TORONTO",
    "state": "ON",
    "zip_code": 0,
    "ytd_returns": 0,
    "prv1_returns": 0,
    "growth_rate": 0.0,
    "firm_size": NaN
  },
  {
    "cust_id": 14247054,
    "legal_name": "AM Associates Professional Corporation",
    "dba_name": "AM Associates Professional Corporation",
    "city": "Windsor",
    "state": "ON",
    "zip_code": 0,
    "ytd_returns": 1476,
    "prv1_returns": 0,
    "growth_rate": 147600.0,
    "firm_size": "1001-5000"
  },
  {
    "cust_id": 14089030,
    "legal_name": "MCO Partners Professional Corporation",
    "dba_name": "MCO Partners Professional Corporation",
    "city": "Windsor",
    "state": "ON",
    "zip_code": 0,
    "ytd_returns": 575,
    "prv1_returns": 0,
    "growth_rate": 57500.0,
    "firm_size": "501-1000"
  },
  {
    "cust_id": 14455416,
    "legal_name": "T1-1040 Tax Inc",
    "dba_name": "T1-1040 Tax Inc",
    "city": "Toronto",
    "state": "ON",
    "zip_code": 0,
    "ytd_returns": 307,
    "prv1_returns": 0,
    "growth_rate": 30700.0,
    "firm_size": "0-500"
  },
  {
    "cust_id": 14228170,
    "legal_name": "Grewal Guyatt LLP",
    "dba_name": "Grewal Guyatt LLP",
    "city": "Richmond Hill",
    "state": "ON",
    "zip_code": 0,
    "ytd_returns": 170,
    "prv1_returns": 19,
    "growth_rate": 794.7368421052632,
    "firm_size": "0-500"
  },
  {
    "cust_id": 14692750,
    "legal_name": "SAL Accounting Professional Corporation",
    "dba_name": "SAL Accounting Professional Corporation",
    "city": "Milton",
    "state": "ON",
    "zip_code": 0,
    "ytd_returns": 3,
    "prv1_returns": 0,
    "growth_rate": 300.0,
    "firm_size": "0-500"
  },
  {
    "cust_id": 14720813,
    "legal_name": "CLARE MOXLEY",
    "dba_name": "CLARE MOXLEY",
    "city": "Pickering",
    "state": "ON",
    "zip_code": 0,
    "ytd_returns": 3,
    "prv1_returns": 0,
    "growth_rate": 300.0,
    "firm_size": "0-500"
  },
  {
    "cust_id": 1630888,
    "legal_name": "U S TAX GROUP INC",
    "dba_name": "U S TAX GROUP INC",
    "city": "TORONTO",
    "state": "ON",
    "zip_code": 0,
    "ytd_returns": 3,
    "prv1_returns": 2,
    "growth_rate": 50.0,
    "firm_size": "0-500"
  },
  {
    "cust_id": 14185041,
    "legal_name": "1040 Abroad Inc.",
    "dba_name": "1040 Abroad Inc.",
    "city": "Toronto",
    "state": "ON",
    "zip_code": 0,
    "ytd_returns": 220,
    "prv1_returns": 148,
    "growth_rate": 48.64864864864865,
    "firm_size": "0-500"
  },
  {
    "cust_id": 13528519,
    "legal_name": "CROSS BORDER TAX SERVICES INC.",
    "dba_name": "CROSS BORDER TAX SERVICES INC.",
    "city": "FONTHILL",
    "state": "ON",
    "zip_code": 0,
    "ytd_returns": 182,
    "prv1_returns": 123,
    "growth_rate": 47.96747967479675,
    "firm_size": "0-500"
  },
  {
    "cust_id": 13830370,
    "legal_name": "Singer & Company Professional Corporatio",
    "dba_name": "Singer & Company Professional Corporatio",
    "city": "Thornhill",
    "state": "ON",
    "zip_code": 0,
    "ytd_returns": 11,
    "prv1_returns": 8,
    "growth_rate": 37.5,
    "firm_size": "0-500"
  },
  {
    "cust_id": 2315025,
    "legal_name": "KPMG LLP",
    "dba_name": "KPMG LLP",
    "city": "TORONTO",
    "state": "ON",
    "zip_code": 0,
    "ytd_returns": 1353,
    "prv1_returns": 1097,
    "growth_rate": 23.336371923427528,
    "firm_size": "1001-5000"
  },
  {
    "cust_id": 737469,
    "legal_name": "KPMG LLP",
    "dba_name": "KPMG LLP",
    "city": "TORONTO",
    "state": "ON",
    "zip_code": 0,
    "ytd_returns": 1422,
    "prv1_returns": 1179,
    "growth_rate": 20.610687022900763,
    "firm_size": "1001-5000"
  },
  {
    "cust_id": 13752876,
    "legal_name": "CVG TAX SOLUTIONS LP",
    "dba_name": "CVG TAX SOLUTIONS LP",
    "city": "Windsor",
    "state": "ON",
    "zip_code": 0,
    "ytd_returns": 253,
    "prv1_returns": 215,
    "growth_rate": 17.674418604651162,
    "firm_size": "0-500"
  },
  {
    "cust_id": 736692,
    "legal_name": "KPMG LLP",
    "dba_name": "KPMG LLP",
    "city": "TORONTO",
    "state": "ON",
    "zip_code": 0,
    "ytd_returns": 7,
    "prv1_returns": 6,
    "growth_rate": 16.666666666666664,
    "firm_size": "0-500"
  },
  {
    "cust_id": 737470,
    "legal_name": "KPMG LLP",
    "dba_name": "KPMG LLP",
    "city": "OTTAWA",
    "state": "ON",
    "zip_code": 0,
    "ytd_returns": 588,
    "prv1_returns": 507,
    "growth_rate": 15.976331360946746,
    "firm_size": "501-1000"
  },
  {
    "cust_id": 737112,
    "legal_name": "KPMG LLP",
    "dba_name": "KPMG LLP",
    "city": "WATERLOO",
    "state": "ON",
    "zip_code": 0,
    "ytd_returns": 749,
    "prv1_returns": 661,
    "growth_rate": 13.313161875945536,
    "firm_size": "501-1000"
  },
  {
    "cust_id": 2409267,
    "legal_name": "MAC TAXATION & MANAGEMENT SERVICES INC.",
    "dba_name": "MAC TAXATION & MANAGEMENT SERVICES INC.",
    "city": "WATERLOO",
    "state": "ON",
    "zip_code": 0,
    "ytd_returns": 695,
    "prv1_returns": 614,
    "growth_rate": 13.192182410423452,
    "firm_size": "501-1000"
  },
  {
    "cust_id": 737477,
    "legal_name": "KPMG LLP",
    "dba_name": "KPMG LLP",
    "city": "VAUGHAN",
    "state": "ON",
    "zip_code": 0,
    "ytd_returns": 2491,
    "prv1_returns": 2262,
    "growth_rate": 10.123784261715295,
    "firm_size": "1001-5000"
  },
  {
    "cust_id": 13758617,
    "legal_name": "U.S. TAX IQ INC",
    "dba_name": "U.S. Tax IQ",
    "city": "Oakville",
    "state": "ON",
    "zip_code": 0,
    "ytd_returns": 369,
    "prv1_returns": 340,
    "growth_rate": 8.529411764705882,
    "firm_size": "0-500"
  },
  {
    "cust_id": 2363181,
    "legal_name": "THE U.S. TAX GROUP LTD.",
    "dba_name": "THE U.S. TAX GROUP LTD.",
    "city": "TORONTO",
    "state": "ON",
    "zip_code": 0,
    "ytd_returns": 1938,
    "prv1_returns": 1835,
    "growth_rate": 5.61307901907357,
    "firm_size": "1001-5000"
  },
  {
    "cust_id": 2496251,
    "legal_name": "DIVAKAR JEEDIGUNTA CGA",
    "dba_name": "D/B/A Tax Preparer  Enrolled Agent",
    "city": "MISSISSAUGA",
    "state": "ON",
    "zip_code": 0,
    "ytd_returns": 143,
    "prv1_returns": 136,
    "growth_rate": 5.147058823529411,
    "firm_size": "0-500"
  },
  {
    "cust_id": 1235448,
    "legal_name": "DELOITTE & TOUCHE LLP",
    "dba_name": "DELOITTE & TOUCHE LLP",
    "city": "BURLINGTON",
    "state": "ON",
    "zip_code": 0,
    "ytd_returns": 206,
    "prv1_returns": 200,
    "growth_rate": 3.0,
    "firm_size": "0-500"
  },
  {
    "cust_id": 14020261,
    "legal_name": "FERRERA TAX & BOOKKEEPING SERVICES LTD",
    "dba_name": "FERRERA TAX & BOOKKEEPING SERVICES LTD",
    "city": "WINDSOR",
    "state": "ON",
    "zip_code": 0,
    "ytd_returns": 748,
    "prv1_returns": 747,
    "growth_rate": 0.1338688085676037,
    "firm_size": "501-1000"
  },
  {
    "cust_id": 1235447,
    "legal_name": "DELOITTE & TOUCHE LLP",
    "dba_name": "DELOITTE & TOUCHE LLP",
    "city": "WINDSOR",
    "state": "ON",
    "zip_code": 0,
    "ytd_returns": 7,
    "prv1_returns": 7,
    "growth_rate": 0.0,
    "firm_size": "0-500"
  },
  {
    "cust_id": 2362876,
    "legal_name": "VIVIENNE LI ACCOUNTING",
    "dba_name": "NMG Professional Services Inc",
    "city": "MISSISSAUGA",
    "state": "ON",
    "zip_code": 0,
    "ytd_returns": 39,
    "prv1_returns": 39,
    "growth_rate": 0.0,
    "firm_size": "0-500"
  },
  {
    "cust_id": 2486940,
    "legal_name": "VCNA US INC.",
    "dba_name": "VCNA US INC.",
    "city": "TORONTO",
    "state": "ON",
    "zip_code": 0,
    "ytd_returns": 5,
    "prv1_returns": 5,
    "growth_rate": 0.0,
    "firm_size": "0-500"
  },
  {
    "cust_id": 1132524,
    "legal_name": "DANIEL GRAY CPA",
    "dba_name": "US TAX Services",
    "city": "TORONTO",
    "state": "ON",
    "zip_code": 0,
    "ytd_returns": 206,
    "prv1_returns": 206,
    "growth_rate": 0.0,
    "firm_size": "0-500"
  },
  {
    "cust_id": 14256901,
    "legal_name": "AcrossTaxes  Inc.",
    "dba_name": "AcrossTaxes  Inc.",
    "city": "Kitchener",
    "state": "ON",
    "zip_code": 0,
    "ytd_returns": 0,
    "prv1_returns": 0,
    "growth_rate": 0.0,
    "firm_size": NaN
  },
  {
    "cust_id": 737454,
    "legal_name": "KPMG LLP",
    "dba_name": "KPMG LLP",
    "city": "LONDON",
    "state": "ON",
    "zip_code": 0,
    "ytd_returns": 88,
    "prv1_returns": 89,
    "growth_rate": -1.1235955056179776,
    "firm_size": "0-500"
  },
  {
    "cust_id": 1266419,
    "legal_name": "ERNST & YOUNG LLP",
    "dba_name": "ERNST & YOUNG LLP",
    "city": "TORONTO",
    "state": "ON",
    "zip_code": 0,
    "ytd_returns": 2379,
    "prv1_returns": 2440,
    "growth_rate": -2.5,
    "firm_size": "1001-5000"
  },
  {
    "cust_id": 737172,
    "legal_name": "KPMG LLP",
    "dba_name": "KPMG LLP",
    "city": "Kitchener",
    "state": "ON",
    "zip_code": 0,
    "ytd_returns": 382,
    "prv1_returns": 398,
    "growth_rate": -4.0201005025125625,
    "firm_size": "0-500"
  },
  {
    "cust_id": 1259140,
    "legal_name": "BDO CANADA LLP",
    "dba_name": "BDO Canada LLP",
    "city": "Toronto",
    "state": "ON",
    "zip_code": 0,
    "ytd_returns": 5876,
    "prv1_returns": 6158,
    "growth_rate": -4.579408898993179,
    "firm_size": "5001-10000"
  },
  {
    "cust_id": 1979148,
    "legal_name": "CONSTELLATION SOFTWARE (USA) INC.",
    "dba_name": "CONSTELLATION SOFTWARE (USA) INC.",
    "city": "TORONTO",
    "state": "ON",
    "zip_code": 0,
    "ytd_returns": 71,
    "prv1_returns": 75,
    "growth_rate": -5.333333333333334,
    "firm_size": "0-500"
  },
  {
    "cust_id": 720246,
    "legal_name": "PRICEWATERHOUSECOOPERS LLP",
    "dba_name": "PRICEWATERHOUSECOOPERS LLP",
    "city": "TORONTO",
    "state": "ON",
    "zip_code": 0,
    "ytd_returns": 2038,
    "prv1_returns": 2182,
    "growth_rate": -6.5994500458295136,
    "firm_size": "1001-5000"
  },
  {
    "cust_id": 1259874,
    "legal_name": "DELOITTE & TOUCHE LLP",
    "dba_name": "DELOITTE & TOUCHE LLP",
    "city": "TORONTO",
    "state": "ON",
    "zip_code": 0,
    "ytd_returns": 2157,
    "prv1_returns": 2316,
    "growth_rate": -6.865284974093264,
    "firm_size": "1001-5000"
  },
  {
    "cust_id": 2290725,
    "legal_name": "RICHTER  LLP",
    "dba_name": "RICHTER  LLP",
    "city": "TORONTO",
    "state": "ON",
    "zip_code": 0,
    "ytd_returns": 574,
    "prv1_returns": 624,
    "growth_rate": -8.012820512820513,
    "firm_size": "501-1000"
  },
  {
    "cust_id": 737111,
    "legal_name": "KPMG LLP",
    "dba_name": "KPMG LLP",
    "city": "WINDSOR",
    "state": "ON",
    "zip_code": 0,
    "ytd_returns": 37,
    "prv1_returns": 41,
    "growth_rate": -9.75609756097561,
    "firm_size": "0-500"
  },
  {
    "cust_id": 1235474,
    "legal_name": "DELOITTE & TOUCHE LLP",
    "dba_name": "DELOITTE & TOUCHE LLP",
    "city": "KITCHENER",
    "state": "ON",
    "zip_code": 0,
    "ytd_returns": 55,
    "prv1_returns": 66,
    "growth_rate": -16.666666666666664,
    "firm_size": "0-500"
  },
  {
    "cust_id": 2283945,
    "legal_name": "VIVIENNE LI ACCOUNTING",
    "dba_name": "VIVIENNE LI ACCOUNTING",
    "city": "MARKHAM",
    "state": "ON",
    "zip_code": 0,
    "ytd_returns": 38,
    "prv1_returns": 47,
    "growth_rate": -19.148936170212767,
    "firm_size": "0-500"
  },
  {
    "cust_id": 2121190,
    "legal_name": "GRANT THORNTON LLP",
    "dba_name": "GRANT THORNTON LLP",
    "city": "TORONTO",
    "state": "ON",
    "zip_code": 0,
    "ytd_returns": 843,
    "prv1_returns": 1087,
    "growth_rate": -22.447102115915364,
    "firm_size": "501-1000"
  },
  {
    "cust_id": 13967689,
    "legal_name": "5009861 Ontario Inc.",
    "dba_name": "KIS Tax Services",
    "city": "Fort Erie",
    "state": "ON",
    "zip_code": 0,
    "ytd_returns": 230,
    "prv1_returns": 312,
    "growth_rate": -26.282051282051285,
    "firm_size": "0-500"
  },
  {
    "cust_id": 737475,
    "legal_name": "KPMG LLP",
    "dba_name": "KPMG LLP",
    "city": "SAULT STE. MARIE",
    "state": "ON",
    "zip_code": 0,
    "ytd_returns": 9,
    "prv1_returns": 13,
    "growth_rate": -30.76923076923077,
    "firm_size": "0-500"
  },
  {
    "cust_id": 2503764,
    "legal_name": "PRICEWATERHOUSECOOPERS LLP",
    "dba_name": "PRICEWATERHOUSECOOPERS LLP",
    "city": "LONDON",
    "state": "ON",
    "zip_code": 0,
    "ytd_returns": 14,
    "prv1_returns": 24,
    "growth_rate": -41.66666666666667,
    "firm_size": "0-500"
  },
  {
    "cust_id": 2170400,
    "legal_name": "MARK A. FEIGENBAUM",
    "dba_name": "MARK A. FEIGENBAUM",
    "city": "THORNHILL",
    "state": "ON",
    "zip_code": 0,
    "ytd_returns": 76,
    "prv1_returns": 641,
    "growth_rate": -88.14352574102963,
    "firm_size": "0-500"
  },
  {
    "cust_id": 2007024,
    "legal_name": "ALPESH JOSHI CA PROFESSIONAL CORP",
    "dba_name": "US TAX SOLUTIONS CA",
    "city": "Thornhill",
    "state": "ON",
    "zip_code": 0,
    "ytd_returns": 0,
    "prv1_returns": 4,
    "growth_rate": -100.0,
    "firm_size": NaN
  },
  {
    "cust_id": 2121009,
    "legal_name": "GRANT THORNTON LLP",
    "dba_name": "GRANT THORNTON LLP",
    "city": "THUNDER BAY",
    "state": "ON",
    "zip_code": 0,
    "ytd_returns": 0,
    "prv1_returns": 16,
    "growth_rate": -100.0,
    "firm_size": NaN
  },
  {
    "cust_id": 14218834,
    "legal_name": "RE TAX & ACCOUNTING GROUP LLC",
    "dba_name": "RE TAX & ACCOUNTING GROUP LLC",
    "city": "OAKVILLE",
    "state": "ON",
    "zip_code": 0,
    "ytd_returns": 0,
    "prv1_returns": 0,
    "growth_rate": 0.0,
    "firm_size": NaN
  },
  {
    "cust_id": 2193204,
    "legal_name": "WAVE ACCOUNTING INC",
    "dba_name": "WAVE ACCOUNTING INC",
    "city": "TORONTO",
    "state": "ON",
    "zip_code": 0,
    "ytd_returns": 0,
    "prv1_returns": 0,
    "growth_rate": 0.0,
    "firm_size": NaN
  },
  {
    "cust_id": 14247054,
    "legal_name": "AM Associates Professional Corporation",
    "dba_name": "AM Associates Professional Corporation",
    "city": "Windsor",
    "state": "ON",
    "zip_code": 0,
    "ytd_returns": 1476,
    "prv1_returns": 0,
    "growth_rate": 147600.0,
    "firm_size": "1001-5000"
  },
  {
    "cust_id": 14089030,
    "legal_name": "MCO Partners Professional Corporation",
    "dba_name": "MCO Partners Professional Corporation",
    "city": "Windsor",
    "state": "ON",
    "zip_code": 0,
    "ytd_returns": 575,
    "prv1_returns": 0,
    "growth_rate": 57500.0,
    "firm_size": "501-1000"
  },
  {
    "cust_id": 14455416,
    "legal_name": "T1-1040 Tax Inc",
    "dba_name": "T1-1040 Tax Inc",
    "city": "Toronto",
    "state": "ON",
    "zip_code": 0,
    "ytd_returns": 307,
    "prv1_returns": 0,
    "growth_rate": 30700.0,
    "firm_size": "0-500"
  },
  {
    "cust_id": 14228170,
    "legal_name": "Grewal Guyatt LLP",
    "dba_name": "Grewal Guyatt LLP",
    "city": "Richmond Hill",
    "state": "ON",
    "zip_code": 0,
    "ytd_returns": 170,
    "prv1_returns": 19,
    "growth_rate": 794.7368421052632,
    "firm_size": "0-500"
  },
  {
    "cust_id": 14692750,
    "legal_name": "SAL Accounting Professional Corporation",
    "dba_name": "SAL Accounting Professional Corporation",
    "city": "Milton",
    "state": "ON",
    "zip_code": 0,
    "ytd_returns": 3,
    "prv1_returns": 0,
    "growth_rate": 300.0,
    "firm_size": "0-500"
  },
  {
    "cust_id": 14720813,
    "legal_name": "CLARE MOXLEY",
    "dba_name": "CLARE MOXLEY",
    "city": "Pickering",
    "state": "ON",
    "zip_code": 0,
    "ytd_returns": 3,
    "prv1_returns": 0,
    "growth_rate": 300.0,
    "firm_size": "0-500"
  },
  {
    "cust_id": 1630888,
    "legal_name": "U S TAX GROUP INC",
    "dba_name": "U S TAX GROUP INC",
    "city": "TORONTO",
    "state": "ON",
    "zip_code": 0,
    "ytd_returns": 3,
    "prv1_returns": 2,
    "growth_rate": 50.0,
    "firm_size": "0-500"
  },
  {
    "cust_id": 14185041,
    "legal_name": "1040 Abroad Inc.",
    "dba_name": "1040 Abroad Inc.",
    "city": "Toronto",
    "state": "ON",
    "zip_code": 0,
    "ytd_returns": 220,
    "prv1_returns": 148,
    "growth_rate": 48.64864864864865,
    "firm_size": "0-500"
  },
  {
    "cust_id": 13528519,
    "legal_name": "CROSS BORDER TAX SERVICES INC.",
    "dba_name": "CROSS BORDER TAX SERVICES INC.",
    "city": "FONTHILL",
    "state": "ON",
    "zip_code": 0,
    "ytd_returns": 182,
    "prv1_returns": 123,
    "growth_rate": 47.96747967479675,
    "firm_size": "0-500"
  },
  {
    "cust_id": 13830370,
    "legal_name": "Singer & Company Professional Corporatio",
    "dba_name": "Singer & Company Professional Corporatio",
    "city": "Thornhill",
    "state": "ON",
    "zip_code": 0,
    "ytd_returns": 11,
    "prv1_returns": 8,
    "growth_rate": 37.5,
    "firm_size": "0-500"
  },
  {
    "cust_id": 2315025,
    "legal_name": "KPMG LLP",
    "dba_name": "KPMG LLP",
    "city": "TORONTO",
    "state": "ON",
    "zip_code": 0,
    "ytd_returns": 1353,
    "prv1_returns": 1097,
    "growth_rate": 23.336371923427528,
    "firm_size": "1001-5000"
  },
  {
    "cust_id": 737469,
    "legal_name": "KPMG LLP",
    "dba_name": "KPMG LLP",
    "city": "TORONTO",
    "state": "ON",
    "zip_code": 0,
    "ytd_returns": 1422,
    "prv1_returns": 1179,
    "growth_rate": 20.610687022900763,
    "firm_size": "1001-5000"
  },
  {
    "cust_id": 13752876,
    "legal_name": "CVG TAX SOLUTIONS LP",
    "dba_name": "CVG TAX SOLUTIONS LP",
    "city": "Windsor",
    "state": "ON",
    "zip_code": 0,
    "ytd_returns": 253,
    "prv1_returns": 215,
    "growth_rate": 17.674418604651162,
    "firm_size": "0-500"
  },
  {
    "cust_id": 736692,
    "legal_name": "KPMG LLP",
    "dba_name": "KPMG LLP",
    "city": "TORONTO",
    "state": "ON",
    "zip_code": 0,
    "ytd_returns": 7,
    "prv1_returns": 6,
    "growth_rate": 16.666666666666664,
    "firm_size": "0-500"
  },
  {
    "cust_id": 737470,
    "legal_name": "KPMG LLP",
    "dba_name": "KPMG LLP",
    "city": "OTTAWA",
    "state": "ON",
    "zip_code": 0,
    "ytd_returns": 588,
    "prv1_returns": 507,
    "growth_rate": 15.976331360946746,
    "firm_size": "501-1000"
  },
  {
    "cust_id": 737112,
    "legal_name": "KPMG LLP",
    "dba_name": "KPMG LLP",
    "city": "WATERLOO",
    "state": "ON",
    "zip_code": 0,
    "ytd_returns": 749,
    "prv1_returns": 661,
    "growth_rate": 13.313161875945536,
    "firm_size": "501-1000"
  },
  {
    "cust_id": 2409267,
    "legal_name": "MAC TAXATION & MANAGEMENT SERVICES INC.",
    "dba_name": "MAC TAXATION & MANAGEMENT SERVICES INC.",
    "city": "WATERLOO",
    "state": "ON",
    "zip_code": 0,
    "ytd_returns": 695,
    "prv1_returns": 614,
    "growth_rate": 13.192182410423452,
    "firm_size": "501-1000"
  },
  {
    "cust_id": 737477,
    "legal_name": "KPMG LLP",
    "dba_name": "KPMG LLP",
    "city": "VAUGHAN",
    "state": "ON",
    "zip_code": 0,
    "ytd_returns": 2491,
    "prv1_returns": 2262,
    "growth_rate": 10.123784261715295,
    "firm_size": "1001-5000"
  },
  {
    "cust_id": 13758617,
    "legal_name": "U.S. TAX IQ INC",
    "dba_name": "U.S. Tax IQ",
    "city": "Oakville",
    "state": "ON",
    "zip_code": 0,
    "ytd_returns": 369,
    "prv1_returns": 340,
    "growth_rate": 8.529411764705882,
    "firm_size": "0-500"
  },
  {
    "cust_id": 2363181,
    "legal_name": "THE U.S. TAX GROUP LTD.",
    "dba_name": "THE U.S. TAX GROUP LTD.",
    "city": "TORONTO",
    "state": "ON",
    "zip_code": 0,
    "ytd_returns": 1938,
    "prv1_returns": 1835,
    "growth_rate": 5.61307901907357,
    "firm_size": "1001-5000"
  },
  {
    "cust_id": 2496251,
    "legal_name": "DIVAKAR JEEDIGUNTA CGA",
    "dba_name": "D/B/A Tax Preparer  Enrolled Agent",
    "city": "MISSISSAUGA",
    "state": "ON",
    "zip_code": 0,
    "ytd_returns": 143,
    "prv1_returns": 136,
    "growth_rate": 5.147058823529411,
    "firm_size": "0-500"
  },
  {
    "cust_id": 1235448,
    "legal_name": "DELOITTE & TOUCHE LLP",
    "dba_name": "DELOITTE & TOUCHE LLP",
    "city": "BURLINGTON",
    "state": "ON",
    "zip_code": 0,
    "ytd_returns": 206,
    "prv1_returns": 200,
    "growth_rate": 3.0,
    "firm_size": "0-500"
  },
  {
    "cust_id": 14020261,
    "legal_name": "FERRERA TAX & BOOKKEEPING SERVICES LTD",
    "dba_name": "FERRERA TAX & BOOKKEEPING SERVICES LTD",
    "city": "WINDSOR",
    "state": "ON",
    "zip_code": 0,
    "ytd_returns": 748,
    "prv1_returns": 747,
    "growth_rate": 0.1338688085676037,
    "firm_size": "501-1000"
  },
  {
    "cust_id": 14256901,
    "legal_name": "AcrossTaxes  Inc.",
    "dba_name": "AcrossTaxes  Inc.",
    "city": "Kitchener",
    "state": "ON",
    "zip_code": 0,
    "ytd_returns": 0,
    "prv1_returns": 0,
    "growth_rate": 0.0,
    "firm_size": NaN
  },
  {
    "cust_id": 2362876,
    "legal_name": "VIVIENNE LI ACCOUNTING",
    "dba_name": "NMG Professional Services Inc",
    "city": "MISSISSAUGA",
    "state": "ON",
    "zip_code": 0,
    "ytd_returns": 39,
    "prv1_returns": 39,
    "growth_rate": 0.0,
    "firm_size": "0-500"
  },
  {
    "cust_id": 1235447,
    "legal_name": "DELOITTE & TOUCHE LLP",
    "dba_name": "DELOITTE & TOUCHE LLP",
    "city": "WINDSOR",
    "state": "ON",
    "zip_code": 0,
    "ytd_returns": 7,
    "prv1_returns": 7,
    "growth_rate": 0.0,
    "firm_size": "0-500"
  },
  {
    "cust_id": 2486940,
    "legal_name": "VCNA US INC.",
    "dba_name": "VCNA US INC.",
    "city": "TORONTO",
    "state": "ON",
    "zip_code": 0,
    "ytd_returns": 5,
    "prv1_returns": 5,
    "growth_rate": 0.0,
    "firm_size": "0-500"
  },
  {
    "cust_id": 1132524,
    "legal_name": "DANIEL GRAY CPA",
    "dba_name": "US TAX Services",
    "city": "TORONTO",
    "state": "ON",
    "zip_code": 0,
    "ytd_returns": 206,
    "prv1_returns": 206,
    "growth_rate": 0.0,
    "firm_size": "0-500"
  },
  {
    "cust_id": 737454,
    "legal_name": "KPMG LLP",
    "dba_name": "KPMG LLP",
    "city": "LONDON",
    "state": "ON",
    "zip_code": 0,
    "ytd_returns": 88,
    "prv1_returns": 89,
    "growth_rate": -1.1235955056179776,
    "firm_size": "0-500"
  },
  {
    "cust_id": 1266419,
    "legal_name": "ERNST & YOUNG LLP",
    "dba_name": "ERNST & YOUNG LLP",
    "city": "TORONTO",
    "state": "ON",
    "zip_code": 0,
    "ytd_returns": 2379,
    "prv1_returns": 2440,
    "growth_rate": -2.5,
    "firm_size": "1001-5000"
  },
  {
    "cust_id": 737172,
    "legal_name": "KPMG LLP",
    "dba_name": "KPMG LLP",
    "city": "Kitchener",
    "state": "ON",
    "zip_code": 0,
    "ytd_returns": 382,
    "prv1_returns": 398,
    "growth_rate": -4.0201005025125625,
    "firm_size": "0-500"
  },
  {
    "cust_id": 1259140,
    "legal_name": "BDO CANADA LLP",
    "dba_name": "BDO Canada LLP",
    "city": "Toronto",
    "state": "ON",
    "zip_code": 0,
    "ytd_returns": 5876,
    "prv1_returns": 6158,
    "growth_rate": -4.579408898993179,
    "firm_size": "5001-10000"
  },
  {
    "cust_id": 1979148,
    "legal_name": "CONSTELLATION SOFTWARE (USA) INC.",
    "dba_name": "CONSTELLATION SOFTWARE (USA) INC.",
    "city": "TORONTO",
    "state": "ON",
    "zip_code": 0,
    "ytd_returns": 71,
    "prv1_returns": 75,
    "growth_rate": -5.333333333333334,
    "firm_size": "0-500"
  },
  {
    "cust_id": 720246,
    "legal_name": "PRICEWATERHOUSECOOPERS LLP",
    "dba_name": "PRICEWATERHOUSECOOPERS LLP",
    "city": "TORONTO",
    "state": "ON",
    "zip_code": 0,
    "ytd_returns": 2038,
    "prv1_returns": 2182,
    "growth_rate": -6.5994500458295136,
    "firm_size": "1001-5000"
  },
  {
    "cust_id": 1259874,
    "legal_name": "DELOITTE & TOUCHE LLP",
    "dba_name": "DELOITTE & TOUCHE LLP",
    "city": "TORONTO",
    "state": "ON",
    "zip_code": 0,
    "ytd_returns": 2157,
    "prv1_returns": 2316,
    "growth_rate": -6.865284974093264,
    "firm_size": "1001-5000"
  },
  {
    "cust_id": 2290725,
    "legal_name": "RICHTER  LLP",
    "dba_name": "RICHTER  LLP",
    "city": "TORONTO",
    "state": "ON",
    "zip_code": 0,
    "ytd_returns": 574,
    "prv1_returns": 624,
    "growth_rate": -8.012820512820513,
    "firm_size": "501-1000"
  },
  {
    "cust_id": 737111,
    "legal_name": "KPMG LLP",
    "dba_name": "KPMG LLP",
    "city": "WINDSOR",
    "state": "ON",
    "zip_code": 0,
    "ytd_returns": 37,
    "prv1_returns": 41,
    "growth_rate": -9.75609756097561,
    "firm_size": "0-500"
  },
  {
    "cust_id": 1235474,
    "legal_name": "DELOITTE & TOUCHE LLP",
    "dba_name": "DELOITTE & TOUCHE LLP",
    "city": "KITCHENER",
    "state": "ON",
    "zip_code": 0,
    "ytd_returns": 55,
    "prv1_returns": 66,
    "growth_rate": -16.666666666666664,
    "firm_size": "0-500"
  },
  {
    "cust_id": 2283945,
    "legal_name": "VIVIENNE LI ACCOUNTING",
    "dba_name": "VIVIENNE LI ACCOUNTING",
    "city": "MARKHAM",
    "state": "ON",
    "zip_code": 0,
    "ytd_returns": 38,
    "prv1_returns": 47,
    "growth_rate": -19.148936170212767,
    "firm_size": "0-500"
  },
  {
    "cust_id": 2121190,
    "legal_name": "GRANT THORNTON LLP",
    "dba_name": "GRANT THORNTON LLP",
    "city": "TORONTO",
    "state": "ON",
    "zip_code": 0,
    "ytd_returns": 843,
    "prv1_returns": 1087,
    "growth_rate": -22.447102115915364,
    "firm_size": "501-1000"
  },
  {
    "cust_id": 13967689,
    "legal_name": "5009861 Ontario Inc.",
    "dba_name": "KIS Tax Services",
    "city": "Fort Erie",
    "state": "ON",
    "zip_code": 0,
    "ytd_returns": 230,
    "prv1_returns": 312,
    "growth_rate": -26.282051282051285,
    "firm_size": "0-500"
  },
  {
    "cust_id": 737475,
    "legal_name": "KPMG LLP",
    "dba_name": "KPMG LLP",
    "city": "SAULT STE. MARIE",
    "state": "ON",
    "zip_code": 0,
    "ytd_returns": 9,
    "prv1_returns": 13,
    "growth_rate": -30.76923076923077,
    "firm_size": "0-500"
  },
  {
    "cust_id": 2503764,
    "legal_name": "PRICEWATERHOUSECOOPERS LLP",
    "dba_name": "PRICEWATERHOUSECOOPERS LLP",
    "city": "LONDON",
    "state": "ON",
    "zip_code": 0,
    "ytd_returns": 14,
    "prv1_returns": 24,
    "growth_rate": -41.66666666666667,
    "firm_size": "0-500"
  },
  {
    "cust_id": 2170400,
    "legal_name": "MARK A. FEIGENBAUM",
    "dba_name": "MARK A. FEIGENBAUM",
    "city": "THORNHILL",
    "state": "ON",
    "zip_code": 0,
    "ytd_returns": 76,
    "prv1_returns": 641,
    "growth_rate": -88.14352574102963,
    "firm_size": "0-500"
  },
  {
    "cust_id": 2007024,
    "legal_name": "ALPESH JOSHI CA PROFESSIONAL CORP",
    "dba_name": "US TAX SOLUTIONS CA",
    "city": "Thornhill",
    "state": "ON",
    "zip_code": 0,
    "ytd_returns": 0,
    "prv1_returns": 4,
    "growth_rate": -100.0,
    "firm_size": NaN
  },
  {
    "cust_id": 2121009,
    "legal_name": "GRANT THORNTON LLP",
    "dba_name": "GRANT THORNTON LLP",
    "city": "THUNDER BAY",
    "state": "ON",
    "zip_code": 0,
    "ytd_returns": 0,
    "prv1_returns": 16,
    "growth_rate": -100.0,
    "firm_size": NaN
  },
  {
    "cust_id": 2068035,
    "legal_name": "Steven L Sherman",
    "dba_name": "Cross Border Tax Services",
    "city": "TORONTO",
    "state": "ON",
    "zip_code": 0,
    "ytd_returns": 879,
    "prv1_returns": 918,
    "growth_rate": -4.248366013071895,
    "firm_size": "501-1000"
  },
  {
    "cust_id": 1320538,
    "legal_name": "FIRSTSERVICE CAM HOLDINGS  INC.",
    "dba_name": "FIRSTSERVICE CAM HOLDINGS  INC.",
    "city": "Toronto",
    "state": "ON",
    "zip_code": 0,
    "ytd_returns": 44,
    "prv1_returns": 36,
    "growth_rate": 22.22222222222222,
    "firm_size": "0-500"
  },
  {
    "cust_id": 2155377,
    "legal_name": "Russell Sullivan",
    "dba_name": "Russell Sullivan",
    "city": "DURHAM",
    "state": "ON",
    "zip_code": 0,
    "ytd_returns": 129,
    "prv1_returns": 120,
    "growth_rate": 7.5,
    "firm_size": "0-500"
  },
  {
    "cust_id": 1498096,
    "legal_name": "Kay Hashimoto",
    "dba_name": "Kay J Hashimoto",
    "city": "Ottawa",
    "state": "ON",
    "zip_code": 0,
    "ytd_returns": 0,
    "prv1_returns": 0,
    "growth_rate": 0.0,
    "firm_size": NaN
  },
  {
    "cust_id": 2342306,
    "legal_name": "D+H USA INC",
    "dba_name": "D&H USA INC",
    "city": "TORONTO",
    "state": "ON",
    "zip_code": 0,
    "ytd_returns": 2,
    "prv1_returns": 2,
    "growth_rate": 0.0,
    "firm_size": "0-500"
  },
  {
    "cust_id": 2216253,
    "legal_name": "Xiaodong Yin",
    "dba_name": "Doris Yin Accounting & Tax Service",
    "city": "Toronto",
    "state": "ON",
    "zip_code": 0,
    "ytd_returns": 49,
    "prv1_returns": 51,
    "growth_rate": -3.92156862745098,
    "firm_size": "0-500"
  },
  {
    "cust_id": 13972348,
    "legal_name": "Richard S Markman",
    "dba_name": "Richard  S Markman",
    "city": "North York",
    "state": "ON",
    "zip_code": 0,
    "ytd_returns": 71,
    "prv1_returns": 74,
    "growth_rate": -4.054054054054054,
    "firm_size": "0-500"
  },
  {
    "cust_id": 13557139,
    "legal_name": "XINXIN ZHANG",
    "dba_name": "US TAX AND ACCOUNTING SERVICES",
    "city": "THORNHILL",
    "state": "ON",
    "zip_code": 0,
    "ytd_returns": 17,
    "prv1_returns": 7,
    "growth_rate": 142.85714285714286,
    "firm_size": "0-500"
  },
  {
    "cust_id": 13799549,
    "legal_name": "THOMSON REUTERS TAX & ACCOUNTING INC",
    "dba_name": "Bateman MacKay",
    "city": "Mississauga",
    "state": "ON",
    "zip_code": 0,
    "ytd_returns": 0,
    "prv1_returns": 0,
    "growth_rate": 0.0,
    "firm_size": NaN
  },
  {
    "cust_id": 14299131,
    "legal_name": "OCTAGON TAX & ACCOUNTING SERVICES INC.",
    "dba_name": "OCTAGON TAX & ACCOUNTING SERVICES INC.",
    "city": "Toronto",
    "state": "ON",
    "zip_code": 0,
    "ytd_returns": 27,
    "prv1_returns": 0,
    "growth_rate": 2700.0,
    "firm_size": "0-500"
  },
  {
    "cust_id": 14260334,
    "legal_name": "Ngoc Giao Nguyen",
    "dba_name": "Ngoc Giao Nguyen",
    "city": "Toronto",
    "state": "ON",
    "zip_code": 0,
    "ytd_returns": 0,
    "prv1_returns": 0,
    "growth_rate": 0.0,
    "firm_size": NaN
  },
  {
    "cust_id": 13662307,
    "legal_name": "Matthew Wilson  CPA  Inc.",
    "dba_name": "Matthew Wilson  CPA  Inc.",
    "city": "Toronto",
    "state": "ON",
    "zip_code": 0,
    "ytd_returns": 6,
    "prv1_returns": 6,
    "growth_rate": 0.0,
    "firm_size": "0-500"
  },
  {
    "cust_id": 14642043,
    "legal_name": "Jaclyn  Sabatino",
    "dba_name": "Jaclyn  Sabatino",
    "city": "Woodbridge",
    "state": "ON",
    "zip_code": 0,
    "ytd_returns": 2,
    "prv1_returns": 0,
    "growth_rate": 200.0,
    "firm_size": "0-500"
  },
  {
    "cust_id": 1320458,
    "legal_name": "THE FRANCHISE COMPANY (US)  INC.",
    "dba_name": "THE FRANCHISE COMPANY (US)  INC.",
    "city": "Toronto",
    "state": "ON",
    "zip_code": 0,
    "ytd_returns": 2,
    "prv1_returns": 2,
    "growth_rate": 0.0,
    "firm_size": "0-500"
  },
  {
    "cust_id": 14228764,
    "legal_name": "DANIEL A NADEAU",
    "dba_name": "DANIEL A NADEAU",
    "city": "Windsor",
    "state": "ON",
    "zip_code": 0,
    "ytd_returns": 569,
    "prv1_returns": 0,
    "growth_rate": 56900.0,
    "firm_size": "501-1000"
  },
  {
    "cust_id": 2045224,
    "legal_name": "Moshe Zelig Avner Polatsek",
    "dba_name": "Moshe Zelig Avner Polatsek",
    "city": "TORONTO",
    "state": "ON",
    "zip_code": 0,
    "ytd_returns": 1538,
    "prv1_returns": 1312,
    "growth_rate": 17.22560975609756,
    "firm_size": "1001-5000"
  },
  {
    "cust_id": 2323451,
    "legal_name": "Aristaea Clarkson",
    "dba_name": "GAClarkson",
    "city": "Mississauga",
    "state": "ON",
    "zip_code": 0,
    "ytd_returns": 360,
    "prv1_returns": 310,
    "growth_rate": 16.129032258064516,
    "firm_size": "0-500"
  },
  {
    "cust_id": 2128504,
    "legal_name": "John R Mott",
    "dba_name": "John R Mott",
    "city": "TORONTO",
    "state": "ON",
    "zip_code": 0,
    "ytd_returns": 675,
    "prv1_returns": 684,
    "growth_rate": -1.3157894736842104,
    "firm_size": "501-1000"
  },
  {
    "cust_id": 2213132,
    "legal_name": "HOLLY HABER",
    "dba_name": "HOLLY B HABER",
    "city": "TORONTO",
    "state": "ON",
    "zip_code": 0,
    "ytd_returns": 673,
    "prv1_returns": 738,
    "growth_rate": -8.807588075880759,
    "firm_size": "501-1000"
  },
  {
    "cust_id": 2297230,
    "legal_name": "Lascelles Whilby",
    "dba_name": "Charmaine Lawrence Professional Corp",
    "city": "TORONTO",
    "state": "ON",
    "zip_code": 0,
    "ytd_returns": 85,
    "prv1_returns": 107,
    "growth_rate": -20.5607476635514,
    "firm_size": "0-500"
  },
  {
    "cust_id": 14616233,
    "legal_name": "Andrew M Willis",
    "dba_name": "Andrew M Willis",
    "city": "London",
    "state": "ON",
    "zip_code": 0,
    "ytd_returns": 5,
    "prv1_returns": 0,
    "growth_rate": 500.0,
    "firm_size": "0-500"
  },
  {
    "cust_id": 2465006,
    "legal_name": "David Z Handelsman",
    "dba_name": "David Z Handelsman",
    "city": "TORONTO",
    "state": "ON",
    "zip_code": 0,
    "ytd_returns": 125,
    "prv1_returns": 80,
    "growth_rate": 56.25,
    "firm_size": "0-500"
  },
  {
    "cust_id": 2319256,
    "legal_name": "Tia Guinness",
    "dba_name": "Tia M Guiness",
    "city": "TORONTO",
    "state": "ON",
    "zip_code": 0,
    "ytd_returns": 118,
    "prv1_returns": 96,
    "growth_rate": 22.916666666666664,
    "firm_size": "0-500"
  },
  {
    "cust_id": 14735406,
    "legal_name": "Yakov M Rosen",
    "dba_name": "Yakov M Rosen",
    "city": "toronto",
    "state": "ON",
    "zip_code": 0,
    "ytd_returns": 0,
    "prv1_returns": 0,
    "growth_rate": 0.0,
    "firm_size": NaN
  },
  {
    "cust_id": 2200701,
    "legal_name": "BENJAMIN GROSS",
    "dba_name": "BENJAMIN GROSS",
    "city": "TORONTO",
    "state": "ON",
    "zip_code": 0,
    "ytd_returns": 59,
    "prv1_returns": 61,
    "growth_rate": -3.278688524590164,
    "firm_size": "0-500"
  },
  {
    "cust_id": 13751669,
    "legal_name": "Ariel Figdor",
    "dba_name": "Ariel Figdor",
    "city": "CONCORD",
    "state": "ON",
    "zip_code": 0,
    "ytd_returns": 3,
    "prv1_returns": 4,
    "growth_rate": -25.0,
    "firm_size": "0-500"
  },
  {
    "cust_id": 1735511,
    "legal_name": "judah basser",
    "dba_name": "judah basser",
    "city": "TORONTO",
    "state": "ON",
    "zip_code": 0,
    "ytd_returns": 114,
    "prv1_returns": 154,
    "growth_rate": -25.97402597402597,
    "firm_size": "0-500"
  },
  {
    "cust_id": 2514242,
    "legal_name": "Allan Waldron",
    "dba_name": "Allan R Waldron",
    "city": "Lakefield",
    "state": "ON",
    "zip_code": 0,
    "ytd_returns": 21,
    "prv1_returns": 37,
    "growth_rate": -43.24324324324324,
    "firm_size": "0-500"
  },
  {
    "cust_id": 13580656,
    "legal_name": "CCH INC.",
    "dba_name": "Linamar Corporation",
    "city": "GUELPH",
    "state": "ON",
    "zip_code": 0,
    "ytd_returns": 34,
    "prv1_returns": 22,
    "growth_rate": 54.54545454545454,
    "firm_size": "0-500"
  },
  {
    "cust_id": 13957474,
    "legal_name": "Brian J Fruchter",
    "dba_name": "Brian  J Fruchter",
    "city": "Toronto",
    "state": "ON",
    "zip_code": 0,
    "ytd_returns": 0,
    "prv1_returns": 0,
    "growth_rate": 0.0,
    "firm_size": NaN
  },
  {
    "cust_id": 2386803,
    "legal_name": "Miriam Hauptman",
    "dba_name": "MIRIAM HAUPTMAN",
    "city": "TORONTO",
    "state": "ON",
    "zip_code": 0,
    "ytd_returns": 219,
    "prv1_returns": 254,
    "growth_rate": -13.77952755905512,
    "firm_size": "0-500"
  },
  {
    "cust_id": 2378436,
    "legal_name": "Lorynne Schreiber",
    "dba_name": "Lorynne Schreiber",
    "city": "TORONTO",
    "state": "ON",
    "zip_code": 0,
    "ytd_returns": 20,
    "prv1_returns": 5,
    "growth_rate": 300.0,
    "firm_size": "0-500"
  },
  {
    "cust_id": 13806024,
    "legal_name": "Mujtaba H Syed",
    "dba_name": "ZMB Tax Consultants Inc",
    "city": "Bradford",
    "state": "ON",
    "zip_code": 0,
    "ytd_returns": 88,
    "prv1_returns": 62,
    "growth_rate": 41.935483870967744,
    "firm_size": "0-500"
  },
  {
    "cust_id": 2190839,
    "legal_name": "FRANCES L WALLACE",
    "dba_name": "FRANCES L WALLACE",
    "city": "Kitchener",
    "state": "ON",
    "zip_code": 0,
    "ytd_returns": 14,
    "prv1_returns": 16,
    "growth_rate": -12.5,
    "firm_size": "0-500"
  },
  {
    "cust_id": 1826136,
    "legal_name": "Charles Vert",
    "dba_name": "Charles Vert",
    "city": "TORONTO",
    "state": "ON",
    "zip_code": 0,
    "ytd_returns": 9,
    "prv1_returns": 0,
    "growth_rate": 900.0,
    "firm_size": "0-500"
  },
  {
    "cust_id": 13972348,
    "legal_name": "Richard S Markman",
    "dba_name": "Richard  S Markman",
    "city": "North York",
    "state": "ON",
    "zip_code": 0,
    "ytd_returns": 71,
    "prv1_returns": 74,
    "growth_rate": -4.054054054054054,
    "firm_size": "0-500"
  },
  {
    "cust_id": 2216253,
    "legal_name": "Xiaodong Yin",
    "dba_name": "Doris Yin Accounting & Tax Service",
    "city": "Toronto",
    "state": "ON",
    "zip_code": 0,
    "ytd_returns": 49,
    "prv1_returns": 51,
    "growth_rate": -3.92156862745098,
    "firm_size": "0-500"
  },
  {
    "cust_id": 13557139,
    "legal_name": "XINXIN ZHANG",
    "dba_name": "US TAX AND ACCOUNTING SERVICES",
    "city": "THORNHILL",
    "state": "ON",
    "zip_code": 0,
    "ytd_returns": 17,
    "prv1_returns": 7,
    "growth_rate": 142.85714285714286,
    "firm_size": "0-500"
  },
  {
    "cust_id": 13799549,
    "legal_name": "THOMSON REUTERS TAX & ACCOUNTING INC",
    "dba_name": "Bateman MacKay",
    "city": "Mississauga",
    "state": "ON",
    "zip_code": 0,
    "ytd_returns": 0,
    "prv1_returns": 0,
    "growth_rate": 0.0,
    "firm_size": NaN
  },
  {
    "cust_id": 14299131,
    "legal_name": "OCTAGON TAX & ACCOUNTING SERVICES INC.",
    "dba_name": "OCTAGON TAX & ACCOUNTING SERVICES INC.",
    "city": "Toronto",
    "state": "ON",
    "zip_code": 0,
    "ytd_returns": 27,
    "prv1_returns": 0,
    "growth_rate": 2700.0,
    "firm_size": "0-500"
  },
  {
    "cust_id": 14260334,
    "legal_name": "Ngoc Giao Nguyen",
    "dba_name": "Ngoc Giao Nguyen",
    "city": "Toronto",
    "state": "ON",
    "zip_code": 0,
    "ytd_returns": 0,
    "prv1_returns": 0,
    "growth_rate": 0.0,
    "firm_size": NaN
  },
  {
    "cust_id": 14148566,
    "legal_name": "MANGO & HUBER  LLC  CPAS",
    "dba_name": "BAZAR MCBEAN LLP",
    "city": "Oakville",
    "state": "ON",
    "zip_code": 0,
    "ytd_returns": 133,
    "prv1_returns": 110,
    "growth_rate": 20.909090909090907,
    "firm_size": "0-500"
  },
  {
    "cust_id": 2302622,
    "legal_name": "Shawn Stickler",
    "dba_name": "Stateside Tax Solutions",
    "city": "BELLEVILLE",
    "state": "ON",
    "zip_code": 0,
    "ytd_returns": 383,
    "prv1_returns": 379,
    "growth_rate": 1.0554089709762533,
    "firm_size": "0-500"
  },
  {
    "cust_id": 13662307,
    "legal_name": "Matthew Wilson  CPA  Inc.",
    "dba_name": "Matthew Wilson  CPA  Inc.",
    "city": "Toronto",
    "state": "ON",
    "zip_code": 0,
    "ytd_returns": 6,
    "prv1_returns": 6,
    "growth_rate": 0.0,
    "firm_size": "0-500"
  },
  {
    "cust_id": 2186564,
    "legal_name": "CHRISTOPHER E MEWHORT",
    "dba_name": "CHRISTOPHER E MEWHORT",
    "city": "GODERICH",
    "state": "ON",
    "zip_code": 0,
    "ytd_returns": 33,
    "prv1_returns": 51,
    "growth_rate": -35.294117647058826,
    "firm_size": "0-500"
  },
  {
    "cust_id": 1437491,
    "legal_name": "SAR HOLDINGS INC.",
    "dba_name": "SAR HOLDINGS INC.",
    "city": "MARKHAM",
    "state": "ON",
    "zip_code": 0,
    "ytd_returns": 0,
    "prv1_returns": 0,
    "growth_rate": 0.0,
    "firm_size": NaN
  },
  {
    "cust_id": 1320538,
    "legal_name": "FIRSTSERVICE CAM HOLDINGS  INC.",
    "dba_name": "FIRSTSERVICE CAM HOLDINGS  INC.",
    "city": "Toronto",
    "state": "ON",
    "zip_code": 0,
    "ytd_returns": 44,
    "prv1_returns": 36,
    "growth_rate": 22.22222222222222,
    "firm_size": "0-500"
  },
  {
    "cust_id": 2068035,
    "legal_name": "Steven L Sherman",
    "dba_name": "Cross Border Tax Services",
    "city": "TORONTO",
    "state": "ON",
    "zip_code": 0,
    "ytd_returns": 879,
    "prv1_returns": 918,
    "growth_rate": -4.248366013071895,
    "firm_size": "501-1000"
  },
  {
    "cust_id": 2155377,
    "legal_name": "Russell Sullivan",
    "dba_name": "Russell Sullivan",
    "city": "DURHAM",
    "state": "ON",
    "zip_code": 0,
    "ytd_returns": 129,
    "prv1_returns": 120,
    "growth_rate": 7.5,
    "firm_size": "0-500"
  },
  {
    "cust_id": 1498096,
    "legal_name": "Kay Hashimoto",
    "dba_name": "Kay J Hashimoto",
    "city": "Ottawa",
    "state": "ON",
    "zip_code": 0,
    "ytd_returns": 0,
    "prv1_returns": 0,
    "growth_rate": 0.0,
    "firm_size": NaN
  },
  {
    "cust_id": 2342306,
    "legal_name": "D+H USA INC",
    "dba_name": "D&H USA INC",
    "city": "TORONTO",
    "state": "ON",
    "zip_code": 0,
    "ytd_returns": 2,
    "prv1_returns": 2,
    "growth_rate": 0.0,
    "firm_size": "0-500"
  }
]